{
"type": "FeatureCollection",
"name": "CIAMPEA_POINTSNEW",
"crs": { "type": "name", "properties": { "name": "urn:ogc:def:crs:OGC:1.3:CRS84" } },
"features": [
{ "type": "Feature", "properties": { "NAMOBJ": "Jaringan Bergerak Seluler", "REMARK": "Base Transceiver Station", "source_layer": "BTS", "Name": null, "TipeFaskes": null, "TipeFasdik": null, "ORDE01_res": null, "STSJRN_res": null, "Merk_Toko": null, "Nama_Toko": null, "Nama_Pasar": null, "Kode": null }, "geometry": { "type": "Point", "coordinates": [ 106.686719999673997, -6.580460000151857, 0.0 ] } },
{ "type": "Feature", "properties": { "NAMOBJ": "Jaringan Bergerak Seluler", "REMARK": "Base Transceiver Station", "source_layer": "BTS", "Name": null, "TipeFaskes": null, "TipeFasdik": null, "ORDE01_res": null, "STSJRN_res": null, "Merk_Toko": null, "Nama_Toko": null, "Nama_Pasar": null, "Kode": null }, "geometry": { "type": "Point", "coordinates": [ 106.716690000339582, -6.588900000444107, 0.0 ] } },
{ "type": "Feature", "properties": { "NAMOBJ": "Jaringan Bergerak Seluler", "REMARK": "Base Transceiver Station", "source_layer": "BTS", "Name": null, "TipeFaskes": null, "TipeFasdik": null, "ORDE01_res": null, "STSJRN_res": null, "Merk_Toko": null, "Nama_Toko": null, "Nama_Pasar": null, "Kode": null }, "geometry": { "type": "Point", "coordinates": [ 106.700000000144058, -6.550000000312, 0.0 ] } },
{ "type": "Feature", "properties": { "NAMOBJ": "Jaringan Bergerak Seluler", "REMARK": "Base Transceiver Station", "source_layer": "BTS", "Name": null, "TipeFaskes": null, "TipeFasdik": null, "ORDE01_res": null, "STSJRN_res": null, "Merk_Toko": null, "Nama_Toko": null, "Nama_Pasar": null, "Kode": null }, "geometry": { "type": "Point", "coordinates": [ 106.719500000149239, -6.563300000031606, 0.0 ] } },
{ "type": "Feature", "properties": { "NAMOBJ": "Jaringan Bergerak Seluler", "REMARK": "Base Transceiver Station", "source_layer": "BTS", "Name": null, "TipeFaskes": null, "TipeFasdik": null, "ORDE01_res": null, "STSJRN_res": null, "Merk_Toko": null, "Nama_Toko": null, "Nama_Pasar": null, "Kode": null }, "geometry": { "type": "Point", "coordinates": [ 106.707322520334884, -6.566908333371132, 0.0 ] } },
{ "type": "Feature", "properties": { "NAMOBJ": "Jaringan Bergerak Seluler", "REMARK": "Base Transceiver Station", "source_layer": "BTS", "Name": null, "TipeFaskes": null, "TipeFasdik": null, "ORDE01_res": null, "STSJRN_res": null, "Merk_Toko": null, "Nama_Toko": null, "Nama_Pasar": null, "Kode": null }, "geometry": { "type": "Point", "coordinates": [ 106.683944444798939, -6.611249999883111, 0.0 ] } },
{ "type": "Feature", "properties": { "NAMOBJ": "Jaringan Bergerak Seluler", "REMARK": "Base Transceiver Station", "source_layer": "BTS", "Name": null, "TipeFaskes": null, "TipeFasdik": null, "ORDE01_res": null, "STSJRN_res": null, "Merk_Toko": null, "Nama_Toko": null, "Nama_Pasar": null, "Kode": null }, "geometry": { "type": "Point", "coordinates": [ 106.716894444709524, -6.587672222357357, 0.0 ] } },
{ "type": "Feature", "properties": { "NAMOBJ": "Jaringan Bergerak Seluler", "REMARK": "Base Transceiver Station", "source_layer": "BTS", "Name": null, "TipeFaskes": null, "TipeFasdik": null, "ORDE01_res": null, "STSJRN_res": null, "Merk_Toko": null, "Nama_Toko": null, "Nama_Pasar": null, "Kode": null }, "geometry": { "type": "Point", "coordinates": [ 106.687083333648445, -6.581305555941223, 0.0 ] } },
{ "type": "Feature", "properties": { "NAMOBJ": "Jaringan Bergerak Seluler", "REMARK": "Base Transceiver Station", "source_layer": "BTS", "Name": null, "TipeFaskes": null, "TipeFasdik": null, "ORDE01_res": null, "STSJRN_res": null, "Merk_Toko": null, "Nama_Toko": null, "Nama_Pasar": null, "Kode": null }, "geometry": { "type": "Point", "coordinates": [ 106.684972221786992, -6.613555555697697, 0.0 ] } },
{ "type": "Feature", "properties": { "NAMOBJ": "Jaringan Bergerak Seluler", "REMARK": "Base Transceiver Station", "source_layer": "BTS", "Name": null, "TipeFaskes": null, "TipeFasdik": null, "ORDE01_res": null, "STSJRN_res": null, "Merk_Toko": null, "Nama_Toko": null, "Nama_Pasar": null, "Kode": null }, "geometry": { "type": "Point", "coordinates": [ 106.700888888968834, -6.58083333359935, 0.0 ] } },
{ "type": "Feature", "properties": { "NAMOBJ": "Jaringan Bergerak Seluler", "REMARK": "Base Transceiver Station", "source_layer": "BTS", "Name": null, "TipeFaskes": null, "TipeFasdik": null, "ORDE01_res": null, "STSJRN_res": null, "Merk_Toko": null, "Nama_Toko": null, "Nama_Pasar": null, "Kode": null }, "geometry": { "type": "Point", "coordinates": [ 106.702111111482225, -6.554499999913173, 0.0 ] } },
{ "type": "Feature", "properties": { "NAMOBJ": "Jaringan Bergerak Seluler", "REMARK": "Base Transceiver Station", "source_layer": "BTS", "Name": null, "TipeFaskes": null, "TipeFasdik": null, "ORDE01_res": null, "STSJRN_res": null, "Merk_Toko": null, "Nama_Toko": null, "Nama_Pasar": null, "Kode": null }, "geometry": { "type": "Point", "coordinates": [ 106.705694444141301, -6.557277777540786, 0.0 ] } },
{ "type": "Feature", "properties": { "NAMOBJ": "Jaringan Bergerak Seluler", "REMARK": "Base Transceiver Station", "source_layer": "BTS", "Name": null, "TipeFaskes": null, "TipeFasdik": null, "ORDE01_res": null, "STSJRN_res": null, "Merk_Toko": null, "Nama_Toko": null, "Nama_Pasar": null, "Kode": null }, "geometry": { "type": "Point", "coordinates": [ 106.709138888992257, -6.556027777939574, 0.0 ] } },
{ "type": "Feature", "properties": { "NAMOBJ": "Jaringan Bergerak Seluler", "REMARK": "Base Transceiver Station", "source_layer": "BTS", "Name": null, "TipeFaskes": null, "TipeFasdik": null, "ORDE01_res": null, "STSJRN_res": null, "Merk_Toko": null, "Nama_Toko": null, "Nama_Pasar": null, "Kode": null }, "geometry": { "type": "Point", "coordinates": [ 106.685138889304469, -6.59538888908543, 0.0 ] } },
{ "type": "Feature", "properties": { "NAMOBJ": "Jaringan Bergerak Seluler", "REMARK": "Base Transceiver Station", "source_layer": "BTS", "Name": null, "TipeFaskes": null, "TipeFasdik": null, "ORDE01_res": null, "STSJRN_res": null, "Merk_Toko": null, "Nama_Toko": null, "Nama_Pasar": null, "Kode": null }, "geometry": { "type": "Point", "coordinates": [ 106.690972222403616, -6.55875000014513, 0.0 ] } },
{ "type": "Feature", "properties": { "NAMOBJ": "Jaringan Bergerak Seluler", "REMARK": "Base Transceiver Station", "source_layer": "BTS", "Name": null, "TipeFaskes": null, "TipeFasdik": null, "ORDE01_res": null, "STSJRN_res": null, "Merk_Toko": null, "Nama_Toko": null, "Nama_Pasar": null, "Kode": null }, "geometry": { "type": "Point", "coordinates": [ 106.696861111056307, -6.553194444760363, 0.0 ] } },
{ "type": "Feature", "properties": { "NAMOBJ": "Jaringan Bergerak Seluler", "REMARK": "Base Transceiver Station", "source_layer": "BTS", "Name": null, "TipeFaskes": null, "TipeFasdik": null, "ORDE01_res": null, "STSJRN_res": null, "Merk_Toko": null, "Nama_Toko": null, "Nama_Pasar": null, "Kode": null }, "geometry": { "type": "Point", "coordinates": [ 106.696944444415777, -6.553416666303291, 0.0 ] } },
{ "type": "Feature", "properties": { "NAMOBJ": "Jaringan Bergerak Seluler", "REMARK": "Base Transceiver Station", "source_layer": "BTS", "Name": null, "TipeFaskes": null, "TipeFasdik": null, "ORDE01_res": null, "STSJRN_res": null, "Merk_Toko": null, "Nama_Toko": null, "Nama_Pasar": null, "Kode": null }, "geometry": { "type": "Point", "coordinates": [ 106.694443999683671, -6.544444000180676, 0.0 ] } },
{ "type": "Feature", "properties": { "NAMOBJ": "Jaringan Bergerak Seluler", "REMARK": "Base Transceiver Station", "source_layer": "BTS", "Name": null, "TipeFaskes": null, "TipeFasdik": null, "ORDE01_res": null, "STSJRN_res": null, "Merk_Toko": null, "Nama_Toko": null, "Nama_Pasar": null, "Kode": null }, "geometry": { "type": "Point", "coordinates": [ 106.725527778081855, -6.571722222545035, 0.0 ] } },
{ "type": "Feature", "properties": { "NAMOBJ": "Jaringan Bergerak Seluler", "REMARK": "Base Transceiver Station", "source_layer": "BTS", "Name": null, "TipeFaskes": null, "TipeFasdik": null, "ORDE01_res": null, "STSJRN_res": null, "Merk_Toko": null, "Nama_Toko": null, "Nama_Pasar": null, "Kode": null }, "geometry": { "type": "Point", "coordinates": [ 106.725527778081855, -6.571722222545035, 0.0 ] } },
{ "type": "Feature", "properties": { "NAMOBJ": null, "REMARK": null, "source_layer": "Fasilitas_Kesehatan", "Name": "KLINIK ARIMSA", "TipeFaskes": "Klinik Pratama", "TipeFasdik": null, "ORDE01_res": null, "STSJRN_res": null, "Merk_Toko": null, "Nama_Toko": null, "Nama_Pasar": null, "Kode": null }, "geometry": { "type": "Point", "coordinates": [ 106.718132099150864, -6.563038621752673, 0.0 ] } },
{ "type": "Feature", "properties": { "NAMOBJ": null, "REMARK": null, "source_layer": "Fasilitas_Kesehatan", "Name": "KLINIK PERMATA BUNDA", "TipeFaskes": "Klinik Pratama", "TipeFasdik": null, "ORDE01_res": null, "STSJRN_res": null, "Merk_Toko": null, "Nama_Toko": null, "Nama_Pasar": null, "Kode": null }, "geometry": { "type": "Point", "coordinates": [ 106.716932429724423, -6.562685237881873, 0.0 ] } },
{ "type": "Feature", "properties": { "NAMOBJ": null, "REMARK": null, "source_layer": "Fasilitas_Kesehatan", "Name": "PUSKESMAS CIAMPEA", "TipeFaskes": "Puskesmas", "TipeFasdik": null, "ORDE01_res": null, "STSJRN_res": null, "Merk_Toko": null, "Nama_Toko": null, "Nama_Pasar": null, "Kode": null }, "geometry": { "type": "Point", "coordinates": [ 106.692262856029785, -6.545886588990278, 0.0 ] } },
{ "type": "Feature", "properties": { "NAMOBJ": null, "REMARK": null, "source_layer": "Fasilitas_Kesehatan", "Name": "PUSKESMAS PASIR", "TipeFaskes": "Puskesmas", "TipeFasdik": null, "ORDE01_res": null, "STSJRN_res": null, "Merk_Toko": null, "Nama_Toko": null, "Nama_Pasar": null, "Kode": null }, "geometry": { "type": "Point", "coordinates": [ 106.700922215714257, -6.593807270297574, 0.0 ] } },
{ "type": "Feature", "properties": { "NAMOBJ": null, "REMARK": null, "source_layer": "Fasilitas_Kesehatan", "Name": "PUSKESMAS CIAMPEA UDIK", "TipeFaskes": "Puskesmas", "TipeFasdik": null, "ORDE01_res": null, "STSJRN_res": null, "Merk_Toko": null, "Nama_Toko": null, "Nama_Pasar": null, "Kode": null }, "geometry": { "type": "Point", "coordinates": [ 106.686489039285888, -6.595985262833965, 0.0 ] } },
{ "type": "Feature", "properties": { "NAMOBJ": null, "REMARK": null, "source_layer": "Fasilitas_Kesehatan", "Name": "PUSKESMAS CIHIDEUNG UDIK", "TipeFaskes": "Puskesmas", "TipeFasdik": null, "ORDE01_res": null, "STSJRN_res": null, "Merk_Toko": null, "Nama_Toko": null, "Nama_Pasar": null, "Kode": null }, "geometry": { "type": "Point", "coordinates": [ 106.716000000400044, -6.59243000029221, 0.0 ] } },
{ "type": "Feature", "properties": { "NAMOBJ": null, "REMARK": null, "source_layer": "Fasilitas_Kesehatan", "Name": "APOTEK KIMIA FARMA CIBANTENG", "TipeFaskes": "Apotek", "TipeFasdik": null, "ORDE01_res": null, "STSJRN_res": null, "Merk_Toko": null, "Nama_Toko": null, "Nama_Pasar": null, "Kode": null }, "geometry": { "type": "Point", "coordinates": [ 106.71291775057658, -6.559421646616427, 0.0 ] } },
{ "type": "Feature", "properties": { "NAMOBJ": null, "REMARK": null, "source_layer": "Fasilitas_Pendidikan", "Name": "SMKS MADANI", "TipeFaskes": null, "TipeFasdik": "Sekolah Menengah Kejuruan", "ORDE01_res": null, "STSJRN_res": null, "Merk_Toko": null, "Nama_Toko": null, "Nama_Pasar": null, "Kode": null }, "geometry": { "type": "Point", "coordinates": [ 106.705399999746049, -6.585299999864432, 0.0 ] } },
{ "type": "Feature", "properties": { "NAMOBJ": null, "REMARK": null, "source_layer": "Fasilitas_Pendidikan", "Name": "SMKS GEO INFORMATIKA", "TipeFaskes": null, "TipeFasdik": "Sekolah Menengah Kejuruan", "ORDE01_res": null, "STSJRN_res": null, "Merk_Toko": null, "Nama_Toko": null, "Nama_Pasar": null, "Kode": null }, "geometry": { "type": "Point", "coordinates": [ 106.724899999825325, -6.571499999584997, 0.0 ] } },
{ "type": "Feature", "properties": { "NAMOBJ": null, "REMARK": null, "source_layer": "Fasilitas_Pendidikan", "Name": "SMKS BINA IKHWANI", "TipeFaskes": null, "TipeFasdik": "Sekolah Menengah Kejuruan", "ORDE01_res": null, "STSJRN_res": null, "Merk_Toko": null, "Nama_Toko": null, "Nama_Pasar": null, "Kode": null }, "geometry": { "type": "Point", "coordinates": [ 106.717699999569362, -6.564200000040509, 0.0 ] } },
{ "type": "Feature", "properties": { "NAMOBJ": null, "REMARK": null, "source_layer": "Fasilitas_Pendidikan", "Name": "SMKS FARMASI GALENIUM", "TipeFaskes": null, "TipeFasdik": "Sekolah Menengah Kejuruan", "ORDE01_res": null, "STSJRN_res": null, "Merk_Toko": null, "Nama_Toko": null, "Nama_Pasar": null, "Kode": null }, "geometry": { "type": "Point", "coordinates": [ 106.721799999711521, -6.563000000131165, 0.0 ] } },
{ "type": "Feature", "properties": { "NAMOBJ": null, "REMARK": null, "source_layer": "Fasilitas_Pendidikan", "Name": "SMKS KESEHATAN PELITA", "TipeFaskes": null, "TipeFasdik": "Sekolah Menengah Kejuruan", "ORDE01_res": null, "STSJRN_res": null, "Merk_Toko": null, "Nama_Toko": null, "Nama_Pasar": null, "Kode": null }, "geometry": { "type": "Point", "coordinates": [ 106.697300000242947, -6.55359999969597, 0.0 ] } },
{ "type": "Feature", "properties": { "NAMOBJ": null, "REMARK": null, "source_layer": "Fasilitas_Pendidikan", "Name": "SMKS CIPTA INSANI", "TipeFaskes": null, "TipeFasdik": "Sekolah Menengah Kejuruan", "ORDE01_res": null, "STSJRN_res": null, "Merk_Toko": null, "Nama_Toko": null, "Nama_Pasar": null, "Kode": null }, "geometry": { "type": "Point", "coordinates": [ 106.699699999715179, -6.586399999700589, 0.0 ] } },
{ "type": "Feature", "properties": { "NAMOBJ": null, "REMARK": null, "source_layer": "Fasilitas_Pendidikan", "Name": "SMKS PERSADA", "TipeFaskes": null, "TipeFasdik": "Sekolah Menengah Kejuruan", "ORDE01_res": null, "STSJRN_res": null, "Merk_Toko": null, "Nama_Toko": null, "Nama_Pasar": null, "Kode": null }, "geometry": { "type": "Point", "coordinates": [ 106.721600000006774, -6.569399999839775, 0.0 ] } },
{ "type": "Feature", "properties": { "NAMOBJ": null, "REMARK": null, "source_layer": "Fasilitas_Pendidikan", "Name": "SMK YAPAN 1 CIAMPEA", "TipeFaskes": null, "TipeFasdik": "Sekolah Menengah Kejuruan", "ORDE01_res": null, "STSJRN_res": null, "Merk_Toko": null, "Nama_Toko": null, "Nama_Pasar": null, "Kode": null }, "geometry": { "type": "Point", "coordinates": [ 106.691900000302681, -6.535400000346395, 0.0 ] } },
{ "type": "Feature", "properties": { "NAMOBJ": null, "REMARK": null, "source_layer": "Fasilitas_Pendidikan", "Name": "SMKS PELITA CIAMPEA 2", "TipeFaskes": null, "TipeFasdik": "Sekolah Menengah Kejuruan", "ORDE01_res": null, "STSJRN_res": null, "Merk_Toko": null, "Nama_Toko": null, "Nama_Pasar": null, "Kode": null }, "geometry": { "type": "Point", "coordinates": [ 106.691645999646084, -6.593887999554018, 0.0 ] } },
{ "type": "Feature", "properties": { "NAMOBJ": null, "REMARK": null, "source_layer": "Fasilitas_Pendidikan", "Name": "SMKS AGRI INSANI", "TipeFaskes": null, "TipeFasdik": "Sekolah Menengah Kejuruan", "ORDE01_res": null, "STSJRN_res": null, "Merk_Toko": null, "Nama_Toko": null, "Nama_Pasar": null, "Kode": null }, "geometry": { "type": "Point", "coordinates": [ 106.722100000100738, -6.565100000054038, 0.0 ] } },
{ "type": "Feature", "properties": { "NAMOBJ": null, "REMARK": null, "source_layer": "Fasilitas_Pendidikan", "Name": "SMKS MADANI 2", "TipeFaskes": null, "TipeFasdik": "Sekolah Menengah Kejuruan", "ORDE01_res": null, "STSJRN_res": null, "Merk_Toko": null, "Nama_Toko": null, "Nama_Pasar": null, "Kode": null }, "geometry": { "type": "Point", "coordinates": [ 106.706199999916464, -6.580799999664704, 0.0 ] } },
{ "type": "Feature", "properties": { "NAMOBJ": null, "REMARK": null, "source_layer": "Fasilitas_Pendidikan", "Name": "SMKS PELITA CIAMPEA 1", "TipeFaskes": null, "TipeFasdik": "Sekolah Menengah Kejuruan", "ORDE01_res": null, "STSJRN_res": null, "Merk_Toko": null, "Nama_Toko": null, "Nama_Pasar": null, "Kode": null }, "geometry": { "type": "Point", "coordinates": [ 106.697599999953226, -6.552700000250161, 0.0 ] } },
{ "type": "Feature", "properties": { "NAMOBJ": null, "REMARK": null, "source_layer": "Fasilitas_Pendidikan", "Name": "SMK TI Bazma", "TipeFaskes": null, "TipeFasdik": "Sekolah Menengah Kejuruan", "ORDE01_res": null, "STSJRN_res": null, "Merk_Toko": null, "Nama_Toko": null, "Nama_Pasar": null, "Kode": null }, "geometry": { "type": "Point", "coordinates": [ 106.689000000367244, -6.574200000297144, 0.0 ] } },
{ "type": "Feature", "properties": { "NAMOBJ": null, "REMARK": null, "source_layer": "Fasilitas_Pendidikan", "Name": "SMKS BINTANG PELAJAR", "TipeFaskes": null, "TipeFasdik": "Sekolah Menengah Kejuruan", "ORDE01_res": null, "STSJRN_res": null, "Merk_Toko": null, "Nama_Toko": null, "Nama_Pasar": null, "Kode": null }, "geometry": { "type": "Point", "coordinates": [ 106.712899999654951, -6.565399999989138, 0.0 ] } },
{ "type": "Feature", "properties": { "NAMOBJ": null, "REMARK": null, "source_layer": "Fasilitas_Pendidikan", "Name": "SMKS MIFTAAHUSH SHUDUUR", "TipeFaskes": null, "TipeFasdik": "Sekolah Menengah Kejuruan", "ORDE01_res": null, "STSJRN_res": null, "Merk_Toko": null, "Nama_Toko": null, "Nama_Pasar": null, "Kode": null }, "geometry": { "type": "Point", "coordinates": [ 106.687500000418936, -6.593699999635469, 0.0 ] } },
{ "type": "Feature", "properties": { "NAMOBJ": null, "REMARK": null, "source_layer": "Fasilitas_Pendidikan", "Name": "SMK KOMPUTER INDONESIA", "TipeFaskes": null, "TipeFasdik": "Sekolah Menengah Kejuruan", "ORDE01_res": null, "STSJRN_res": null, "Merk_Toko": null, "Nama_Toko": null, "Nama_Pasar": null, "Kode": null }, "geometry": { "type": "Point", "coordinates": [ 106.689200000150393, -6.558800000219402, 0.0 ] } },
{ "type": "Feature", "properties": { "NAMOBJ": null, "REMARK": null, "source_layer": "Fasilitas_Pendidikan", "Name": "SMAS TARBIYATUL FALAH", "TipeFaskes": null, "TipeFasdik": "Sekolah Menengah Atas", "ORDE01_res": null, "STSJRN_res": null, "Merk_Toko": null, "Nama_Toko": null, "Nama_Pasar": null, "Kode": null }, "geometry": { "type": "Point", "coordinates": [ 106.705500000032899, -6.585300000192224, 0.0 ] } },
{ "type": "Feature", "properties": { "NAMOBJ": null, "REMARK": null, "source_layer": "Fasilitas_Pendidikan", "Name": "SMAN 1 CIAMPEA", "TipeFaskes": null, "TipeFasdik": "Sekolah Menengah Atas", "ORDE01_res": null, "STSJRN_res": null, "Merk_Toko": null, "Nama_Toko": null, "Nama_Pasar": null, "Kode": null }, "geometry": { "type": "Point", "coordinates": [ 106.689900000117802, -6.556100000227492, 0.0 ] } },
{ "type": "Feature", "properties": { "NAMOBJ": null, "REMARK": null, "source_layer": "Fasilitas_Pendidikan", "Name": "SMAS HANURA", "TipeFaskes": null, "TipeFasdik": "Sekolah Menengah Atas", "ORDE01_res": null, "STSJRN_res": null, "Merk_Toko": null, "Nama_Toko": null, "Nama_Pasar": null, "Kode": null }, "geometry": { "type": "Point", "coordinates": [ 106.711499999770538, -6.565700000278812, 0.0 ] } },
{ "type": "Feature", "properties": { "NAMOBJ": null, "REMARK": null, "source_layer": "Fasilitas_Pendidikan", "Name": "SMAS DARUTAFSIR", "TipeFaskes": null, "TipeFasdik": "Sekolah Menengah Atas", "ORDE01_res": null, "STSJRN_res": null, "Merk_Toko": null, "Nama_Toko": null, "Nama_Pasar": null, "Kode": null }, "geometry": { "type": "Point", "coordinates": [ 106.715299999639925, -6.5583999997902, 0.0 ] } },
{ "type": "Feature", "properties": { "NAMOBJ": null, "REMARK": null, "source_layer": "Fasilitas_Pendidikan", "Name": "MAS NURUL UMMAH", "TipeFaskes": null, "TipeFasdik": "Madrasah Aliyah", "ORDE01_res": null, "STSJRN_res": null, "Merk_Toko": null, "Nama_Toko": null, "Nama_Pasar": null, "Kode": null }, "geometry": { "type": "Point", "coordinates": [ 106.685299999823727, -6.601199999925137, 0.0 ] } },
{ "type": "Feature", "properties": { "NAMOBJ": null, "REMARK": null, "source_layer": "Fasilitas_Pendidikan", "Name": "MAS DARUL FALLAH", "TipeFaskes": null, "TipeFasdik": "Madrasah Aliyah", "ORDE01_res": null, "STSJRN_res": null, "Merk_Toko": null, "Nama_Toko": null, "Nama_Pasar": null, "Kode": null }, "geometry": { "type": "Point", "coordinates": [ 106.70229999991237, -6.551400000329692, 0.0 ] } },
{ "type": "Feature", "properties": { "NAMOBJ": null, "REMARK": null, "source_layer": "Fasilitas_Pendidikan", "Name": "MAS DARUT TAFSIR", "TipeFaskes": null, "TipeFasdik": "Madrasah Aliyah", "ORDE01_res": null, "STSJRN_res": null, "Merk_Toko": null, "Nama_Toko": null, "Nama_Pasar": null, "Kode": null }, "geometry": { "type": "Point", "coordinates": [ 106.715599999995703, -6.558399999799429, 0.0 ] } },
{ "type": "Feature", "properties": { "NAMOBJ": null, "REMARK": null, "source_layer": "Fasilitas_Pendidikan", "Name": "MAS NURUL ILMI", "TipeFaskes": null, "TipeFasdik": "Madrasah Aliyah", "ORDE01_res": null, "STSJRN_res": null, "Merk_Toko": null, "Nama_Toko": null, "Nama_Pasar": null, "Kode": null }, "geometry": { "type": "Point", "coordinates": [ 106.687300000160221, -6.600999999848788, 0.0 ] } },
{ "type": "Feature", "properties": { "NAMOBJ": "Unit Air Baku", "REMARK": "Ma. Ciampea", "source_layer": "Jaringan_Prasarana_Lainnya", "Name": null, "TipeFaskes": null, "TipeFasdik": null, "ORDE01_res": "Sistem Penyediaan Air Minum (SPAM)", "STSJRN_res": "Eksisting", "Merk_Toko": null, "Nama_Toko": null, "Nama_Pasar": null, "Kode": null }, "geometry": { "type": "Point", "coordinates": [ 106.687722000358576, -6.588006000115861, 0.0 ] } },
{ "type": "Feature", "properties": { "NAMOBJ": "Pembangkit Listrik Tenaga Surya (PLTS)", "REMARK": "PLTS Atap Pondok Pesantren Nurul Ummah", "source_layer": "Prasarana_Energi", "Name": null, "TipeFaskes": null, "TipeFasdik": null, "ORDE01_res": null, "STSJRN_res": "Rencana", "Merk_Toko": null, "Nama_Toko": null, "Nama_Pasar": null, "Kode": null }, "geometry": { "type": "Point", "coordinates": [ 106.693259261861968, -6.557536912702471, 0.0 ] } },
{ "type": "Feature", "properties": { "NAMOBJ": null, "REMARK": null, "source_layer": "Minimarket", "Name": null, "TipeFaskes": null, "TipeFasdik": null, "ORDE01_res": null, "STSJRN_res": null, "Merk_Toko": "Indomaret", "Nama_Toko": "IDM Cibuntu Kaum", "Nama_Pasar": null, "Kode": null }, "geometry": { "type": "Point", "coordinates": [ 106.684051900374982, -6.595272200351707, 0.0 ] } },
{ "type": "Feature", "properties": { "NAMOBJ": null, "REMARK": null, "source_layer": "Minimarket", "Name": null, "TipeFaskes": null, "TipeFasdik": null, "ORDE01_res": null, "STSJRN_res": null, "Merk_Toko": "Alfamart", "Nama_Toko": "Alfamart Cibuntu Kaum", "Nama_Pasar": null, "Kode": null }, "geometry": { "type": "Point", "coordinates": [ 106.683783000385233, -6.593392399639467, 0.0 ] } },
{ "type": "Feature", "properties": { "NAMOBJ": null, "REMARK": null, "source_layer": "Minimarket", "Name": null, "TipeFaskes": null, "TipeFasdik": null, "ORDE01_res": null, "STSJRN_res": null, "Merk_Toko": "Alfamart", "Nama_Toko": "Alfamart Cihideung Udik", "Nama_Pasar": null, "Kode": null }, "geometry": { "type": "Point", "coordinates": [ 106.718341899758911, -6.584500799871982, 0.0 ] } },
{ "type": "Feature", "properties": { "NAMOBJ": null, "REMARK": null, "source_layer": "Minimarket", "Name": null, "TipeFaskes": null, "TipeFasdik": null, "ORDE01_res": null, "STSJRN_res": null, "Merk_Toko": "Indomaret", "Nama_Toko": "Indomaret Cihideung Bogor", "Nama_Pasar": null, "Kode": null }, "geometry": { "type": "Point", "coordinates": [ 106.718257199810012, -6.584477299687589, 0.0 ] } },
{ "type": "Feature", "properties": { "NAMOBJ": null, "REMARK": null, "source_layer": "Minimarket", "Name": null, "TipeFaskes": null, "TipeFasdik": null, "ORDE01_res": null, "STSJRN_res": null, "Merk_Toko": "Indomaret", "Nama_Toko": "IDM Pury Araya", "Nama_Pasar": null, "Kode": null }, "geometry": { "type": "Point", "coordinates": [ 106.68667980033257, -6.571790100432739, 0.0 ] } },
{ "type": "Feature", "properties": { "NAMOBJ": null, "REMARK": null, "source_layer": "Minimarket", "Name": null, "TipeFaskes": null, "TipeFasdik": null, "ORDE01_res": null, "STSJRN_res": null, "Merk_Toko": "Alfamart", "Nama_Toko": "Alfamart Puri Arraya", "Nama_Pasar": null, "Kode": null }, "geometry": { "type": "Point", "coordinates": [ 106.686490400411685, -6.571606199866214, 0.0 ] } },
{ "type": "Feature", "properties": { "NAMOBJ": null, "REMARK": null, "source_layer": "Minimarket", "Name": null, "TipeFaskes": null, "TipeFasdik": null, "ORDE01_res": null, "STSJRN_res": null, "Merk_Toko": "Selaras Mart", "Nama_Toko": "Selaras Mart", "Nama_Pasar": null, "Kode": null }, "geometry": { "type": "Point", "coordinates": [ 106.707669900445637, -6.570786500196788, 0.0 ] } },
{ "type": "Feature", "properties": { "NAMOBJ": null, "REMARK": null, "source_layer": "Minimarket", "Name": null, "TipeFaskes": null, "TipeFasdik": null, "ORDE01_res": null, "STSJRN_res": null, "Merk_Toko": "Alfamart", "Nama_Toko": "Alfamart Abdul Fatah Ciampea", "Nama_Pasar": null, "Kode": null }, "geometry": { "type": "Point", "coordinates": [ 106.69602169964179, -6.561651200342574, 0.0 ] } },
{ "type": "Feature", "properties": { "NAMOBJ": null, "REMARK": null, "source_layer": "Minimarket", "Name": null, "TipeFaskes": null, "TipeFasdik": null, "ORDE01_res": null, "STSJRN_res": null, "Merk_Toko": "Alfamart", "Nama_Toko": "Alfamart Raya Cikampak", "Nama_Pasar": null, "Kode": null }, "geometry": { "type": "Point", "coordinates": [ 106.684325199848161, -6.560522300263923, 0.0 ] } },
{ "type": "Feature", "properties": { "NAMOBJ": null, "REMARK": null, "source_layer": "Minimarket", "Name": null, "TipeFaskes": null, "TipeFasdik": null, "ORDE01_res": null, "STSJRN_res": null, "Merk_Toko": "Indomaret", "Nama_Toko": "Indomaret Cibadak Bogor", "Nama_Pasar": null, "Kode": null }, "geometry": { "type": "Point", "coordinates": [ 106.690779199800318, -6.559570500078446, 0.0 ] } },
{ "type": "Feature", "properties": { "NAMOBJ": null, "REMARK": null, "source_layer": "Minimarket", "Name": null, "TipeFaskes": null, "TipeFasdik": null, "ORDE01_res": null, "STSJRN_res": null, "Merk_Toko": "Indomaret", "Nama_Toko": "Indomaret Letnan Sukarna Ciampea", "Nama_Pasar": null, "Kode": null }, "geometry": { "type": "Point", "coordinates": [ 106.69286030026268, -6.545411000017565, 0.0 ] } },
{ "type": "Feature", "properties": { "NAMOBJ": null, "REMARK": null, "source_layer": "Minimarket", "Name": null, "TipeFaskes": null, "TipeFasdik": null, "ORDE01_res": null, "STSJRN_res": null, "Merk_Toko": "Indomaret", "Nama_Toko": "Indomaret Tegal Ciampea", "Nama_Pasar": null, "Kode": null }, "geometry": { "type": "Point", "coordinates": [ 106.687977799935595, -6.545406099611741, 0.0 ] } },
{ "type": "Feature", "properties": { "NAMOBJ": null, "REMARK": null, "source_layer": "Minimarket", "Name": null, "TipeFaskes": null, "TipeFasdik": null, "ORDE01_res": null, "STSJRN_res": null, "Merk_Toko": "Alfamart", "Nama_Toko": "Alfamart Ciampea", "Nama_Pasar": null, "Kode": null }, "geometry": { "type": "Point", "coordinates": [ 106.693099000118821, -6.54513979956204, 0.0 ] } },
{ "type": "Feature", "properties": { "NAMOBJ": null, "REMARK": null, "source_layer": "Minimarket", "Name": null, "TipeFaskes": null, "TipeFasdik": null, "ORDE01_res": null, "STSJRN_res": null, "Merk_Toko": "Prima FreshMart", "Nama_Toko": "Prima Freshmart", "Nama_Pasar": null, "Kode": null }, "geometry": { "type": "Point", "coordinates": [ 106.691192399609633, -6.543105599643644, 0.0 ] } },
{ "type": "Feature", "properties": { "NAMOBJ": null, "REMARK": null, "source_layer": "Minimarket", "Name": null, "TipeFaskes": null, "TipeFasdik": null, "ORDE01_res": null, "STSJRN_res": null, "Merk_Toko": "Alfamart", "Nama_Toko": "X901/Alfamart Warung Borong", "Nama_Pasar": null, "Kode": null }, "geometry": { "type": "Point", "coordinates": [ 106.698307400366275, -6.554798399626402, 0.0 ] } },
{ "type": "Feature", "properties": { "NAMOBJ": null, "REMARK": null, "source_layer": "Minimarket", "Name": null, "TipeFaskes": null, "TipeFasdik": null, "ORDE01_res": null, "STSJRN_res": null, "Merk_Toko": "Alfamart", "Nama_Toko": "Cinangneng", "Nama_Pasar": null, "Kode": null }, "geometry": { "type": "Point", "coordinates": [ 106.703621700281303, -6.556194199602606, 0.0 ] } },
{ "type": "Feature", "properties": { "NAMOBJ": null, "REMARK": null, "source_layer": "Minimarket", "Name": null, "TipeFaskes": null, "TipeFasdik": null, "ORDE01_res": null, "STSJRN_res": null, "Merk_Toko": "Indomaret", "Nama_Toko": "Cikampak", "Nama_Pasar": null, "Kode": null }, "geometry": { "type": "Point", "coordinates": [ 106.69423660023898, -6.556726199854213, 0.0 ] } },
{ "type": "Feature", "properties": { "NAMOBJ": null, "REMARK": null, "source_layer": "Minimarket", "Name": null, "TipeFaskes": null, "TipeFasdik": null, "ORDE01_res": null, "STSJRN_res": null, "Merk_Toko": "Ceriamart", "Nama_Toko": "Crm Cinangneng", "Nama_Pasar": null, "Kode": null }, "geometry": { "type": "Point", "coordinates": [ 106.706062300235033, -6.556977000088414, 0.0 ] } },
{ "type": "Feature", "properties": { "NAMOBJ": null, "REMARK": null, "source_layer": "Minimarket", "Name": null, "TipeFaskes": null, "TipeFasdik": null, "ORDE01_res": null, "STSJRN_res": null, "Merk_Toko": "Ceriamart", "Nama_Toko": "CRM Anggrek Ciampea", "Nama_Pasar": null, "Kode": null }, "geometry": { "type": "Point", "coordinates": [ 106.706062300235033, -6.556977000088414, 0.0 ] } },
{ "type": "Feature", "properties": { "NAMOBJ": null, "REMARK": null, "source_layer": "Minimarket", "Name": null, "TipeFaskes": null, "TipeFasdik": null, "ORDE01_res": null, "STSJRN_res": null, "Merk_Toko": "Alfamart", "Nama_Toko": "SPBU Cibanteng", "Nama_Pasar": null, "Kode": null }, "geometry": { "type": "Point", "coordinates": [ 106.711543099734342, -6.558180099631846, 0.0 ] } },
{ "type": "Feature", "properties": { "NAMOBJ": null, "REMARK": null, "source_layer": "Minimarket", "Name": null, "TipeFaskes": null, "TipeFasdik": null, "ORDE01_res": null, "STSJRN_res": null, "Merk_Toko": "Alfamart", "Nama_Toko": "Cihideng Hilir", "Nama_Pasar": null, "Kode": null }, "geometry": { "type": "Point", "coordinates": [ 106.714440899727776, -6.560696700392377, 0.0 ] } },
{ "type": "Feature", "properties": { "NAMOBJ": null, "REMARK": null, "source_layer": "Minimarket", "Name": null, "TipeFaskes": null, "TipeFasdik": null, "ORDE01_res": null, "STSJRN_res": null, "Merk_Toko": "Indomaret", "Nama_Toko": "Cibanteng 3", "Nama_Pasar": null, "Kode": null }, "geometry": { "type": "Point", "coordinates": [ 106.719369600027107, -6.562908400402302, 0.0 ] } },
{ "type": "Feature", "properties": { "NAMOBJ": null, "REMARK": null, "source_layer": "Minimarket", "Name": null, "TipeFaskes": null, "TipeFasdik": null, "ORDE01_res": null, "STSJRN_res": null, "Merk_Toko": "Alfamart", "Nama_Toko": "SAT Cibanteng Proyek", "Nama_Pasar": null, "Kode": null }, "geometry": { "type": "Point", "coordinates": [ 106.717981199672707, -6.562931700037892, 0.0 ] } },
{ "type": "Feature", "properties": { "NAMOBJ": null, "REMARK": null, "source_layer": "Minimarket", "Name": null, "TipeFaskes": null, "TipeFasdik": null, "ORDE01_res": null, "STSJRN_res": null, "Merk_Toko": "Indomaret", "Nama_Toko": "Abdul Fatah Cinangka", "Nama_Pasar": null, "Kode": null }, "geometry": { "type": "Point", "coordinates": [ 106.703794600340586, -6.591277900154914, 0.0 ] } },
{ "type": "Feature", "properties": { "NAMOBJ": null, "REMARK": null, "source_layer": "Minimarket", "Name": null, "TipeFaskes": null, "TipeFasdik": null, "ORDE01_res": null, "STSJRN_res": null, "Merk_Toko": "Alfamart", "Nama_Toko": "Abdul Fatah2", "Nama_Pasar": null, "Kode": null }, "geometry": { "type": "Point", "coordinates": [ 106.704389699724913, -6.592465900081156, 0.0 ] } },
{ "type": "Feature", "properties": { "NAMOBJ": null, "REMARK": null, "source_layer": "Pasar", "Name": null, "TipeFaskes": null, "TipeFasdik": null, "ORDE01_res": null, "STSJRN_res": null, "Merk_Toko": null, "Nama_Toko": null, "Nama_Pasar": "Pasar Ciampea", "Kode": null }, "geometry": { "type": "Point", "coordinates": [ 106.69306000011899, -6.54815999998396, 0.0 ] } },
{ "type": "Feature", "properties": { "NAMOBJ": null, "REMARK": null, "source_layer": "Pasar", "Name": null, "TipeFaskes": null, "TipeFasdik": null, "ORDE01_res": null, "STSJRN_res": null, "Merk_Toko": null, "Nama_Toko": null, "Nama_Pasar": "Pasar Selasa", "Kode": null }, "geometry": { "type": "Point", "coordinates": [ 106.684805599698734, -6.610861110751619, 0.0 ] } }
]
}
