{
"type": "FeatureCollection",
"name": "CIAMPEA_POINTS",
"crs": { "type": "name", "properties": { "name": "urn:ogc:def:crs:EPSG::32748" } },
"features": [
{ "type": "Feature", "properties": { "NAMOBJ": "Jaringan Bergerak Seluler", "REMARK": "Base Transceiver Station", "source_layer": "BTS", "Name": null, "TipeFaskes": null, "TipeFasdik": null, "ORDE01_res": null, "STSJRN_res": null, "Merk_Toko": null, "Nama_Toko": null, "Nama_Pasar": null, "Kode": null }, "geometry": { "type": "Point", "coordinates": [ 686487.792200000025332, 9272314.781999999657273, 0.0 ] } },
{ "type": "Feature", "properties": { "NAMOBJ": "Jaringan Bergerak Seluler", "REMARK": "Base Transceiver Station", "source_layer": "BTS", "Name": null, "TipeFaskes": null, "TipeFasdik": null, "ORDE01_res": null, "STSJRN_res": null, "Merk_Toko": null, "Nama_Toko": null, "Nama_Pasar": null, "Kode": null }, "geometry": { "type": "Point", "coordinates": [ 689799.102900000289083, 9271370.089800000190735, 0.0 ] } },
{ "type": "Feature", "properties": { "NAMOBJ": "Jaringan Bergerak Seluler", "REMARK": "Base Transceiver Station", "source_layer": "BTS", "Name": null, "TipeFaskes": null, "TipeFasdik": null, "ORDE01_res": null, "STSJRN_res": null, "Merk_Toko": null, "Nama_Toko": null, "Nama_Pasar": null, "Kode": null }, "geometry": { "type": "Point", "coordinates": [ 687967.912700000219047, 9275678.447000000625849, 0.0 ] } },
{ "type": "Feature", "properties": { "NAMOBJ": "Jaringan Bergerak Seluler", "REMARK": "Base Transceiver Station", "source_layer": "BTS", "Name": null, "TipeFaskes": null, "TipeFasdik": null, "ORDE01_res": null, "STSJRN_res": null, "Merk_Toko": null, "Nama_Toko": null, "Nama_Pasar": null, "Kode": null }, "geometry": { "type": "Point", "coordinates": [ 690119.604500000365078, 9274200.211899999529123, 0.0 ] } },
{ "type": "Feature", "properties": { "NAMOBJ": "Jaringan Bergerak Seluler", "REMARK": "Base Transceiver Station", "source_layer": "BTS", "Name": null, "TipeFaskes": null, "TipeFasdik": null, "ORDE01_res": null, "STSJRN_res": null, "Merk_Toko": null, "Nama_Toko": null, "Nama_Pasar": null, "Kode": null }, "geometry": { "type": "Point", "coordinates": [ 688771.427400000393391, 9273805.761600000783801, 0.0 ] } },
{ "type": "Feature", "properties": { "NAMOBJ": "Jaringan Bergerak Seluler", "REMARK": "Base Transceiver Station", "source_layer": "BTS", "Name": null, "TipeFaskes": null, "TipeFasdik": null, "ORDE01_res": null, "STSJRN_res": null, "Merk_Toko": null, "Nama_Toko": null, "Nama_Pasar": null, "Kode": null }, "geometry": { "type": "Point", "coordinates": [ 686169.334699999541044, 9268910.704600000753999, 0.0 ] } },
{ "type": "Feature", "properties": { "NAMOBJ": "Jaringan Bergerak Seluler", "REMARK": "Base Transceiver Station", "source_layer": "BTS", "Name": null, "TipeFaskes": null, "TipeFasdik": null, "ORDE01_res": null, "STSJRN_res": null, "Merk_Toko": null, "Nama_Toko": null, "Nama_Pasar": null, "Kode": null }, "geometry": { "type": "Point", "coordinates": [ 689822.180100000463426, 9271505.7961, 0.0 ] } },
{ "type": "Feature", "properties": { "NAMOBJ": "Jaringan Bergerak Seluler", "REMARK": "Base Transceiver Station", "source_layer": "BTS", "Name": null, "TipeFaskes": null, "TipeFasdik": null, "ORDE01_res": null, "STSJRN_res": null, "Merk_Toko": null, "Nama_Toko": null, "Nama_Pasar": null, "Kode": null }, "geometry": { "type": "Point", "coordinates": [ 686527.658999999985099, 9272221.134999999776483, 0.0 ] } },
{ "type": "Feature", "properties": { "NAMOBJ": "Jaringan Bergerak Seluler", "REMARK": "Base Transceiver Station", "source_layer": "BTS", "Name": null, "TipeFaskes": null, "TipeFasdik": null, "ORDE01_res": null, "STSJRN_res": null, "Merk_Toko": null, "Nama_Toko": null, "Nama_Pasar": null, "Kode": null }, "geometry": { "type": "Point", "coordinates": [ 686282.129499999806285, 9268655.3445999994874, 0.0 ] } },
{ "type": "Feature", "properties": { "NAMOBJ": "Jaringan Bergerak Seluler", "REMARK": "Base Transceiver Station", "source_layer": "BTS", "Name": null, "TipeFaskes": null, "TipeFasdik": null, "ORDE01_res": null, "STSJRN_res": null, "Merk_Toko": null, "Nama_Toko": null, "Nama_Pasar": null, "Kode": null }, "geometry": { "type": "Point", "coordinates": [ 688054.647300000302494, 9272268.183900000527501, 0.0 ] } },
{ "type": "Feature", "properties": { "NAMOBJ": "Jaringan Bergerak Seluler", "REMARK": "Base Transceiver Station", "source_layer": "BTS", "Name": null, "TipeFaskes": null, "TipeFasdik": null, "ORDE01_res": null, "STSJRN_res": null, "Merk_Toko": null, "Nama_Toko": null, "Nama_Pasar": null, "Kode": null }, "geometry": { "type": "Point", "coordinates": [ 688199.716699999757111, 9275179.990499999374151, 0.0 ] } },
{ "type": "Feature", "properties": { "NAMOBJ": "Jaringan Bergerak Seluler", "REMARK": "Base Transceiver Station", "source_layer": "BTS", "Name": null, "TipeFaskes": null, "TipeFasdik": null, "ORDE01_res": null, "STSJRN_res": null, "Merk_Toko": null, "Nama_Toko": null, "Nama_Pasar": null, "Kode": null }, "geometry": { "type": "Point", "coordinates": [ 688594.990299999713898, 9274871.443199999630451, 0.0 ] } },
{ "type": "Feature", "properties": { "NAMOBJ": "Jaringan Bergerak Seluler", "REMARK": "Base Transceiver Station", "source_layer": "BTS", "Name": null, "TipeFaskes": null, "TipeFasdik": null, "ORDE01_res": null, "STSJRN_res": null, "Merk_Toko": null, "Nama_Toko": null, "Nama_Pasar": null, "Kode": null }, "geometry": { "type": "Point", "coordinates": [ 688976.416899999603629, 9275008.387299999594688, 0.0 ] } },
{ "type": "Feature", "properties": { "NAMOBJ": "Jaringan Bergerak Seluler", "REMARK": "Base Transceiver Station", "source_layer": "BTS", "Name": null, "TipeFaskes": null, "TipeFasdik": null, "ORDE01_res": null, "STSJRN_res": null, "Merk_Toko": null, "Nama_Toko": null, "Nama_Pasar": null, "Kode": null }, "geometry": { "type": "Point", "coordinates": [ 686307.358799999579787, 9270664.362999999895692, 0.0 ] } },
{ "type": "Feature", "properties": { "NAMOBJ": "Jaringan Bergerak Seluler", "REMARK": "Base Transceiver Station", "source_layer": "BTS", "Name": null, "TipeFaskes": null, "TipeFasdik": null, "ORDE01_res": null, "STSJRN_res": null, "Merk_Toko": null, "Nama_Toko": null, "Nama_Pasar": null, "Kode": null }, "geometry": { "type": "Point", "coordinates": [ 686966.17119999974966, 9274714.140799999237061, 0.0 ] } },
{ "type": "Feature", "properties": { "NAMOBJ": "Jaringan Bergerak Seluler", "REMARK": "Base Transceiver Station", "source_layer": "BTS", "Name": null, "TipeFaskes": null, "TipeFasdik": null, "ORDE01_res": null, "STSJRN_res": null, "Merk_Toko": null, "Nama_Toko": null, "Nama_Pasar": null, "Kode": null }, "geometry": { "type": "Point", "coordinates": [ 687619.553999999538064, 9275326.341099999845028, 0.0 ] } },
{ "type": "Feature", "properties": { "NAMOBJ": "Jaringan Bergerak Seluler", "REMARK": "Base Transceiver Station", "source_layer": "BTS", "Name": null, "TipeFaskes": null, "TipeFasdik": null, "ORDE01_res": null, "STSJRN_res": null, "Merk_Toko": null, "Nama_Toko": null, "Nama_Pasar": null, "Kode": null }, "geometry": { "type": "Point", "coordinates": [ 687628.687599999830127, 9275301.733999999240041, 0.0 ] } },
{ "type": "Feature", "properties": { "NAMOBJ": "Jaringan Bergerak Seluler", "REMARK": "Base Transceiver Station", "source_layer": "BTS", "Name": null, "TipeFaskes": null, "TipeFasdik": null, "ORDE01_res": null, "STSJRN_res": null, "Merk_Toko": null, "Nama_Toko": null, "Nama_Pasar": null, "Kode": null }, "geometry": { "type": "Point", "coordinates": [ 687355.48589999973774, 9276294.9726, 0.0 ] } },
{ "type": "Feature", "properties": { "NAMOBJ": "Jaringan Bergerak Seluler", "REMARK": "Base Transceiver Station", "source_layer": "BTS", "Name": null, "TipeFaskes": null, "TipeFasdik": null, "ORDE01_res": null, "STSJRN_res": null, "Merk_Toko": null, "Nama_Toko": null, "Nama_Pasar": null, "Kode": null }, "geometry": { "type": "Point", "coordinates": [ 690783.064500000327826, 9273266.475299999117851, 0.0 ] } },
{ "type": "Feature", "properties": { "NAMOBJ": "Jaringan Bergerak Seluler", "REMARK": "Base Transceiver Station", "source_layer": "BTS", "Name": null, "TipeFaskes": null, "TipeFasdik": null, "ORDE01_res": null, "STSJRN_res": null, "Merk_Toko": null, "Nama_Toko": null, "Nama_Pasar": null, "Kode": null }, "geometry": { "type": "Point", "coordinates": [ 690783.064500000327826, 9273266.475299999117851, 0.0 ] } },
{ "type": "Feature", "properties": { "NAMOBJ": null, "REMARK": null, "source_layer": "Fasilitas_Kesehatan", "Name": "KLINIK ARIMSA", "TipeFaskes": "Klinik Pratama", "TipeFasdik": null, "ORDE01_res": null, "STSJRN_res": null, "Merk_Toko": null, "Nama_Toko": null, "Nama_Pasar": null, "Kode": null }, "geometry": { "type": "Point", "coordinates": [ 689968.41469999961555, 9274229.637499999254942, 0.0 ] } },
{ "type": "Feature", "properties": { "NAMOBJ": null, "REMARK": null, "source_layer": "Fasilitas_Kesehatan", "Name": "KLINIK PERMATA BUNDA", "TipeFaskes": "Klinik Pratama", "TipeFasdik": null, "ORDE01_res": null, "STSJRN_res": null, "Merk_Toko": null, "Nama_Toko": null, "Nama_Pasar": null, "Kode": null }, "geometry": { "type": "Point", "coordinates": [ 689835.86600000038743, 9274269.174100000411272, 0.0 ] } },
{ "type": "Feature", "properties": { "NAMOBJ": null, "REMARK": null, "source_layer": "Fasilitas_Kesehatan", "Name": "PUSKESMAS CIAMPEA", "TipeFaskes": "Puskesmas", "TipeFasdik": null, "ORDE01_res": null, "STSJRN_res": null, "Merk_Toko": null, "Nama_Toko": null, "Nama_Pasar": null, "Kode": null }, "geometry": { "type": "Point", "coordinates": [ 687113.709699999541044, 9276136.246999999508262, 0.0 ] } },
{ "type": "Feature", "properties": { "NAMOBJ": null, "REMARK": null, "source_layer": "Fasilitas_Kesehatan", "Name": "PUSKESMAS PASIR", "TipeFaskes": "Puskesmas", "TipeFasdik": null, "ORDE01_res": null, "STSJRN_res": null, "Merk_Toko": null, "Nama_Toko": null, "Nama_Pasar": null, "Kode": null }, "geometry": { "type": "Point", "coordinates": [ 688053.445199999958277, 9270833.352299999445677, 0.0 ] } },
{ "type": "Feature", "properties": { "NAMOBJ": null, "REMARK": null, "source_layer": "Fasilitas_Kesehatan", "Name": "PUSKESMAS CIAMPEA UDIK", "TipeFaskes": "Puskesmas", "TipeFasdik": null, "ORDE01_res": null, "STSJRN_res": null, "Merk_Toko": null, "Nama_Toko": null, "Nama_Pasar": null, "Kode": null }, "geometry": { "type": "Point", "coordinates": [ 686456.449300000444055, 9270597.90430000051856, 0.0 ] } },
{ "type": "Feature", "properties": { "NAMOBJ": null, "REMARK": null, "source_layer": "Fasilitas_Kesehatan", "Name": "PUSKESMAS CIHIDEUNG UDIK", "TipeFaskes": "Puskesmas", "TipeFasdik": null, "ORDE01_res": null, "STSJRN_res": null, "Merk_Toko": null, "Nama_Toko": null, "Nama_Pasar": null, "Kode": null }, "geometry": { "type": "Point", "coordinates": [ 689721.451000000350177, 9270979.957900000736117, 0.0 ] } },
{ "type": "Feature", "properties": { "NAMOBJ": null, "REMARK": null, "source_layer": "Fasilitas_Kesehatan", "Name": "APOTEK KIMIA FARMA CIBANTENG", "TipeFaskes": "Apotek", "TipeFasdik": null, "ORDE01_res": null, "STSJRN_res": null, "Merk_Toko": null, "Nama_Toko": null, "Nama_Pasar": null, "Kode": null }, "geometry": { "type": "Point", "coordinates": [ 689393.078900000080466, 9274631.623800000175834, 0.0 ] } },
{ "type": "Feature", "properties": { "NAMOBJ": null, "REMARK": null, "source_layer": "Fasilitas_Pendidikan", "Name": "SMKS MADANI", "TipeFaskes": null, "TipeFasdik": "Sekolah Menengah Kejuruan", "ORDE01_res": null, "STSJRN_res": null, "Merk_Toko": null, "Nama_Toko": null, "Nama_Pasar": null, "Kode": null }, "geometry": { "type": "Point", "coordinates": [ 688551.865399999544024, 9271772.5033, 0.0 ] } },
{ "type": "Feature", "properties": { "NAMOBJ": null, "REMARK": null, "source_layer": "Fasilitas_Pendidikan", "Name": "SMKS GEO INFORMATIKA", "TipeFaskes": null, "TipeFasdik": "Sekolah Menengah Kejuruan", "ORDE01_res": null, "STSJRN_res": null, "Merk_Toko": null, "Nama_Toko": null, "Nama_Pasar": null, "Kode": null }, "geometry": { "type": "Point", "coordinates": [ 690713.718299999833107, 9273291.29109999909997, 0.0 ] } },
{ "type": "Feature", "properties": { "NAMOBJ": null, "REMARK": null, "source_layer": "Fasilitas_Pendidikan", "Name": "SMKS BINA IKHWANI", "TipeFaskes": null, "TipeFasdik": "Sekolah Menengah Kejuruan", "ORDE01_res": null, "STSJRN_res": null, "Merk_Toko": null, "Nama_Toko": null, "Nama_Pasar": null, "Kode": null }, "geometry": { "type": "Point", "coordinates": [ 689920.184500000439584, 9274101.3607, 0.0 ] } },
{ "type": "Feature", "properties": { "NAMOBJ": null, "REMARK": null, "source_layer": "Fasilitas_Pendidikan", "Name": "SMKS FARMASI GALENIUM", "TipeFaskes": null, "TipeFasdik": "Sekolah Menengah Kejuruan", "ORDE01_res": null, "STSJRN_res": null, "Merk_Toko": null, "Nama_Toko": null, "Nama_Pasar": null, "Kode": null }, "geometry": { "type": "Point", "coordinates": [ 690374.097099999897182, 9274232.5165, 0.0 ] } },
{ "type": "Feature", "properties": { "NAMOBJ": null, "REMARK": null, "source_layer": "Fasilitas_Pendidikan", "Name": "SMKS KESEHATAN PELITA", "TipeFaskes": null, "TipeFasdik": "Sekolah Menengah Kejuruan", "ORDE01_res": null, "STSJRN_res": null, "Merk_Toko": null, "Nama_Toko": null, "Nama_Pasar": null, "Kode": null }, "geometry": { "type": "Point", "coordinates": [ 687667.943599999882281, 9275281.325799999758601, 0.0 ] } },
{ "type": "Feature", "properties": { "NAMOBJ": null, "REMARK": null, "source_layer": "Fasilitas_Pendidikan", "Name": "SMKS CIPTA INSANI", "TipeFaskes": null, "TipeFasdik": "Sekolah Menengah Kejuruan", "ORDE01_res": null, "STSJRN_res": null, "Merk_Toko": null, "Nama_Toko": null, "Nama_Pasar": null, "Kode": null }, "geometry": { "type": "Point", "coordinates": [ 687921.068300000391901, 9271653.000600000843406, 0.0 ] } },
{ "type": "Feature", "properties": { "NAMOBJ": null, "REMARK": null, "source_layer": "Fasilitas_Pendidikan", "Name": "SMKS PERSADA", "TipeFaskes": null, "TipeFasdik": "Sekolah Menengah Kejuruan", "ORDE01_res": null, "STSJRN_res": null, "Merk_Toko": null, "Nama_Toko": null, "Nama_Pasar": null, "Kode": null }, "geometry": { "type": "Point", "coordinates": [ 690349.544499999843538, 9273524.794099999591708, 0.0 ] } },
{ "type": "Feature", "properties": { "NAMOBJ": null, "REMARK": null, "source_layer": "Fasilitas_Pendidikan", "Name": "SMK YAPAN 1 CIAMPEA", "TipeFaskes": null, "TipeFasdik": "Sekolah Menengah Kejuruan", "ORDE01_res": null, "STSJRN_res": null, "Merk_Toko": null, "Nama_Toko": null, "Nama_Pasar": null, "Kode": null }, "geometry": { "type": "Point", "coordinates": [ 687077.479299999773502, 9277296.112099999561906, 0.0 ] } },
{ "type": "Feature", "properties": { "NAMOBJ": null, "REMARK": null, "source_layer": "Fasilitas_Pendidikan", "Name": "SMKS PELITA CIAMPEA 2", "TipeFaskes": null, "TipeFasdik": "Sekolah Menengah Kejuruan", "ORDE01_res": null, "STSJRN_res": null, "Merk_Toko": null, "Nama_Toko": null, "Nama_Pasar": null, "Kode": null }, "geometry": { "type": "Point", "coordinates": [ 687027.546299999579787, 9270827.912900000810623, 0.0 ] } },
{ "type": "Feature", "properties": { "NAMOBJ": null, "REMARK": null, "source_layer": "Fasilitas_Pendidikan", "Name": "SMKS AGRI INSANI", "TipeFaskes": null, "TipeFasdik": "Sekolah Menengah Kejuruan", "ORDE01_res": null, "STSJRN_res": null, "Merk_Toko": null, "Nama_Toko": null, "Nama_Pasar": null, "Kode": null }, "geometry": { "type": "Point", "coordinates": [ 690406.478799999691546, 9274000.156099999323487, 0.0 ] } },
{ "type": "Feature", "properties": { "NAMOBJ": null, "REMARK": null, "source_layer": "Fasilitas_Pendidikan", "Name": "SMKS MADANI 2", "TipeFaskes": null, "TipeFasdik": "Sekolah Menengah Kejuruan", "ORDE01_res": null, "STSJRN_res": null, "Merk_Toko": null, "Nama_Toko": null, "Nama_Pasar": null, "Kode": null }, "geometry": { "type": "Point", "coordinates": [ 688642.039900000207126, 9272269.868300000205636, 0.0 ] } },
{ "type": "Feature", "properties": { "NAMOBJ": null, "REMARK": null, "source_layer": "Fasilitas_Pendidikan", "Name": "SMKS PELITA CIAMPEA 1", "TipeFaskes": null, "TipeFasdik": "Sekolah Menengah Kejuruan", "ORDE01_res": null, "STSJRN_res": null, "Merk_Toko": null, "Nama_Toko": null, "Nama_Pasar": null, "Kode": null }, "geometry": { "type": "Point", "coordinates": [ 687701.46030000038445, 9275380.746400000527501, 0.0 ] } },
{ "type": "Feature", "properties": { "NAMOBJ": null, "REMARK": null, "source_layer": "Fasilitas_Pendidikan", "Name": "SMK TI Bazma", "TipeFaskes": null, "TipeFasdik": "Sekolah Menengah Kejuruan", "ORDE01_res": null, "STSJRN_res": null, "Merk_Toko": null, "Nama_Toko": null, "Nama_Pasar": null, "Kode": null }, "geometry": { "type": "Point", "coordinates": [ 686742.284400000236928, 9273006.2346, 0.0 ] } },
{ "type": "Feature", "properties": { "NAMOBJ": null, "REMARK": null, "source_layer": "Fasilitas_Pendidikan", "Name": "SMKS BINTANG PELAJAR", "TipeFaskes": null, "TipeFasdik": "Sekolah Menengah Kejuruan", "ORDE01_res": null, "STSJRN_res": null, "Merk_Toko": null, "Nama_Toko": null, "Nama_Pasar": null, "Kode": null }, "geometry": { "type": "Point", "coordinates": [ 689388.855999999679625, 9273970.466499999165535, 0.0 ] } },
{ "type": "Feature", "properties": { "NAMOBJ": null, "REMARK": null, "source_layer": "Fasilitas_Pendidikan", "Name": "SMKS MIFTAAHUSH SHUDUUR", "TipeFaskes": null, "TipeFasdik": "Sekolah Menengah Kejuruan", "ORDE01_res": null, "STSJRN_res": null, "Merk_Toko": null, "Nama_Toko": null, "Nama_Pasar": null, "Kode": null }, "geometry": { "type": "Point", "coordinates": [ 686569.106900000013411, 9270850.257200000807643, 0.0 ] } },
{ "type": "Feature", "properties": { "NAMOBJ": null, "REMARK": null, "source_layer": "Fasilitas_Pendidikan", "Name": "SMK KOMPUTER INDONESIA", "TipeFaskes": null, "TipeFasdik": "Sekolah Menengah Kejuruan", "ORDE01_res": null, "STSJRN_res": null, "Merk_Toko": null, "Nama_Toko": null, "Nama_Pasar": null, "Kode": null }, "geometry": { "type": "Point", "coordinates": [ 686770.147099999710917, 9274709.271800000220537, 0.0 ] } },
{ "type": "Feature", "properties": { "NAMOBJ": null, "REMARK": null, "source_layer": "Fasilitas_Pendidikan", "Name": "SMAS TARBIYATUL FALAH", "TipeFaskes": null, "TipeFasdik": "Sekolah Menengah Atas", "ORDE01_res": null, "STSJRN_res": null, "Merk_Toko": null, "Nama_Toko": null, "Nama_Pasar": null, "Kode": null }, "geometry": { "type": "Point", "coordinates": [ 688562.924800000153482, 9271772.465500000864267, 0.0 ] } },
{ "type": "Feature", "properties": { "NAMOBJ": null, "REMARK": null, "source_layer": "Fasilitas_Pendidikan", "Name": "SMAN 1 CIAMPEA", "TipeFaskes": null, "TipeFasdik": "Sekolah Menengah Atas", "ORDE01_res": null, "STSJRN_res": null, "Merk_Toko": null, "Nama_Toko": null, "Nama_Pasar": null, "Kode": null }, "geometry": { "type": "Point", "coordinates": [ 686848.572200000286102, 9275007.6085, 0.0 ] } },
{ "type": "Feature", "properties": { "NAMOBJ": null, "REMARK": null, "source_layer": "Fasilitas_Pendidikan", "Name": "SMAS HANURA", "TipeFaskes": null, "TipeFasdik": "Sekolah Menengah Atas", "ORDE01_res": null, "STSJRN_res": null, "Merk_Toko": null, "Nama_Toko": null, "Nama_Pasar": null, "Kode": null }, "geometry": { "type": "Point", "coordinates": [ 689233.904799999669194, 9273937.817800000309944, 0.0 ] } },
{ "type": "Feature", "properties": { "NAMOBJ": null, "REMARK": null, "source_layer": "Fasilitas_Pendidikan", "Name": "SMAS DARUTAFSIR", "TipeFaskes": null, "TipeFasdik": "Sekolah Menengah Atas", "ORDE01_res": null, "STSJRN_res": null, "Merk_Toko": null, "Nama_Toko": null, "Nama_Pasar": null, "Kode": null }, "geometry": { "type": "Point", "coordinates": [ 689656.941899999976158, 9274743.710200000554323, 0.0 ] } },
{ "type": "Feature", "properties": { "NAMOBJ": null, "REMARK": null, "source_layer": "Fasilitas_Pendidikan", "Name": "MAS NURUL UMMAH", "TipeFaskes": null, "TipeFasdik": "Madrasah Aliyah", "ORDE01_res": null, "STSJRN_res": null, "Merk_Toko": null, "Nama_Toko": null, "Nama_Pasar": null, "Kode": null }, "geometry": { "type": "Point", "coordinates": [ 686323.003299999982119, 9270021.642799999564886, 0.0 ] } },
{ "type": "Feature", "properties": { "NAMOBJ": null, "REMARK": null, "source_layer": "Fasilitas_Pendidikan", "Name": "MAS DARUL FALLAH", "TipeFaskes": null, "TipeFasdik": "Madrasah Aliyah", "ORDE01_res": null, "STSJRN_res": null, "Merk_Toko": null, "Nama_Toko": null, "Nama_Pasar": null, "Kode": null }, "geometry": { "type": "Point", "coordinates": [ 688221.770600000396371, 9275522.755899999290705, 0.0 ] } },
{ "type": "Feature", "properties": { "NAMOBJ": null, "REMARK": null, "source_layer": "Fasilitas_Pendidikan", "Name": "MAS DARUT TAFSIR", "TipeFaskes": null, "TipeFasdik": "Madrasah Aliyah", "ORDE01_res": null, "STSJRN_res": null, "Merk_Toko": null, "Nama_Toko": null, "Nama_Pasar": null, "Kode": null }, "geometry": { "type": "Point", "coordinates": [ 689690.122000000439584, 9274743.596699999645352, 0.0 ] } },
{ "type": "Feature", "properties": { "NAMOBJ": null, "REMARK": null, "source_layer": "Fasilitas_Pendidikan", "Name": "MAS NURUL ILMI", "TipeFaskes": null, "TipeFasdik": "Madrasah Aliyah", "ORDE01_res": null, "STSJRN_res": null, "Merk_Toko": null, "Nama_Toko": null, "Nama_Pasar": null, "Kode": null }, "geometry": { "type": "Point", "coordinates": [ 686544.256400000303984, 9270043.012599999085069, 0.0 ] } },
{ "type": "Feature", "properties": { "NAMOBJ": "Unit Air Baku", "REMARK": "Ma. Ciampea", "source_layer": "Jaringan_Prasarana_Lainnya", "Name": null, "TipeFaskes": null, "TipeFasdik": null, "ORDE01_res": "Sistem Penyediaan Air Minum (SPAM)", "STSJRN_res": "Eksisting", "Merk_Toko": null, "Nama_Toko": null, "Nama_Pasar": null, "Kode": null }, "geometry": { "type": "Point", "coordinates": [ 686595.787700000219047, 9271479.883199999108911, 0.0 ] } },
{ "type": "Feature", "properties": { "NAMOBJ": "Pembangkit Listrik Tenaga Surya (PLTS)", "REMARK": "PLTS Atap Pondok Pesantren Nurul Ummah", "source_layer": "Prasarana_Energi", "Name": null, "TipeFaskes": null, "TipeFasdik": null, "ORDE01_res": null, "STSJRN_res": "Rencana", "Merk_Toko": null, "Nama_Toko": null, "Nama_Pasar": null, "Kode": null }, "geometry": { "type": "Point", "coordinates": [ 687219.567999999970198, 9274847.444900000467896, 0.0 ] } },
{ "type": "Feature", "properties": { "NAMOBJ": null, "REMARK": null, "source_layer": "Minimarket", "Name": null, "TipeFaskes": null, "TipeFasdik": null, "ORDE01_res": null, "STSJRN_res": null, "Merk_Toko": "Indomaret", "Nama_Toko": "IDM Cibuntu Kaum", "Nama_Pasar": null, "Kode": null }, "geometry": { "type": "Point", "coordinates": [ 686187.191970474203117, 9270677.673853194341063, 0.0 ] } },
{ "type": "Feature", "properties": { "NAMOBJ": null, "REMARK": null, "source_layer": "Minimarket", "Name": null, "TipeFaskes": null, "TipeFasdik": null, "ORDE01_res": null, "STSJRN_res": null, "Merk_Toko": "Alfamart", "Nama_Toko": "Alfamart Cibuntu Kaum", "Nama_Pasar": null, "Kode": null }, "geometry": { "type": "Point", "coordinates": [ 686158.156049379846081, 9270885.664226893335581, 0.0 ] } },
{ "type": "Feature", "properties": { "NAMOBJ": null, "REMARK": null, "source_layer": "Minimarket", "Name": null, "TipeFaskes": null, "TipeFasdik": null, "ORDE01_res": null, "STSJRN_res": null, "Merk_Toko": "Alfamart", "Nama_Toko": "Alfamart Cihideung Udik", "Nama_Pasar": null, "Kode": null }, "geometry": { "type": "Point", "coordinates": [ 689983.466564245987684, 9271855.983779324218631, 0.0 ] } },
{ "type": "Feature", "properties": { "NAMOBJ": null, "REMARK": null, "source_layer": "Minimarket", "Name": null, "TipeFaskes": null, "TipeFasdik": null, "ORDE01_res": null, "STSJRN_res": null, "Merk_Toko": "Indomaret", "Nama_Toko": "Indomaret Cihideung Bogor", "Nama_Pasar": null, "Kode": null }, "geometry": { "type": "Point", "coordinates": [ 689974.108148396131583, 9271858.614967618137598, 0.0 ] } },
{ "type": "Feature", "properties": { "NAMOBJ": null, "REMARK": null, "source_layer": "Minimarket", "Name": null, "TipeFaskes": null, "TipeFasdik": null, "ORDE01_res": null, "STSJRN_res": null, "Merk_Toko": "Indomaret", "Nama_Toko": "IDM Pury Araya", "Nama_Pasar": null, "Kode": null }, "geometry": { "type": "Point", "coordinates": [ 686486.579866621177644, 9273273.614894108846784, 0.0 ] } },
{ "type": "Feature", "properties": { "NAMOBJ": null, "REMARK": null, "source_layer": "Minimarket", "Name": null, "TipeFaskes": null, "TipeFasdik": null, "ORDE01_res": null, "STSJRN_res": null, "Merk_Toko": "Alfamart", "Nama_Toko": "Alfamart Puri Arraya", "Nama_Pasar": null, "Kode": null }, "geometry": { "type": "Point", "coordinates": [ 686465.701597477891482, 9273294.023332173004746, 0.0 ] } },
{ "type": "Feature", "properties": { "NAMOBJ": null, "REMARK": null, "source_layer": "Minimarket", "Name": null, "TipeFaskes": null, "TipeFasdik": null, "ORDE01_res": null, "STSJRN_res": null, "Merk_Toko": "Selaras Mart", "Nama_Toko": "Selaras Mart", "Nama_Pasar": null, "Kode": null }, "geometry": { "type": "Point", "coordinates": [ 688808.384116977569647, 9273376.733579646795988, 0.0 ] } },
{ "type": "Feature", "properties": { "NAMOBJ": null, "REMARK": null, "source_layer": "Minimarket", "Name": null, "TipeFaskes": null, "TipeFasdik": null, "ORDE01_res": null, "STSJRN_res": null, "Merk_Toko": "Alfamart", "Nama_Toko": "Alfamart Abdul Fatah Ciampea", "Nama_Pasar": null, "Kode": null }, "geometry": { "type": "Point", "coordinates": [ 687523.55238263506908, 9274391.405181411653757, 0.0 ] } },
{ "type": "Feature", "properties": { "NAMOBJ": null, "REMARK": null, "source_layer": "Minimarket", "Name": null, "TipeFaskes": null, "TipeFasdik": null, "ORDE01_res": null, "STSJRN_res": null, "Merk_Toko": "Alfamart", "Nama_Toko": "Alfamart Raya Cikampak", "Nama_Pasar": null, "Kode": null }, "geometry": { "type": "Point", "coordinates": [ 686230.361652940977365, 9274520.613762868568301, 0.0 ] } },
{ "type": "Feature", "properties": { "NAMOBJ": null, "REMARK": null, "source_layer": "Minimarket", "Name": null, "TipeFaskes": null, "TipeFasdik": null, "ORDE01_res": null, "STSJRN_res": null, "Merk_Toko": "Indomaret", "Nama_Toko": "Indomaret Cibadak Bogor", "Nama_Pasar": null, "Kode": null }, "geometry": { "type": "Point", "coordinates": [ 686944.517178662121296, 9274623.472268188372254, 0.0 ] } },
{ "type": "Feature", "properties": { "NAMOBJ": null, "REMARK": null, "source_layer": "Minimarket", "Name": null, "TipeFaskes": null, "TipeFasdik": null, "ORDE01_res": null, "STSJRN_res": null, "Merk_Toko": "Indomaret", "Nama_Toko": "Indomaret Letnan Sukarna Ciampea", "Nama_Pasar": null, "Kode": null }, "geometry": { "type": "Point", "coordinates": [ 687179.965233859838918, 9276188.620648412033916, 0.0 ] } },
{ "type": "Feature", "properties": { "NAMOBJ": null, "REMARK": null, "source_layer": "Minimarket", "Name": null, "TipeFaskes": null, "TipeFasdik": null, "ORDE01_res": null, "STSJRN_res": null, "Merk_Toko": "Indomaret", "Nama_Toko": "Indomaret Tegal Ciampea", "Nama_Pasar": null, "Kode": null }, "geometry": { "type": "Point", "coordinates": [ 686639.954415863729082, 9276190.979250920936465, 0.0 ] } },
{ "type": "Feature", "properties": { "NAMOBJ": null, "REMARK": null, "source_layer": "Minimarket", "Name": null, "TipeFaskes": null, "TipeFasdik": null, "ORDE01_res": null, "STSJRN_res": null, "Merk_Toko": "Alfamart", "Nama_Toko": "Alfamart Ciampea", "Nama_Pasar": null, "Kode": null }, "geometry": { "type": "Point", "coordinates": [ 687206.466924278764054, 9276218.524249229580164, 0.0 ] } },
{ "type": "Feature", "properties": { "NAMOBJ": null, "REMARK": null, "source_layer": "Minimarket", "Name": null, "TipeFaskes": null, "TipeFasdik": null, "ORDE01_res": null, "STSJRN_res": null, "Merk_Toko": "Prima FreshMart", "Nama_Toko": "Prima Freshmart", "Nama_Pasar": null, "Kode": null }, "geometry": { "type": "Point", "coordinates": [ 686996.350452151615173, 9276444.199975224211812, 0.0 ] } },
{ "type": "Feature", "properties": { "NAMOBJ": null, "REMARK": null, "source_layer": "Minimarket", "Name": null, "TipeFaskes": null, "TipeFasdik": null, "ORDE01_res": null, "STSJRN_res": null, "Merk_Toko": "Alfamart", "Nama_Toko": "X901/Alfamart Warung Borong", "Nama_Pasar": null, "Kode": null }, "geometry": { "type": "Point", "coordinates": [ 687778.91378478880506, 9275148.415255377069116, 0.0 ] } },
{ "type": "Feature", "properties": { "NAMOBJ": null, "REMARK": null, "source_layer": "Minimarket", "Name": null, "TipeFaskes": null, "TipeFasdik": null, "ORDE01_res": null, "STSJRN_res": null, "Merk_Toko": "Alfamart", "Nama_Toko": "Cinangneng", "Nama_Pasar": null, "Kode": null }, "geometry": { "type": "Point", "coordinates": [ 688366.152149986010045, 9274992.057846343144774, 0.0 ] } },
{ "type": "Feature", "properties": { "NAMOBJ": null, "REMARK": null, "source_layer": "Minimarket", "Name": null, "TipeFaskes": null, "TipeFasdik": null, "ORDE01_res": null, "STSJRN_res": null, "Merk_Toko": "Indomaret", "Nama_Toko": "Cikampak", "Nama_Pasar": null, "Kode": null }, "geometry": { "type": "Point", "coordinates": [ 687327.963654169579968, 9274936.738169346004725, 0.0 ] } },
{ "type": "Feature", "properties": { "NAMOBJ": null, "REMARK": null, "source_layer": "Minimarket", "Name": null, "TipeFaskes": null, "TipeFasdik": null, "ORDE01_res": null, "STSJRN_res": null, "Merk_Toko": "Ceriamart", "Nama_Toko": "Crm Cinangneng", "Nama_Pasar": null, "Kode": null }, "geometry": { "type": "Point", "coordinates": [ 688635.788290707743727, 9274904.568586997687817, 0.0 ] } },
{ "type": "Feature", "properties": { "NAMOBJ": null, "REMARK": null, "source_layer": "Minimarket", "Name": null, "TipeFaskes": null, "TipeFasdik": null, "ORDE01_res": null, "STSJRN_res": null, "Merk_Toko": "Ceriamart", "Nama_Toko": "CRM Anggrek Ciampea", "Nama_Pasar": null, "Kode": null }, "geometry": { "type": "Point", "coordinates": [ 688635.788290707743727, 9274904.568586997687817, 0.0 ] } },
{ "type": "Feature", "properties": { "NAMOBJ": null, "REMARK": null, "source_layer": "Minimarket", "Name": null, "TipeFaskes": null, "TipeFasdik": null, "ORDE01_res": null, "STSJRN_res": null, "Merk_Toko": "Alfamart", "Nama_Toko": "SPBU Cibanteng", "Nama_Pasar": null, "Kode": null }, "geometry": { "type": "Point", "coordinates": [ 689241.511440748232417, 9274769.449259508401155, 0.0 ] } },
{ "type": "Feature", "properties": { "NAMOBJ": null, "REMARK": null, "source_layer": "Minimarket", "Name": null, "TipeFaskes": null, "TipeFasdik": null, "ORDE01_res": null, "STSJRN_res": null, "Merk_Toko": "Alfamart", "Nama_Toko": "Cihideng Hilir", "Nama_Pasar": null, "Kode": null }, "geometry": { "type": "Point", "coordinates": [ 689561.056810731999576, 9274490.035939801484346, 0.0 ] } },
{ "type": "Feature", "properties": { "NAMOBJ": null, "REMARK": null, "source_layer": "Minimarket", "Name": null, "TipeFaskes": null, "TipeFasdik": null, "ORDE01_res": null, "STSJRN_res": null, "Merk_Toko": "Indomaret", "Nama_Toko": "Cibanteng 3", "Nama_Pasar": null, "Kode": null }, "geometry": { "type": "Point", "coordinates": [ 690105.330921077984385, 9274243.569705996662378, 0.0 ] } },
{ "type": "Feature", "properties": { "NAMOBJ": null, "REMARK": null, "source_layer": "Minimarket", "Name": null, "TipeFaskes": null, "TipeFasdik": null, "ORDE01_res": null, "STSJRN_res": null, "Merk_Toko": "Alfamart", "Nama_Toko": "SAT Cibanteng Proyek", "Nama_Pasar": null, "Kode": null }, "geometry": { "type": "Point", "coordinates": [ 689951.765856565209106, 9274241.519540075212717, 0.0 ] } },
{ "type": "Feature", "properties": { "NAMOBJ": null, "REMARK": null, "source_layer": "Minimarket", "Name": null, "TipeFaskes": null, "TipeFasdik": null, "ORDE01_res": null, "STSJRN_res": null, "Merk_Toko": "Indomaret", "Nama_Toko": "Abdul Fatah Cinangka", "Nama_Pasar": null, "Kode": null }, "geometry": { "type": "Point", "coordinates": [ 688372.06216569012031, 9271111.997805105522275, 0.0 ] } },
{ "type": "Feature", "properties": { "NAMOBJ": null, "REMARK": null, "source_layer": "Minimarket", "Name": null, "TipeFaskes": null, "TipeFasdik": null, "ORDE01_res": null, "STSJRN_res": null, "Merk_Toko": "Alfamart", "Nama_Toko": "Abdul Fatah2", "Nama_Pasar": null, "Kode": null }, "geometry": { "type": "Point", "coordinates": [ 688437.426770090125501, 9270980.389012591913342, 0.0 ] } },
{ "type": "Feature", "properties": { "NAMOBJ": null, "REMARK": null, "source_layer": "Pasar", "Name": null, "TipeFaskes": null, "TipeFasdik": null, "ORDE01_res": null, "STSJRN_res": null, "Merk_Toko": null, "Nama_Toko": null, "Nama_Pasar": "Pasar Ciampea", "Kode": null }, "geometry": { "type": "Point", "coordinates": [ 687201.027840036200359, 9275884.529333570972085, 0.0 ] } },
{ "type": "Feature", "properties": { "NAMOBJ": null, "REMARK": null, "source_layer": "Pasar", "Name": null, "TipeFaskes": null, "TipeFasdik": null, "ORDE01_res": null, "STSJRN_res": null, "Merk_Toko": null, "Nama_Toko": null, "Nama_Pasar": "Pasar Selasa", "Kode": null }, "geometry": { "type": "Point", "coordinates": [ 686264.712653890950605, 9268953.39005484059453, 0.0 ] } }
]
}
