{
"type": "FeatureCollection",
"name": "Fas_Kesehatan",
"crs": { "type": "name", "properties": { "name": "urn:ogc:def:crs:OGC:1.3:CRS84" } },
"features": [
{ "type": "Feature", "properties": { "Name": "RUMAH SAKIT - RSUD LEUWILIANG", "TipeFaskes": "Rumah Sakit" }, "geometry": { "type": "Point", "coordinates": [ 106.627999999999744, -6.57451, 0.0 ] } },
{ "type": "Feature", "properties": { "Name": "RUMAH SAKIT - RS CITAMA", "TipeFaskes": "Rumah Sakit" }, "geometry": { "type": "Point", "coordinates": [ 106.796999999999471, -6.46129, 0.0 ] } },
{ "type": "Feature", "properties": { "Name": "RUMAH SAKIT - RSUD CILEUNGSI", "TipeFaskes": "Rumah Sakit" }, "geometry": { "type": "Point", "coordinates": [ 107.047999999998481, -6.434, 0.0 ] } },
{ "type": "Feature", "properties": { "Name": "RUMAH SAKIT - RS TRIMITRA", "TipeFaskes": "Rumah Sakit" }, "geometry": { "type": "Point", "coordinates": [ 106.846999999999284, -6.47462, 0.0 ] } },
{ "type": "Feature", "properties": { "Name": "RUMAH SAKIT - RSIA ASSALAM", "TipeFaskes": "Rumah Sakit" }, "geometry": { "type": "Point", "coordinates": [ 106.843999999999312, -6.50036, 0.0 ] } },
{ "type": "Feature", "properties": { "Name": "RUMAH SAKIT - RS RST DOMPET DHUAFA", "TipeFaskes": "Rumah Sakit" }, "geometry": { "type": "Point", "coordinates": [ 106.728999999999587, -6.47264, 0.0 ] } },
{ "type": "Feature", "properties": { "Name": "RUMAH SAKIT - RSU MARY CILEUNGSI", "TipeFaskes": "Rumah Sakit" }, "geometry": { "type": "Point", "coordinates": [ 106.968999999998857, -6.40014, 0.0 ] } },
{ "type": "Feature", "properties": { "Name": "RUMAH SAKIT - RS SENTRA MEDIKA CIBINONG", "TipeFaskes": "Rumah Sakit" }, "geometry": { "type": "Point", "coordinates": [ 106.86499999999927, -6.48042, 0.0 ] } },
{ "type": "Feature", "properties": { "Name": "RUMAH SAKIT - RSU ANNISA", "TipeFaskes": "Rumah Sakit" }, "geometry": { "type": "Point", "coordinates": [ 106.870999999999214, -6.48262, 0.0 ] } },
{ "type": "Feature", "properties": { "Name": "RUMAH SAKIT - RS FAMILY MEDICAL CENTER", "TipeFaskes": "Rumah Sakit" }, "geometry": { "type": "Point", "coordinates": [ 106.827999999999392, -6.53409, 0.0 ] } },
{ "type": "Feature", "properties": { "Name": "RUMAH SAKIT - RSU MH THAMRIN", "TipeFaskes": "Rumah Sakit" }, "geometry": { "type": "Point", "coordinates": [ 106.970999999998853, -6.37532, 0.0 ] } },
{ "type": "Feature", "properties": { "Name": "RUMAH SAKIT - RS SENTOSA", "TipeFaskes": "Rumah Sakit" }, "geometry": { "type": "Point", "coordinates": [ 106.750999999999522, -6.49505, 0.0 ] } },
{ "type": "Feature", "properties": { "Name": "RUMAH SAKIT - RS HERMINA MEKARSARI", "TipeFaskes": "Rumah Sakit" }, "geometry": { "type": "Point", "coordinates": [ 106.976999999998796, -6.40601, 0.0 ] } },
{ "type": "Feature", "properties": { "Name": "RUMAH SAKIT - RS PERMATA JONGGOL", "TipeFaskes": "Rumah Sakit" }, "geometry": { "type": "Point", "coordinates": [ 107.053999999998467, -6.43774, 0.0 ] } },
{ "type": "Feature", "properties": { "Name": "RUMAH SAKIT - RS KARYA BHAKTI PRATIWI", "TipeFaskes": "Rumah Sakit" }, "geometry": { "type": "Point", "coordinates": [ 106.737999999999573, -6.56942, 0.0 ] } },
{ "type": "Feature", "properties": { "Name": "RUMAH SAKIT - RS BINA HUSADA", "TipeFaskes": "Rumah Sakit" }, "geometry": { "type": "Point", "coordinates": [ 106.862999999999261, -6.47331, 0.0 ] } },
{ "type": "Feature", "properties": { "Name": "RUMAH SAKIT - RS EMC Sentul", "TipeFaskes": "Rumah Sakit" }, "geometry": { "type": "Point", "coordinates": [ 106.853999999999289, -6.56753, 0.0 ] } },
{ "type": "Feature", "properties": { "Name": "RUMAH SAKIT - RSIA KENARI GRAHA MEDIKA", "TipeFaskes": "Rumah Sakit" }, "geometry": { "type": "Point", "coordinates": [ 106.960999999998918, -6.41026, 0.0 ] } },
{ "type": "Feature", "properties": { "Name": "RUMAH SAKIT - RSIA CITRA INSANI", "TipeFaskes": "Rumah Sakit" }, "geometry": { "type": "Point", "coordinates": [ 106.732999999999592, -6.44418, 0.0 ] } },
{ "type": "Feature", "properties": { "Name": "RUMAH SAKIT - RS ASYSYIFAA", "TipeFaskes": "Rumah Sakit" }, "geometry": { "type": "Point", "coordinates": [ 106.624999999999773, -6.57113, 0.0 ] } },
{ "type": "Feature", "properties": { "Name": "RUMAH SAKIT - RS Harapan Sehati", "TipeFaskes": "Rumah Sakit" }, "geometry": { "type": "Point", "coordinates": [ 106.804999999999424, -6.48084, 0.0 ] } },
{ "type": "Feature", "properties": { "Name": "RUMAH SAKIT - RS EKA HOSPITAL CIBUBUR", "TipeFaskes": "Rumah Sakit" }, "geometry": { "type": "Point", "coordinates": [ 106.954999999998904, -6.38476, 0.0 ] } },
{ "type": "Feature", "properties": { "Name": "RUMAH SAKIT - RS PENA 98", "TipeFaskes": "Rumah Sakit" }, "geometry": { "type": "Point", "coordinates": [ 106.688999999999695, -6.37999, 0.0 ] } },
{ "type": "Feature", "properties": { "Name": "RUMAH SAKIT - RS HELSA CITEUREUP", "TipeFaskes": "Rumah Sakit" }, "geometry": { "type": "Point", "coordinates": [ 106.87799999999919, -6.48706, 0.0 ] } },
{ "type": "Feature", "properties": { "Name": "RUMAH SAKIT - RS ISLAM AYSHA", "TipeFaskes": "Rumah Sakit" }, "geometry": { "type": "Point", "coordinates": [ 106.804999999999424, -6.50954, 0.0 ] } },
{ "type": "Feature", "properties": { "Name": "RUMAH SAKIT - RS PARAGON", "TipeFaskes": "Rumah Sakit" }, "geometry": { "type": "Point", "coordinates": [ 106.8859999999992, -6.47355, 0.0 ] } },
{ "type": "Feature", "properties": { "Name": "RUMAH SAKIT - RSUD CIAWI", "TipeFaskes": "Rumah Sakit" }, "geometry": { "type": "Point", "coordinates": [ 106.852999999999298, -6.66063, 0.0 ] } },
{ "type": "Feature", "properties": { "Name": "RUMAH SAKIT - RSUD CIBINONG", "TipeFaskes": "Rumah Sakit" }, "geometry": { "type": "Point", "coordinates": [ 106.829999999999345, -6.47333, 0.0 ] } },
{ "type": "Feature", "properties": { "Name": "RUMAH SAKIT - RS dr. M. Hassan Toto", "TipeFaskes": "Rumah Sakit" }, "geometry": { "type": "Point", "coordinates": [ 106.761999999999531, -6.54445, 0.0 ] } },
{ "type": "Feature", "properties": { "Name": "RUMAH SAKIT - RSP DR. GOENAWAN PARTOWIDIGDO", "TipeFaskes": "Rumah Sakit" }, "geometry": { "type": "Point", "coordinates": [ 106.938999999999027, -6.68746, 0.0 ] } },
{ "type": "Feature", "properties": { "Name": "KLINIK YON 14 KOPASSUS", "TipeFaskes": "Klinik Pratama" }, "geometry": { "type": "Point", "coordinates": [ 106.75262322799955, -6.519901784999944, 0.0 ] } },
{ "type": "Feature", "properties": { "Name": "KLINIK YONKES 1 KOSTRAD", "TipeFaskes": "Klinik Pratama" }, "geometry": { "type": "Point", "coordinates": [ 106.821242739999391, -6.534794705999944, 0.0 ] } },
{ "type": "Feature", "properties": { "Name": "Klinik Poskesdim 031020", "TipeFaskes": "Klinik Pratama" }, "geometry": { "type": "Point", "coordinates": [ 106.816635219999426, -6.487979560999963, 0.0 ] } },
{ "type": "Feature", "properties": { "Name": "Klinik Catya Husada", "TipeFaskes": "Klinik Pratama" }, "geometry": { "type": "Point", "coordinates": [ 106.625815238999778, -6.374524185999972, 0.0 ] } },
{ "type": "Feature", "properties": { "Name": "KLINIK POLRES BOGOR", "TipeFaskes": "Klinik Pratama" }, "geometry": { "type": "Point", "coordinates": [ 106.824999999999363, -6.48269, 0.0 ] } },
{ "type": "Feature", "properties": { "Name": "Klinik Diklat Reserse", "TipeFaskes": "Klinik Pratama" }, "geometry": { "type": "Point", "coordinates": [ 106.921999999999088, -6.64302, 0.0 ] } },
{ "type": "Feature", "properties": { "Name": "KLINIK SPN POLDA METRO JAYA", "TipeFaskes": "Klinik Pratama" }, "geometry": { "type": "Point", "coordinates": [ 106.819813585999412, -6.739692550999955, 0.0 ] } },
{ "type": "Feature", "properties": { "Name": "KLINIK MUHAMMADIYAH CILEUNGSI", "TipeFaskes": "Klinik Pratama" }, "geometry": { "type": "Point", "coordinates": [ 106.964999999998909, -6.39971, 0.0 ] } },
{ "type": "Feature", "properties": { "Name": "KLINIK KIRANA I", "TipeFaskes": "Klinik Pratama" }, "geometry": { "type": "Point", "coordinates": [ 106.807067518999403, -6.508968027999957, 0.0 ] } },
{ "type": "Feature", "properties": { "Name": "KLINIK ANGGI", "TipeFaskes": "Klinik Pratama" }, "geometry": { "type": "Point", "coordinates": [ 106.968999999998857, -6.45516, 0.0 ] } },
{ "type": "Feature", "properties": { "Name": "Klinik Duta Medika", "TipeFaskes": "Klinik Pratama" }, "geometry": { "type": "Point", "coordinates": [ 106.973447464998827, -6.407788862999928, 0.0 ] } },
{ "type": "Feature", "properties": { "Name": "Klinik Bukaka", "TipeFaskes": "Klinik Pratama" }, "geometry": { "type": "Point", "coordinates": [ 106.967667405998839, -6.389212715999962, 0.0 ] } },
{ "type": "Feature", "properties": { "Name": "Klinik Asysyifaa", "TipeFaskes": "Klinik Pratama" }, "geometry": { "type": "Point", "coordinates": [ 106.6185125089998, -6.566950819999923, 0.0 ] } },
{ "type": "Feature", "properties": { "Name": "KLINIK MEDIKA PRIMA", "TipeFaskes": "Klinik Pratama" }, "geometry": { "type": "Point", "coordinates": [ 106.771999999999494, -6.60144, 0.0 ] } },
{ "type": "Feature", "properties": { "Name": "KLINIK CHANDRA MEDIKA", "TipeFaskes": "Klinik Pratama" }, "geometry": { "type": "Point", "coordinates": [ 106.919999999999092, -6.45161, 0.0 ] } },
{ "type": "Feature", "properties": { "Name": "KLINIK AL BAROKAH", "TipeFaskes": "Klinik Pratama" }, "geometry": { "type": "Point", "coordinates": [ 106.843999999999298, -6.43757, 0.0 ] } },
{ "type": "Feature", "properties": { "Name": "KLINIK INDOCEMENT", "TipeFaskes": "Klinik Pratama" }, "geometry": { "type": "Point", "coordinates": [ 106.892291896999154, -6.476592640999963, 0.0 ] } },
{ "type": "Feature", "properties": { "Name": "Klinik Kanesha Medika", "TipeFaskes": "Klinik Pratama" }, "geometry": { "type": "Point", "coordinates": [ 106.850484138999292, -6.463224703999956, 0.0 ] } },
{ "type": "Feature", "properties": { "Name": "KLINIK LIMUS PRATAMA MEDIKA", "TipeFaskes": "Klinik Pratama" }, "geometry": { "type": "Point", "coordinates": [ 106.975766647998825, -6.36230401299995, 0.0 ] } },
{ "type": "Feature", "properties": { "Name": "KLINIK MH THAMRIN MEKARSARI", "TipeFaskes": "Klinik Pratama" }, "geometry": { "type": "Point", "coordinates": [ 106.976592303998842, -6.403413349999926, 0.0 ] } },
{ "type": "Feature", "properties": { "Name": "KLINIK TIARA", "TipeFaskes": "Klinik Pratama" }, "geometry": { "type": "Point", "coordinates": [ 106.846409036999304, -6.446253198999941, 0.0 ] } },
{ "type": "Feature", "properties": { "Name": "Klinik Metro Medika", "TipeFaskes": "Klinik Pratama" }, "geometry": { "type": "Point", "coordinates": [ 106.973810903998839, -6.398410034999914, 0.0 ] } },
{ "type": "Feature", "properties": { "Name": "KLINIK AZ ZIKRI MEDIKA", "TipeFaskes": "Klinik Pratama" }, "geometry": { "type": "Point", "coordinates": [ 106.805999999999415, -6.53828, 0.0 ] } },
{ "type": "Feature", "properties": { "Name": "KLINIK SALSABILLA PEMDA", "TipeFaskes": "Klinik Pratama" }, "geometry": { "type": "Point", "coordinates": [ 106.831517665999371, -6.471961378999922, 0.0 ] } },
{ "type": "Feature", "properties": { "Name": "KLINIK NAYAKA HUSADA 6 JONGGOL", "TipeFaskes": "Klinik Pratama" }, "geometry": { "type": "Point", "coordinates": [ 107.041546706998517, -6.443929454999916, 0.0 ] } },
{ "type": "Feature", "properties": { "Name": "KLINIK WIJAYA", "TipeFaskes": "Klinik Pratama" }, "geometry": { "type": "Point", "coordinates": [ 106.727987929999586, -6.413068443999962, 0.0 ] } },
{ "type": "Feature", "properties": { "Name": "KLINIK RINA MEDISTRA", "TipeFaskes": "Klinik Pratama" }, "geometry": { "type": "Point", "coordinates": [ 106.989166296998761, -6.372172002999923, 0.0 ] } },
{ "type": "Feature", "properties": { "Name": "Klinik Nurul Husna", "TipeFaskes": "Klinik Pratama" }, "geometry": { "type": "Point", "coordinates": [ 106.964781399998884, -6.446508112999922, 0.0 ] } },
{ "type": "Feature", "properties": { "Name": "KLINIK BETUDIS", "TipeFaskes": "Klinik Pratama" }, "geometry": { "type": "Point", "coordinates": [ 106.798290348999444, -6.455322653999918, 0.0 ] } },
{ "type": "Feature", "properties": { "Name": "KLINIK PUJI MEDIKA", "TipeFaskes": "Klinik Pratama" }, "geometry": { "type": "Point", "coordinates": [ 106.975474750998814, -6.385465992999959, 0.0 ] } },
{ "type": "Feature", "properties": { "Name": "KLINIK ARIMSA", "TipeFaskes": "Klinik Pratama" }, "geometry": { "type": "Point", "coordinates": [ 106.718132098999618, -6.563038621999964, 0.0 ] } },
{ "type": "Feature", "properties": { "Name": "KLINIK NABIYA MEDIKA", "TipeFaskes": "Klinik Pratama" }, "geometry": { "type": "Point", "coordinates": [ 106.710453292999631, -6.43510199399997, 0.0 ] } },
{ "type": "Feature", "properties": { "Name": "KLINIK PT ANTAM", "TipeFaskes": "Klinik Pratama" }, "geometry": { "type": "Point", "coordinates": [ 106.549693299999859, -6.592061841999957, 0.0 ] } },
{ "type": "Feature", "properties": { "Name": "KLINIK CANTI DHARMA", "TipeFaskes": "Klinik Pratama" }, "geometry": { "type": "Point", "coordinates": [ 106.881362097999215, -6.528843351999947, 0.0 ] } },
{ "type": "Feature", "properties": { "Name": "Klinik Maimunah", "TipeFaskes": "Klinik Pratama" }, "geometry": { "type": "Point", "coordinates": [ 106.647450610999741, -6.575653885999937, 0.0 ] } },
{ "type": "Feature", "properties": { "Name": "Klinik Kimia Farma Ya Rahmah", "TipeFaskes": "Klinik Pratama" }, "geometry": { "type": "Point", "coordinates": [ 106.732006034999571, -6.418425273999948, 0.0 ] } },
{ "type": "Feature", "properties": { "Name": "Klinik Mitra Galaksi Medika", "TipeFaskes": "Klinik Pratama" }, "geometry": { "type": "Point", "coordinates": [ 106.843258832999311, -6.482868437999965, 0.0 ] } },
{ "type": "Feature", "properties": { "Name": "Klinik Permata Medical Center", "TipeFaskes": "Klinik Pratama" }, "geometry": { "type": "Point", "coordinates": [ 106.821999999999392, -6.71061, 0.0 ] } },
{ "type": "Feature", "properties": { "Name": "Klinik Narogong Medika", "TipeFaskes": "Klinik Pratama" }, "geometry": { "type": "Point", "coordinates": [ 106.934038891998995, -6.451537128999953, 0.0 ] } },
{ "type": "Feature", "properties": { "Name": "KLINIK CITAMA BOJONGGEDE", "TipeFaskes": "Klinik Pratama" }, "geometry": { "type": "Point", "coordinates": [ 106.795564604999427, -6.488182016999929, 0.0 ] } },
{ "type": "Feature", "properties": { "Name": "KLINIK MEDISTIRA 4", "TipeFaskes": "Klinik Pratama" }, "geometry": { "type": "Point", "coordinates": [ 106.961470263998905, -6.404111967999922, 0.0 ] } },
{ "type": "Feature", "properties": { "Name": "KLINIK KARANGGAN MEDIKA", "TipeFaskes": "Klinik Pratama" }, "geometry": { "type": "Point", "coordinates": [ 106.879700933999231, -6.46615868999992, 0.0 ] } },
{ "type": "Feature", "properties": { "Name": "KLINIK CITAMA GAVERI", "TipeFaskes": "Klinik Pratama" }, "geometry": { "type": "Point", "coordinates": [ 106.794599009999459, -6.496040024999951, 0.0 ] } },
{ "type": "Feature", "properties": { "Name": "KLINIK ARABBANI CIKARET", "TipeFaskes": "Klinik Pratama" }, "geometry": { "type": "Point", "coordinates": [ 106.834999999999326, -6.46688, 0.0 ] } },
{ "type": "Feature", "properties": { "Name": "Klinik Promed", "TipeFaskes": "Klinik Pratama" }, "geometry": { "type": "Point", "coordinates": [ 106.833999999999349, -6.48988, 0.0 ] } },
{ "type": "Feature", "properties": { "Name": "KLINIK IPB DRAMAGA", "TipeFaskes": "Klinik Pratama" }, "geometry": { "type": "Point", "coordinates": [ 106.726999999999578, -6.55645, 0.0 ] } },
{ "type": "Feature", "properties": { "Name": "KLINIK MULIA MEDIKA", "TipeFaskes": "Klinik Pratama" }, "geometry": { "type": "Point", "coordinates": [ 106.928795274999061, -6.431726652999925, 0.0 ] } },
{ "type": "Feature", "properties": { "Name": "KLINIK RAFIKA", "TipeFaskes": "Klinik Pratama" }, "geometry": { "type": "Point", "coordinates": [ 106.794454633999422, -6.442008016999967, 0.0 ] } },
{ "type": "Feature", "properties": { "Name": "KLINIK PABUARAN MEDIKA", "TipeFaskes": "Klinik Pratama" }, "geometry": { "type": "Point", "coordinates": [ 106.853179707999303, -6.450081418999946, 0.0 ] } },
{ "type": "Feature", "properties": { "Name": "KLINIK PUTRI HUSADA", "TipeFaskes": "Klinik Pratama" }, "geometry": { "type": "Point", "coordinates": [ 106.845642852999319, -6.456576915999944, 0.0 ] } },
{ "type": "Feature", "properties": { "Name": "KLINIK MH THAMRIN MENARA", "TipeFaskes": "Klinik Pratama" }, "geometry": { "type": "Point", "coordinates": [ 106.960947903998928, -6.422801201999942, 0.0 ] } },
{ "type": "Feature", "properties": { "Name": "KLINIK CIMANGGIS JAYA", "TipeFaskes": "Klinik Pratama" }, "geometry": { "type": "Point", "coordinates": [ 106.783855160999494, -6.502283830999938, 0.0 ] } },
{ "type": "Feature", "properties": { "Name": "KLINIK MEDIKA SEJAHTERA 1", "TipeFaskes": "Klinik Pratama" }, "geometry": { "type": "Point", "coordinates": [ 106.74599999999954, -6.45628, 0.0 ] } },
{ "type": "Feature", "properties": { "Name": "KLINIK ANDILIA", "TipeFaskes": "Klinik Pratama" }, "geometry": { "type": "Point", "coordinates": [ 106.713236033999607, -6.397653327999921, 0.0 ] } },
{ "type": "Feature", "properties": { "Name": "KLINIK MEDIKA SEJAHTERA II", "TipeFaskes": "Klinik Pratama" }, "geometry": { "type": "Point", "coordinates": [ 106.772241398999498, -6.486600023999926, 0.0 ] } },
{ "type": "Feature", "properties": { "Name": "KLINIK GIORDANO", "TipeFaskes": "Klinik Pratama" }, "geometry": { "type": "Point", "coordinates": [ 107.041731778998539, -6.459580649999937, 0.0 ] } },
{ "type": "Feature", "properties": { "Name": "KLINIK AZZAHRA MEDIKA", "TipeFaskes": "Klinik Pratama" }, "geometry": { "type": "Point", "coordinates": [ 106.966999999998848, -6.33362, 0.0 ] } },
{ "type": "Feature", "properties": { "Name": "KLINIK CITAMA ARCO", "TipeFaskes": "Klinik Pratama" }, "geometry": { "type": "Point", "coordinates": [ 106.7397974929996, -6.443364018999937, 0.0 ] } },
{ "type": "Feature", "properties": { "Name": "KLINIK BATIK MEDICAL CENTER", "TipeFaskes": "Klinik Pratama" }, "geometry": { "type": "Point", "coordinates": [ 106.858999999999241, -6.47901, 0.0 ] } },
{ "type": "Feature", "properties": { "Name": "KLINIK CAHAYA KEMANG", "TipeFaskes": "Klinik Pratama" }, "geometry": { "type": "Point", "coordinates": [ 106.752632536999556, -6.496116586999945, 0.0 ] } },
{ "type": "Feature", "properties": { "Name": "KLINIK ANNISA DUA", "TipeFaskes": "Klinik Pratama" }, "geometry": { "type": "Point", "coordinates": [ 106.890999999999181, -6.50142, 0.0 ] } },
{ "type": "Feature", "properties": { "Name": "KLINIK KELUARGA BUNDA", "TipeFaskes": "Klinik Pratama" }, "geometry": { "type": "Point", "coordinates": [ 106.990809562998791, -6.448636619999929, 0.0 ] } },
{ "type": "Feature", "properties": { "Name": "KLINIK KHAIRU UMMAH", "TipeFaskes": "Klinik Pratama" }, "geometry": { "type": "Point", "coordinates": [ 106.636402330999758, -6.575826113999929, 0.0 ] } },
{ "type": "Feature", "properties": { "Name": "DD KLINIK PARUNG", "TipeFaskes": "Klinik Pratama" }, "geometry": { "type": "Point", "coordinates": [ 106.728999999999587, -6.4736, 0.0 ] } },
{ "type": "Feature", "properties": { "Name": "KLINIK SEJAHTERA", "TipeFaskes": "Klinik Pratama" }, "geometry": { "type": "Point", "coordinates": [ 106.785999999999476, -6.4491, 0.0 ] } },
{ "type": "Feature", "properties": { "Name": "KLINIK MITRA BINA SEHAT", "TipeFaskes": "Klinik Pratama" }, "geometry": { "type": "Point", "coordinates": [ 106.70751498399963, -6.385867996999926, 0.0 ] } },
{ "type": "Feature", "properties": { "Name": "KLINIK AYULIA", "TipeFaskes": "Klinik Pratama" }, "geometry": { "type": "Point", "coordinates": [ 106.89124810399916, -6.465781332999928, 0.0 ] } },
{ "type": "Feature", "properties": { "Name": "KLINIK BIMA", "TipeFaskes": "Klinik Pratama" }, "geometry": { "type": "Point", "coordinates": [ 106.937807757999025, -6.687094381999918, 0.0 ] } },
{ "type": "Feature", "properties": { "Name": "KLINIK RAFIKA 2", "TipeFaskes": "Klinik Pratama" }, "geometry": { "type": "Point", "coordinates": [ 106.770134109999532, -6.445469988999935, 0.0 ] } },
{ "type": "Feature", "properties": { "Name": "KLINIK ABYAN CAHAYA PRATAMA", "TipeFaskes": "Klinik Pratama" }, "geometry": { "type": "Point", "coordinates": [ 106.975198482998806, -6.361954675999914, 0.0 ] } },
{ "type": "Feature", "properties": { "Name": "KLINIK PRATAMA NURUL JANNAH", "TipeFaskes": "Klinik Pratama" }, "geometry": { "type": "Point", "coordinates": [ 106.730023726999605, -6.533562075999941, 0.0 ] } },
{ "type": "Feature", "properties": { "Name": "KLINIK ZENNA MEDIKA", "TipeFaskes": "Klinik Pratama" }, "geometry": { "type": "Point", "coordinates": [ 106.835215504999354, -6.519201318999925, 0.0 ] } },
{ "type": "Feature", "properties": { "Name": "KLINIK WIJAYA SEHAT", "TipeFaskes": "Klinik Pratama" }, "geometry": { "type": "Point", "coordinates": [ 106.844293030999324, -6.681519313999954, 0.0 ] } },
{ "type": "Feature", "properties": { "Name": "KLINIK EMMA MEDICAL CENTER 1", "TipeFaskes": "Klinik Pratama" }, "geometry": { "type": "Point", "coordinates": [ 106.986408595998782, -6.391564412999952, 0.0 ] } },
{ "type": "Feature", "properties": { "Name": "KLINIK DR ARIADINI KRISNASARI", "TipeFaskes": "Klinik Pratama" }, "geometry": { "type": "Point", "coordinates": [ 106.800399648999417, -6.527702664999926, 0.0 ] } },
{ "type": "Feature", "properties": { "Name": "KLINIK KALISUREN MEDIKA", "TipeFaskes": "Klinik Pratama" }, "geometry": { "type": "Point", "coordinates": [ 106.742986588999557, -6.471297994999928, 0.0 ] } },
{ "type": "Feature", "properties": { "Name": "KLINIK ELANG MEDIKA", "TipeFaskes": "Klinik Pratama" }, "geometry": { "type": "Point", "coordinates": [ 106.811767524999397, -6.495206110999958, 0.0 ] } },
{ "type": "Feature", "properties": { "Name": "KLINIK FOKUS MEDIKA", "TipeFaskes": "Klinik Pratama" }, "geometry": { "type": "Point", "coordinates": [ 106.716991282999643, -6.384803981999926, 0.0 ] } },
{ "type": "Feature", "properties": { "Name": "KLINIK RAGAJAYA", "TipeFaskes": "Klinik Pratama" }, "geometry": { "type": "Point", "coordinates": [ 106.786586939999481, -6.447731289999977, 0.0 ] } },
{ "type": "Feature", "properties": { "Name": "KLINIK KPRI KHAIRU UMMAH LEUWISADENG", "TipeFaskes": "Klinik Pratama" }, "geometry": { "type": "Point", "coordinates": [ 106.561999999999856, -6.56495, 0.0 ] } },
{ "type": "Feature", "properties": { "Name": "KLINIK AHSAN", "TipeFaskes": "Klinik Pratama" }, "geometry": { "type": "Point", "coordinates": [ 107.059999999998411, -6.45952, 0.0 ] } },
{ "type": "Feature", "properties": { "Name": "KLINIK CITRA PRIMA MEDIKA", "TipeFaskes": "Klinik Pratama" }, "geometry": { "type": "Point", "coordinates": [ 107.043300406998512, -6.445799338999942, 0.0 ] } },
{ "type": "Feature", "properties": { "Name": "KLINIK KD8 MEDIKATAMA.", "TipeFaskes": "Klinik Pratama" }, "geometry": { "type": "Point", "coordinates": [ 106.669999999999717, -6.43681, 0.0 ] } },
{ "type": "Feature", "properties": { "Name": "KLINIK KELUARGA SEHAT", "TipeFaskes": "Klinik Pratama" }, "geometry": { "type": "Point", "coordinates": [ 106.995999999998716, -6.42145, 0.0 ] } },
{ "type": "Feature", "properties": { "Name": "KLINIK QITA SAJA", "TipeFaskes": "Klinik Pratama" }, "geometry": { "type": "Point", "coordinates": [ 106.792033063999455, -6.442478803999957, 0.0 ] } },
{ "type": "Feature", "properties": { "Name": "Klinik Widya Selaras CSC LIPI", "TipeFaskes": "Klinik Pratama" }, "geometry": { "type": "Point", "coordinates": [ 106.846585648999323, -6.491608865999971, 0.0 ] } },
{ "type": "Feature", "properties": { "Name": "KLINIK ANNISA AULIA", "TipeFaskes": "Klinik Pratama" }, "geometry": { "type": "Point", "coordinates": [ 106.853052664999296, -6.447422552999951, 0.0 ] } },
{ "type": "Feature", "properties": { "Name": "Klinik MUTIARA NADHIFA", "TipeFaskes": "Klinik Pratama" }, "geometry": { "type": "Point", "coordinates": [ 106.970965801998872, -6.33114532899997, 0.0 ] } },
{ "type": "Feature", "properties": { "Name": "KLINIK GRACIA", "TipeFaskes": "Klinik Pratama" }, "geometry": { "type": "Point", "coordinates": [ 106.972999999998848, -6.37108, 0.0 ] } },
{ "type": "Feature", "properties": { "Name": "KLINIK EKA MEDIKA", "TipeFaskes": "Klinik Pratama" }, "geometry": { "type": "Point", "coordinates": [ 106.947287666998974, -6.442912649999906, 0.0 ] } },
{ "type": "Feature", "properties": { "Name": "KLINIK DR DEDI", "TipeFaskes": "Klinik Pratama" }, "geometry": { "type": "Point", "coordinates": [ 107.009930262998665, -6.41218267899993, 0.0 ] } },
{ "type": "Feature", "properties": { "Name": "KLINIK AL-QOMAR", "TipeFaskes": "Klinik Pratama" }, "geometry": { "type": "Point", "coordinates": [ 106.96399999999889, -6.41432, 0.0 ] } },
{ "type": "Feature", "properties": { "Name": "KLINIK SALSABILLA MC", "TipeFaskes": "Klinik Pratama" }, "geometry": { "type": "Point", "coordinates": [ 106.844474286999343, -6.47651668599995, 0.0 ] } },
{ "type": "Feature", "properties": { "Name": "KLINIK DR IRMAN", "TipeFaskes": "Klinik Pratama" }, "geometry": { "type": "Point", "coordinates": [ 106.987098570998754, -6.369139298999906, 0.0 ] } },
{ "type": "Feature", "properties": { "Name": "KLINIK DR NURDIN WAHID", "TipeFaskes": "Klinik Pratama" }, "geometry": { "type": "Point", "coordinates": [ 106.860999999999251, -6.48184, 0.0 ] } },
{ "type": "Feature", "properties": { "Name": "KLINIK PELITA SEHAT CIBINONG", "TipeFaskes": "Klinik Pratama" }, "geometry": { "type": "Point", "coordinates": [ 106.860935060999282, -6.469536380999947, 0.0 ] } },
{ "type": "Feature", "properties": { "Name": "KLINIK BHAKTI RAHAYU", "TipeFaskes": "Klinik Pratama" }, "geometry": { "type": "Point", "coordinates": [ 106.645214992999769, -6.574914468999961, 0.0 ] } },
{ "type": "Feature", "properties": { "Name": "KLINIK PELITA SEHAT CIOMAS", "TipeFaskes": "Klinik Pratama" }, "geometry": { "type": "Point", "coordinates": [ 106.759790116999568, -6.593063562999919, 0.0 ] } },
{ "type": "Feature", "properties": { "Name": "KLINIK DENTI SARI", "TipeFaskes": "Klinik Pratama" }, "geometry": { "type": "Point", "coordinates": [ 106.794016092999428, -6.499735711999944, 0.0 ] } },
{ "type": "Feature", "properties": { "Name": "KLINIK L'SYIFA", "TipeFaskes": "Klinik Pratama" }, "geometry": { "type": "Point", "coordinates": [ 106.880694894999181, -6.488046690999954, 0.0 ] } },
{ "type": "Feature", "properties": { "Name": "KLINIK AZALIA", "TipeFaskes": "Klinik Pratama" }, "geometry": { "type": "Point", "coordinates": [ 106.976571310998807, -6.326758009999921, 0.0 ] } },
{ "type": "Feature", "properties": { "Name": "KLINIK PERMATA BUNDA", "TipeFaskes": "Klinik Pratama" }, "geometry": { "type": "Point", "coordinates": [ 106.716932429999616, -6.562685237999972, 0.0 ] } },
{ "type": "Feature", "properties": { "Name": "KLINIK AL BARQAH MEDIKA", "TipeFaskes": "Klinik Pratama" }, "geometry": { "type": "Point", "coordinates": [ 106.967999999998895, -6.45525, 0.0 ] } },
{ "type": "Feature", "properties": { "Name": "KLINIK DR BETTY", "TipeFaskes": "Klinik Pratama" }, "geometry": { "type": "Point", "coordinates": [ 106.965870376998865, -6.401085264999936, 0.0 ] } },
{ "type": "Feature", "properties": { "Name": "KLINIK INSANI 2", "TipeFaskes": "Klinik Pratama" }, "geometry": { "type": "Point", "coordinates": [ 106.863581574999273, -6.478603336999967, 0.0 ] } },
{ "type": "Feature", "properties": { "Name": "KLINIK MAHASTA", "TipeFaskes": "Klinik Pratama" }, "geometry": { "type": "Point", "coordinates": [ 106.858686181999261, -6.482541488999966, 0.0 ] } },
{ "type": "Feature", "properties": { "Name": "KLINIK SAPTA MEDIKA", "TipeFaskes": "Klinik Pratama" }, "geometry": { "type": "Point", "coordinates": [ 106.975492235998814, -6.355493086999943, 0.0 ] } },
{ "type": "Feature", "properties": { "Name": "KLINIK RUMAH SEHAT CIKEAS", "TipeFaskes": "Klinik Pratama" }, "geometry": { "type": "Point", "coordinates": [ 106.940049620998991, -6.392363463999959, 0.0 ] } },
{ "type": "Feature", "properties": { "Name": "klinik Permata Medika II", "TipeFaskes": "Klinik Pratama" }, "geometry": { "type": "Point", "coordinates": [ 106.887999999999153, -6.49247, 0.0 ] } },
{ "type": "Feature", "properties": { "Name": "KLINIK BHADRA HUSADA", "TipeFaskes": "Klinik Pratama" }, "geometry": { "type": "Point", "coordinates": [ 106.854687572999268, -6.663099043999964, 0.0 ] } },
{ "type": "Feature", "properties": { "Name": "Klinik Dera As-Syifa", "TipeFaskes": "Klinik Pratama" }, "geometry": { "type": "Point", "coordinates": [ 106.958521018998908, -6.433837990999953, 0.0 ] } },
{ "type": "Feature", "properties": { "Name": "KLINIK EMMA MEDICAL CENTER 2", "TipeFaskes": "Klinik Pratama" }, "geometry": { "type": "Point", "coordinates": [ 106.925334710999039, -6.434777120999945, 0.0 ] } },
{ "type": "Feature", "properties": { "Name": "KLINIK MEDISTIRA 2", "TipeFaskes": "Klinik Pratama" }, "geometry": { "type": "Point", "coordinates": [ 106.930491720999015, -6.425115105999947, 0.0 ] } },
{ "type": "Feature", "properties": { "Name": "KLINIK YAPIDA", "TipeFaskes": "Klinik Pratama" }, "geometry": { "type": "Point", "coordinates": [ 106.910034831999113, -6.447554331999908, 0.0 ] } },
{ "type": "Feature", "properties": { "Name": "KLINIK AMANDA", "TipeFaskes": "Klinik Pratama" }, "geometry": { "type": "Point", "coordinates": [ 106.819999999999382, -6.72044, 0.0 ] } },
{ "type": "Feature", "properties": { "Name": "KLINIK SUMARNO MEDIKA", "TipeFaskes": "Klinik Pratama" }, "geometry": { "type": "Point", "coordinates": [ 106.968790424998872, -6.390234001999932, 0.0 ] } },
{ "type": "Feature", "properties": { "Name": "KLINIK MAEDENA", "TipeFaskes": "Klinik Pratama" }, "geometry": { "type": "Point", "coordinates": [ 106.884999999999181, -6.47515, 0.0 ] } },
{ "type": "Feature", "properties": { "Name": "KLINIK TLAJUNG", "TipeFaskes": "Klinik Pratama" }, "geometry": { "type": "Point", "coordinates": [ 106.916256150999104, -6.445249349999921, 0.0 ] } },
{ "type": "Feature", "properties": { "Name": "KLINIK DR ABDUL RADJAK", "TipeFaskes": "Klinik Pratama" }, "geometry": { "type": "Point", "coordinates": [ 106.891562518999166, -6.650755955999951, 0.0 ] } },
{ "type": "Feature", "properties": { "Name": "Klinik Shifa Medika", "TipeFaskes": "Klinik Pratama" }, "geometry": { "type": "Point", "coordinates": [ 106.875408210999197, -6.498469923999941, 0.0 ] } },
{ "type": "Feature", "properties": { "Name": "KLINIK AULIA MEDIKA", "TipeFaskes": "Klinik Pratama" }, "geometry": { "type": "Point", "coordinates": [ 106.867188424999227, -6.489056045999956, 0.0 ] } },
{ "type": "Feature", "properties": { "Name": "Klinik Robby Medika", "TipeFaskes": "Klinik Pratama" }, "geometry": { "type": "Point", "coordinates": [ 107.060999999998387, -6.46698, 0.0 ] } },
{ "type": "Feature", "properties": { "Name": "KLINIK BUNDA MULIA", "TipeFaskes": "Klinik Pratama" }, "geometry": { "type": "Point", "coordinates": [ 106.573566409999842, -6.342908708999968, 0.0 ] } },
{ "type": "Feature", "properties": { "Name": "KLINIK PERMATA HUSADA", "TipeFaskes": "Klinik Pratama" }, "geometry": { "type": "Point", "coordinates": [ 106.854673440999278, -6.560535964999912, 0.0 ] } },
{ "type": "Feature", "properties": { "Name": "KLINIK RABBANI MEDIKA", "TipeFaskes": "Klinik Pratama" }, "geometry": { "type": "Point", "coordinates": [ 106.898122967999143, -6.457827179999974, 0.0 ] } },
{ "type": "Feature", "properties": { "Name": "KLINIK PERMATA MEDIKA I", "TipeFaskes": "Klinik Pratama" }, "geometry": { "type": "Point", "coordinates": [ 106.910999999999092, -6.44178, 0.0 ] } },
{ "type": "Feature", "properties": { "Name": "Klinik Assalam", "TipeFaskes": "Klinik Pratama" }, "geometry": { "type": "Point", "coordinates": [ 106.842963789999317, -6.503997695999926, 0.0 ] } },
{ "type": "Feature", "properties": { "Name": "KLINIK TNI AL JONGGOL", "TipeFaskes": "Klinik Pratama" }, "geometry": { "type": "Point", "coordinates": [ 107.062982514998382, -6.44283809199991, 0.0 ] } },
{ "type": "Feature", "properties": { "Name": "KLINIK ATANG SENDJAJA", "TipeFaskes": "Klinik Pratama" }, "geometry": { "type": "Point", "coordinates": [ 106.76039361399954, -6.546924713999933, 0.0 ] } },
{ "type": "Feature", "properties": { "Name": "KLINIK FARFA", "TipeFaskes": "Klinik Pratama" }, "geometry": { "type": "Point", "coordinates": [ 106.732284520999585, -6.562528728999946, 0.0 ] } },
{ "type": "Feature", "properties": { "Name": "KLINIK INSANI", "TipeFaskes": "Klinik Pratama" }, "geometry": { "type": "Point", "coordinates": [ 106.877250112999221, -6.494123638999942, 0.0 ] } },
{ "type": "Feature", "properties": { "Name": "KLINIK WASPADA", "TipeFaskes": "Klinik Pratama" }, "geometry": { "type": "Point", "coordinates": [ 106.807999999999424, -6.51743, 0.0 ] } },
{ "type": "Feature", "properties": { "Name": "PUSKESMAS CISARUA", "TipeFaskes": "Puskesmas" }, "geometry": { "type": "Point", "coordinates": [ 106.952228139998937, -6.684184636999911, 0.0 ] } },
{ "type": "Feature", "properties": { "Name": "PUSKESMAS SUKAMANAH", "TipeFaskes": "Puskesmas" }, "geometry": { "type": "Point", "coordinates": [ 106.900999999999144, -6.68759, 0.0 ] } },
{ "type": "Feature", "properties": { "Name": "PUSKESMAS MEGAMENDUNG", "TipeFaskes": "Puskesmas" }, "geometry": { "type": "Point", "coordinates": [ 106.907111405999132, -6.650228950999963, 0.0 ] } },
{ "type": "Feature", "properties": { "Name": "PUSKESMAS CIBULAN", "TipeFaskes": "Puskesmas" }, "geometry": { "type": "Point", "coordinates": [ 106.934293701999025, -6.682294591999938, 0.0 ] } },
{ "type": "Feature", "properties": { "Name": "PUSKESMAS CIAWI", "TipeFaskes": "Puskesmas" }, "geometry": { "type": "Point", "coordinates": [ 106.855474750999321, -6.663116601999942, 0.0 ] } },
{ "type": "Feature", "properties": { "Name": "PUSKESMAS BANJARSARI", "TipeFaskes": "Puskesmas" }, "geometry": { "type": "Point", "coordinates": [ 106.870037909999255, -6.680771526999918, 0.0 ] } },
{ "type": "Feature", "properties": { "Name": "PUSKESMAS CITAPEN", "TipeFaskes": "Puskesmas" }, "geometry": { "type": "Point", "coordinates": [ 106.877744204999217, -6.708510450999919, 0.0 ] } },
{ "type": "Feature", "properties": { "Name": "PUSKESMAS CIJERUK", "TipeFaskes": "Puskesmas" }, "geometry": { "type": "Point", "coordinates": [ 106.796488161999449, -6.673999723999929, 0.0 ] } },
{ "type": "Feature", "properties": { "Name": "PUSKESMAS CIBURAYUT", "TipeFaskes": "Puskesmas" }, "geometry": { "type": "Point", "coordinates": [ 106.790686181999476, -6.722126854999932, 0.0 ] } },
{ "type": "Feature", "properties": { "Name": "PUSKESMAS SUKAHARJA", "TipeFaskes": "Puskesmas" }, "geometry": { "type": "Point", "coordinates": [ 106.771999999999494, -6.66061, 0.0 ] } },
{ "type": "Feature", "properties": { "Name": "PUSKESMAS CIGOMBONG", "TipeFaskes": "Puskesmas" }, "geometry": { "type": "Point", "coordinates": [ 106.802999999999429, -6.74425, 0.0 ] } },
{ "type": "Feature", "properties": { "Name": "PUSKESMAS DRAMAGA", "TipeFaskes": "Puskesmas" }, "geometry": { "type": "Point", "coordinates": [ 106.746514983999546, -6.581418587999951, 0.0 ] } },
{ "type": "Feature", "properties": { "Name": "PUSKESMAS SIRNAGALIH", "TipeFaskes": "Puskesmas" }, "geometry": { "type": "Point", "coordinates": [ 106.765648630999493, -6.644393977999913, 0.0 ] } },
{ "type": "Feature", "properties": { "Name": "PUSKESMAS CIOMAS", "TipeFaskes": "Puskesmas" }, "geometry": { "type": "Point", "coordinates": [ 106.759443905999532, -6.601706086999969, 0.0 ] } },
{ "type": "Feature", "properties": { "Name": "PUSKESMAS TAMAN SARI", "TipeFaskes": "Puskesmas" }, "geometry": { "type": "Point", "coordinates": [ 106.729005957999618, -6.654505080999953, 0.0 ] } },
{ "type": "Feature", "properties": { "Name": "PUSKESMAS CANGKURAWOK", "TipeFaskes": "Puskesmas" }, "geometry": { "type": "Point", "coordinates": [ 106.736984935999573, -6.551635261999935, 0.0 ] } },
{ "type": "Feature", "properties": { "Name": "PUSKESMAS KAMPUNG MANGGIS", "TipeFaskes": "Puskesmas" }, "geometry": { "type": "Point", "coordinates": [ 106.73765399499959, -6.577663964999939, 0.0 ] } },
{ "type": "Feature", "properties": { "Name": "PUSKESMAS PURWASARI", "TipeFaskes": "Puskesmas" }, "geometry": { "type": "Point", "coordinates": [ 106.715438540999642, -6.616527317999939, 0.0 ] } },
{ "type": "Feature", "properties": { "Name": "PUSKESMAS CIAPUS", "TipeFaskes": "Puskesmas" }, "geometry": { "type": "Point", "coordinates": [ 106.751254345999556, -6.612792421999925, 0.0 ] } },
{ "type": "Feature", "properties": { "Name": "PUSKESMAS KOTABATU", "TipeFaskes": "Puskesmas" }, "geometry": { "type": "Point", "coordinates": [ 106.781940990999487, -6.631417263999928, 0.0 ] } },
{ "type": "Feature", "properties": { "Name": "PUSKESMAS LALADON", "TipeFaskes": "Puskesmas" }, "geometry": { "type": "Point", "coordinates": [ 106.75816093299953, -6.581342712999961, 0.0 ] } },
{ "type": "Feature", "properties": { "Name": "PUSKESMAS SUKARESMI", "TipeFaskes": "Puskesmas" }, "geometry": { "type": "Point", "coordinates": [ 106.751394284999549, -6.638439379999956, 0.0 ] } },
{ "type": "Feature", "properties": { "Name": "PUSKESMAS RUMPIN", "TipeFaskes": "Puskesmas" }, "geometry": { "type": "Point", "coordinates": [ 106.639042914999749, -6.44457658899994, 0.0 ] } },
{ "type": "Feature", "properties": { "Name": "PUSKESMAS CICANGKAL", "TipeFaskes": "Puskesmas" }, "geometry": { "type": "Point", "coordinates": [ 106.632300406999747, -6.390703938999924, 0.0 ] } },
{ "type": "Feature", "properties": { "Name": "PUSKESMAS GOBANG", "TipeFaskes": "Puskesmas" }, "geometry": { "type": "Point", "coordinates": [ 106.65038623799974, -6.509852848999961, 0.0 ] } },
{ "type": "Feature", "properties": { "Name": "PUSKESMAS CIAMPEA", "TipeFaskes": "Puskesmas" }, "geometry": { "type": "Point", "coordinates": [ 106.692262855999687, -6.545886588999963, 0.0 ] } },
{ "type": "Feature", "properties": { "Name": "PUSKESMAS PASIR", "TipeFaskes": "Puskesmas" }, "geometry": { "type": "Point", "coordinates": [ 106.70092221599964, -6.593807269999956, 0.0 ] } },
{ "type": "Feature", "properties": { "Name": "PUSKESMAS TENJOLAYA", "TipeFaskes": "Puskesmas" }, "geometry": { "type": "Point", "coordinates": [ 106.700380873999663, -6.606782561999978, 0.0 ] } },
{ "type": "Feature", "properties": { "Name": "PUSKESMAS CIAMPEA UDIK", "TipeFaskes": "Puskesmas" }, "geometry": { "type": "Point", "coordinates": [ 106.686489038999653, -6.595985262999922, 0.0 ] } },
{ "type": "Feature", "properties": { "Name": "PUSKESMAS CIHIDEUNG UDIK", "TipeFaskes": "Puskesmas" }, "geometry": { "type": "Point", "coordinates": [ 106.715999999999624, -6.59243, 0.0 ] } },
{ "type": "Feature", "properties": { "Name": "PUSKESMAS SITU UDIK", "TipeFaskes": "Puskesmas" }, "geometry": { "type": "Point", "coordinates": [ 106.655278949999754, -6.612557335999948, 0.0 ] } },
{ "type": "Feature", "properties": { "Name": "PUSKESMAS CIBENING", "TipeFaskes": "Puskesmas" }, "geometry": { "type": "Point", "coordinates": [ 106.671386237999727, -6.63674445299995, 0.0 ] } },
{ "type": "Feature", "properties": { "Name": "PUSKESMAS CIBUNGBULANG", "TipeFaskes": "Puskesmas" }, "geometry": { "type": "Point", "coordinates": [ 106.661029923999706, -6.579545485999968, 0.0 ] } },
{ "type": "Feature", "properties": { "Name": "PUSKESMAS PAMIJAHAN", "TipeFaskes": "Puskesmas" }, "geometry": { "type": "Point", "coordinates": [ 106.663725073999728, -6.67132122399994, 0.0 ] } },
{ "type": "Feature", "properties": { "Name": "PUSKESMAS CIJUJUNG", "TipeFaskes": "Puskesmas" }, "geometry": { "type": "Point", "coordinates": [ 106.658356269999729, -6.553780330999927, 0.0 ] } },
{ "type": "Feature", "properties": { "Name": "PUSKESMAS CIASMARA", "TipeFaskes": "Puskesmas" }, "geometry": { "type": "Point", "coordinates": [ 106.648704956999737, -6.684808647999946, 0.0 ] } },
{ "type": "Feature", "properties": { "Name": "PUSKESMAS LEUWILIANG", "TipeFaskes": "Puskesmas" }, "geometry": { "type": "Point", "coordinates": [ 106.635598132999789, -6.576185297999928, 0.0 ] } },
{ "type": "Feature", "properties": { "Name": "PUSKESMAS LEUWISADENG", "TipeFaskes": "Puskesmas" }, "geometry": { "type": "Point", "coordinates": [ 106.61199999999981, -6.56325, 0.0 ] } },
{ "type": "Feature", "properties": { "Name": "PUSKESMAS PURASEDA", "TipeFaskes": "Puskesmas" }, "geometry": { "type": "Point", "coordinates": [ 106.624225305999786, -6.65142926799995, 0.0 ] } },
{ "type": "Feature", "properties": { "Name": "PUSKESMAS SADENGPASAR", "TipeFaskes": "Puskesmas" }, "geometry": { "type": "Point", "coordinates": [ 106.579974786999855, -6.569836319999968, 0.0 ] } },
{ "type": "Feature", "properties": { "Name": "PUSKESMAS CIGUDEG", "TipeFaskes": "Puskesmas" }, "geometry": { "type": "Point", "coordinates": [ 106.534552534999861, -6.549597246999944, 0.0 ] } },
{ "type": "Feature", "properties": { "Name": "PUSKESMAS LEBAKWANGI", "TipeFaskes": "Puskesmas" }, "geometry": { "type": "Point", "coordinates": [ 106.554999999999865, -6.43192, 0.0 ] } },
{ "type": "Feature", "properties": { "Name": "PUSKESMAS SUKAJAYA", "TipeFaskes": "Puskesmas" }, "geometry": { "type": "Point", "coordinates": [ 106.508411363999869, -6.584157451999937, 0.0 ] } },
{ "type": "Feature", "properties": { "Name": "PUSKESMAS BUNAR", "TipeFaskes": "Puskesmas" }, "geometry": { "type": "Point", "coordinates": [ 106.498305771999881, -6.524453983999933, 0.0 ] } },
{ "type": "Feature", "properties": { "Name": "PUSKESMAS KIARAPANDAK", "TipeFaskes": "Puskesmas" }, "geometry": { "type": "Point", "coordinates": [ 106.4959892709999, -6.623674493999935, 0.0 ] } },
{ "type": "Feature", "properties": { "Name": "PUSKESMAS JASINGA", "TipeFaskes": "Puskesmas" }, "geometry": { "type": "Point", "coordinates": [ 106.466936046999919, -6.475857757999956, 0.0 ] } },
{ "type": "Feature", "properties": { "Name": "PUSKESMAS CURUG", "TipeFaskes": "Puskesmas" }, "geometry": { "type": "Point", "coordinates": [ 106.43717274899997, -6.501620727999974, 0.0 ] } },
{ "type": "Feature", "properties": { "Name": "PUSKESMAS BAGOANG", "TipeFaskes": "Puskesmas" }, "geometry": { "type": "Point", "coordinates": [ 106.457600814999907, -6.424550198999943, 0.0 ] } },
{ "type": "Feature", "properties": { "Name": "PUSKESMAS PARUNG PANJANG", "TipeFaskes": "Puskesmas" }, "geometry": { "type": "Point", "coordinates": [ 106.571999999999832, -6.34172, 0.0 ] } },
{ "type": "Feature", "properties": { "Name": "PUSKESMAS TENJO", "TipeFaskes": "Puskesmas" }, "geometry": { "type": "Point", "coordinates": [ 106.459804198999947, -6.328656622999977, 0.0 ] } },
{ "type": "Feature", "properties": { "Name": "PUSKESMAS DAGO", "TipeFaskes": "Puskesmas" }, "geometry": { "type": "Point", "coordinates": [ 106.58769293799979, -6.407503716999939, 0.0 ] } },
{ "type": "Feature", "properties": { "Name": "PUSKESMAS PASAR REBO", "TipeFaskes": "Puskesmas" }, "geometry": { "type": "Point", "coordinates": [ 106.438224275999971, -6.378161177999973, 0.0 ] } },
{ "type": "Feature", "properties": { "Name": "PUSKESMAS GUNUNG SINDUR", "TipeFaskes": "Puskesmas" }, "geometry": { "type": "Point", "coordinates": [ 106.685258781999678, -6.382911391999925, 0.0 ] } },
{ "type": "Feature", "properties": { "Name": "PUSKESMAS SULIWER", "TipeFaskes": "Puskesmas" }, "geometry": { "type": "Point", "coordinates": [ 106.69157486999967, -6.403757334999956, 0.0 ] } },
{ "type": "Feature", "properties": { "Name": "PUSKESMAS PARUNG", "TipeFaskes": "Puskesmas" }, "geometry": { "type": "Point", "coordinates": [ 106.732786350999604, -6.420633475999965, 0.0 ] } },
{ "type": "Feature", "properties": { "Name": "PUSKESMAS CISEENG", "TipeFaskes": "Puskesmas" }, "geometry": { "type": "Point", "coordinates": [ 106.685478773999662, -6.446052632999963, 0.0 ] } },
{ "type": "Feature", "properties": { "Name": "PUSKESMAS CIBEUTEUNG UDIK", "TipeFaskes": "Puskesmas" }, "geometry": { "type": "Point", "coordinates": [ 106.690822973999687, -6.488981843999955, 0.0 ] } },
{ "type": "Feature", "properties": { "Name": "PUSKESMAS COGREG", "TipeFaskes": "Puskesmas" }, "geometry": { "type": "Point", "coordinates": [ 106.693437199999678, -6.425441302999959, 0.0 ] } },
{ "type": "Feature", "properties": { "Name": "PUSKESMAS BOJONG GEDE", "TipeFaskes": "Puskesmas" }, "geometry": { "type": "Point", "coordinates": [ 106.80247743299941, -6.479888559999947, 0.0 ] } },
{ "type": "Feature", "properties": { "Name": "PUSKESMAS TAJUR HALANG", "TipeFaskes": "Puskesmas" }, "geometry": { "type": "Point", "coordinates": [ 106.758321400999534, -6.48037259899996, 0.0 ] } },
{ "type": "Feature", "properties": { "Name": "PUSKESMAS RAGAJAYA", "TipeFaskes": "Puskesmas" }, "geometry": { "type": "Point", "coordinates": [ 106.776241398999503, -6.44419469099995, 0.0 ] } },
{ "type": "Feature", "properties": { "Name": "PUSKESMAS KEMUNING", "TipeFaskes": "Puskesmas" }, "geometry": { "type": "Point", "coordinates": [ 106.775500231999516, -6.505553880999969, 0.0 ] } },
{ "type": "Feature", "properties": { "Name": "PUSKESMAS CITEUREUP", "TipeFaskes": "Puskesmas" }, "geometry": { "type": "Point", "coordinates": [ 106.882717026999202, -6.481092016999964, 0.0 ] } },
{ "type": "Feature", "properties": { "Name": "PUSKESMAS BABAKAN MADANG", "TipeFaskes": "Puskesmas" }, "geometry": { "type": "Point", "coordinates": [ 106.864410377999263, -6.563625374999945, 0.0 ] } },
{ "type": "Feature", "properties": { "Name": "PUSKESMAS LEUWINUTUG", "TipeFaskes": "Puskesmas" }, "geometry": { "type": "Point", "coordinates": [ 106.859142982999302, -6.511797152999971, 0.0 ] } },
{ "type": "Feature", "properties": { "Name": "PUSKESMAS TAJUR", "TipeFaskes": "Puskesmas" }, "geometry": { "type": "Point", "coordinates": [ 106.910092484999112, -6.518767899999922, 0.0 ] } },
{ "type": "Feature", "properties": { "Name": "PUSKESMAS CIJAYANTI", "TipeFaskes": "Puskesmas" }, "geometry": { "type": "Point", "coordinates": [ 106.86449708599929, -6.594760690999961, 0.0 ] } },
{ "type": "Feature", "properties": { "Name": "PUSKESMAS SENTUL", "TipeFaskes": "Puskesmas" }, "geometry": { "type": "Point", "coordinates": [ 106.85826017399927, -6.525715933999939, 0.0 ] } },
{ "type": "Feature", "properties": { "Name": "PUSKESMAS KEMANG", "TipeFaskes": "Puskesmas" }, "geometry": { "type": "Point", "coordinates": [ 106.756397894999552, -6.512524540999951, 0.0 ] } },
{ "type": "Feature", "properties": { "Name": "PUSKESMAS RANCABUNGUR", "TipeFaskes": "Puskesmas" }, "geometry": { "type": "Point", "coordinates": [ 106.694498426999644, -6.523884779999945, 0.0 ] } },
{ "type": "Feature", "properties": { "Name": "PUSKESMAS BANTARJAYA", "TipeFaskes": "Puskesmas" }, "geometry": { "type": "Point", "coordinates": [ 106.737731778999574, -6.538927965999958, 0.0 ] } },
{ "type": "Feature", "properties": { "Name": "PUSKESMAS JAMPANG", "TipeFaskes": "Puskesmas" }, "geometry": { "type": "Point", "coordinates": [ 106.724602670999616, -6.478523120999953, 0.0 ] } },
{ "type": "Feature", "properties": { "Name": "PUSKESMAS CIMANDALA", "TipeFaskes": "Puskesmas" }, "geometry": { "type": "Point", "coordinates": [ 106.828999999999368, -6.53339, 0.0 ] } },
{ "type": "Feature", "properties": { "Name": "PUSKESMAS SUKARAJA", "TipeFaskes": "Puskesmas" }, "geometry": { "type": "Point", "coordinates": [ 106.844037550999303, -6.586571908999919, 0.0 ] } },
{ "type": "Feature", "properties": { "Name": "PUSKESMAS CILEBUT", "TipeFaskes": "Puskesmas" }, "geometry": { "type": "Point", "coordinates": [ 106.800197141999433, -6.532197601999933, 0.0 ] } },
{ "type": "Feature", "properties": { "Name": "PUSKESMAS CIBINONG", "TipeFaskes": "Puskesmas" }, "geometry": { "type": "Point", "coordinates": [ 106.842447464999339, -6.509708601999916, 0.0 ] } },
{ "type": "Feature", "properties": { "Name": "PUSKESMAS CIRIMEKAR", "TipeFaskes": "Puskesmas" }, "geometry": { "type": "Point", "coordinates": [ 106.854999999999293, -6.47089, 0.0 ] } },
{ "type": "Feature", "properties": { "Name": "PUSKESMAS KARADENAN", "TipeFaskes": "Puskesmas" }, "geometry": { "type": "Point", "coordinates": [ 106.808370919999419, -6.51854177299997, 0.0 ] } },
{ "type": "Feature", "properties": { "Name": "PUSKESMAS PABUARAN INDAH", "TipeFaskes": "Puskesmas" }, "geometry": { "type": "Point", "coordinates": [ 106.84591685199932, -6.441779957999914, 0.0 ] } },
{ "type": "Feature", "properties": { "Name": "PUSKESMAS GUNUNG PUTRI", "TipeFaskes": "Puskesmas" }, "geometry": { "type": "Point", "coordinates": [ 106.937655335998969, -6.416970523999953, 0.0 ] } },
{ "type": "Feature", "properties": { "Name": "PUSKESMAS CIANGSANA", "TipeFaskes": "Puskesmas" }, "geometry": { "type": "Point", "coordinates": [ 106.951954401998933, -6.368021957999907, 0.0 ] } },
{ "type": "Feature", "properties": { "Name": "PUSKESMAS KARANGGAN", "TipeFaskes": "Puskesmas" }, "geometry": { "type": "Point", "coordinates": [ 106.883769329999197, -6.458637950999942, 0.0 ] } },
{ "type": "Feature", "properties": { "Name": "PUSKESMAS BOJONGNANGKA", "TipeFaskes": "Puskesmas" }, "geometry": { "type": "Point", "coordinates": [ 106.897999999999172, -6.44276, 0.0 ] } },
{ "type": "Feature", "properties": { "Name": "PUSKESMAS CILEUNGSI", "TipeFaskes": "Puskesmas" }, "geometry": { "type": "Point", "coordinates": [ 106.963526755998913, -6.403756304999934, 0.0 ] } },
{ "type": "Feature", "properties": { "Name": "PUSKESMAS KLAPANUNGGAL", "TipeFaskes": "Puskesmas" }, "geometry": { "type": "Point", "coordinates": [ 106.944002319998958, -6.443778084999953, 0.0 ] } },
{ "type": "Feature", "properties": { "Name": "PUSKESMAS GANDOANG", "TipeFaskes": "Puskesmas" }, "geometry": { "type": "Point", "coordinates": [ 107.009011924998646, -6.411167367999934, 0.0 ] } },
{ "type": "Feature", "properties": { "Name": "PUSKESMAS PASIR ANGIN", "TipeFaskes": "Puskesmas" }, "geometry": { "type": "Point", "coordinates": [ 106.987101923998779, -6.385759328999925, 0.0 ] } },
{ "type": "Feature", "properties": { "Name": "PUSKESMAS BOJONG", "TipeFaskes": "Puskesmas" }, "geometry": { "type": "Point", "coordinates": [ 106.990871253998776, -6.448388570999928, 0.0 ] } },
{ "type": "Feature", "properties": { "Name": "PUSKESMAS JONGGOL", "TipeFaskes": "Puskesmas" }, "geometry": { "type": "Point", "coordinates": [ 107.061999999998406, -6.46731, 0.0 ] } },
{ "type": "Feature", "properties": { "Name": "PUSKESMAS SUKAMAKMUR", "TipeFaskes": "Puskesmas" }, "geometry": { "type": "Point", "coordinates": [ 106.994490843998747, -6.566775421999959, 0.0 ] } },
{ "type": "Feature", "properties": { "Name": "PUSKESMAS BALEKAMBANG", "TipeFaskes": "Puskesmas" }, "geometry": { "type": "Point", "coordinates": [ 107.086545365998248, -6.492780671999947, 0.0 ] } },
{ "type": "Feature", "properties": { "Name": "PUSKESMAS SUKANEGARA", "TipeFaskes": "Puskesmas" }, "geometry": { "type": "Point", "coordinates": [ 107.047280960998506, -6.520115177999952, 0.0 ] } },
{ "type": "Feature", "properties": { "Name": "PUSKESMAS SUKADAMAI", "TipeFaskes": "Puskesmas" }, "geometry": { "type": "Point", "coordinates": [ 107.055504617998437, -6.554732722999943, 0.0 ] } },
{ "type": "Feature", "properties": { "Name": "PUSKESMAS CARIU", "TipeFaskes": "Puskesmas" }, "geometry": { "type": "Point", "coordinates": [ 107.130509619997966, -6.502186701999927, 0.0 ] } },
{ "type": "Feature", "properties": { "Name": "PUSKESMAS TANJUNG SARI", "TipeFaskes": "Puskesmas" }, "geometry": { "type": "Point", "coordinates": [ 107.152098777997807, -6.613771107999944, 0.0 ] } },
{ "type": "Feature", "properties": { "Name": "PUSKESMAS KARYAMEKAR", "TipeFaskes": "Puskesmas" }, "geometry": { "type": "Point", "coordinates": [ 107.104029453998152, -6.539500193999939, 0.0 ] } },
{ "type": "Feature", "properties": { "Name": "PUSKESMAS CARINGIN", "TipeFaskes": "Puskesmas" }, "geometry": { "type": "Point", "coordinates": [ 106.817999999999373, -6.70325, 0.0 ] } },
{ "type": "Feature", "properties": { "Name": "PUSKESMAS CINAGARA", "TipeFaskes": "Puskesmas" }, "geometry": { "type": "Point", "coordinates": [ 106.843675147999321, -6.740513268999946, 0.0 ] } },
{ "type": "Feature", "properties": { "Name": "PUSKESMAS CIDERUM", "TipeFaskes": "Puskesmas" }, "geometry": { "type": "Point", "coordinates": [ 106.846561458999304, -6.691122356999919, 0.0 ] } },
{ "type": "Feature", "properties": { "Name": "PUSKESMAS NANGGUNG", "TipeFaskes": "Puskesmas" }, "geometry": { "type": "Point", "coordinates": [ 106.539662041999904, -6.598161839999926, 0.0 ] } },
{ "type": "Feature", "properties": { "Name": "PUSKESMAS CURUG BITUNG", "TipeFaskes": "Puskesmas" }, "geometry": { "type": "Point", "coordinates": [ 106.538273584999885, -6.632148504999973, 0.0 ] } },
{ "type": "Feature", "properties": { "Name": "KLINIK UTAMA TOP JONGGOL", "TipeFaskes": "Klinik Utama" }, "geometry": { "type": "Point", "coordinates": [ 107.059999999998411, -6.4656, 0.0 ] } },
{ "type": "Feature", "properties": { "Name": "KLINIK UTAMA MATA AINUN CAHAYA", "TipeFaskes": "Klinik Utama" }, "geometry": { "type": "Point", "coordinates": [ 106.735999999999564, -6.4853, 0.0 ] } },
{ "type": "Feature", "properties": { "Name": "KLINIK UTAMA RI CITRA BUNDA JONGGOL", "TipeFaskes": "Klinik Utama" }, "geometry": { "type": "Point", "coordinates": [ 107.056999999998453, -6.44315, 0.0 ] } },
{ "type": "Feature", "properties": { "Name": "KLINIK UTAMA RJ PARUNG", "TipeFaskes": "Klinik Utama" }, "geometry": { "type": "Point", "coordinates": [ 106.69099999999969, -6.41901, 0.0 ] } },
{ "type": "Feature", "properties": { "Name": "KLINIKI UTAMA JANTUNG PARU INSANI", "TipeFaskes": "Klinik Utama" }, "geometry": { "type": "Point", "coordinates": [ 106.880999999999233, -6.49031, 0.0 ] } },
{ "type": "Feature", "properties": { "Name": "Dokter Umum - dr. Ibnu Syifa", "TipeFaskes": "Dokter Umum" }, "geometry": { "type": "Point", "coordinates": [ 106.929709030999064, -6.678384076999956, 0.0 ] } },
{ "type": "Feature", "properties": { "Name": "Dokter Umum - dr. TRI HINDRAWATI", "TipeFaskes": "Dokter Umum" }, "geometry": { "type": "Point", "coordinates": [ 106.810506937999421, -6.484867958999926, 0.0 ] } },
{ "type": "Feature", "properties": { "Name": "Dokter Umum - dr. AGUS WAHYUDI", "TipeFaskes": "Dokter Umum" }, "geometry": { "type": "Point", "coordinates": [ 106.93466711399897, -6.408448092999931, 0.0 ] } },
{ "type": "Feature", "properties": { "Name": "Dokter Umum - dr. NI GUSTI MADE DERASWATI", "TipeFaskes": "Dokter Umum" }, "geometry": { "type": "Point", "coordinates": [ 106.821514983999364, -6.538749973999914, 0.0 ] } },
{ "type": "Feature", "properties": { "Name": "Dokter Umum - dr. Effa Yuliastri", "TipeFaskes": "Dokter Umum" }, "geometry": { "type": "Point", "coordinates": [ 106.987672306998803, -6.38872694999996, 0.0 ] } },
{ "type": "Feature", "properties": { "Name": "Dokter Umum - dr. MUHAMMAD ARVID SUHADA", "TipeFaskes": "Dokter Umum" }, "geometry": { "type": "Point", "coordinates": [ 106.702572187999621, -6.437721009999953, 0.0 ] } },
{ "type": "Feature", "properties": { "Name": "Dokter Umum - dr. Hestika Demayanti", "TipeFaskes": "Dokter Umum" }, "geometry": { "type": "Point", "coordinates": [ 106.888467598999199, -6.651441859999963, 0.0 ] } },
{ "type": "Feature", "properties": { "Name": "Dokter Umum - dr. Fayrus", "TipeFaskes": "Dokter Umum" }, "geometry": { "type": "Point", "coordinates": [ 106.964347552998859, -6.408539967999932, 0.0 ] } },
{ "type": "Feature", "properties": { "Name": "Dokter Umum - dr Elis Tiahesara", "TipeFaskes": "Dokter Umum" }, "geometry": { "type": "Point", "coordinates": [ 106.762096559999563, -6.469704588999933, 0.0 ] } },
{ "type": "Feature", "properties": { "Name": "Dokter Umum - DR EKA ANDRE ADITHIA", "TipeFaskes": "Dokter Umum" }, "geometry": { "type": "Point", "coordinates": [ 107.047364779998503, -6.434112389999925, 0.0 ] } },
{ "type": "Feature", "properties": { "Name": "Dokter Umum - DR NURUL SYAMSU HIDAYATI", "TipeFaskes": "Dokter Umum" }, "geometry": { "type": "Point", "coordinates": [ 106.946375508998955, -6.409026092999953, 0.0 ] } },
{ "type": "Feature", "properties": { "Name": "Dokter Umum - DR VERA LINDA CHEN BAHRUN", "TipeFaskes": "Dokter Umum" }, "geometry": { "type": "Point", "coordinates": [ 106.693020116999662, -6.421947401999941, 0.0 ] } },
{ "type": "Feature", "properties": { "Name": "Dokter Umum - DR ALI HARTANTO", "TipeFaskes": "Dokter Umum" }, "geometry": { "type": "Point", "coordinates": [ 106.848664723999292, -6.457892015999954, 0.0 ] } },
{ "type": "Feature", "properties": { "Name": "Dokter Umum - DR DWI SETIANI", "TipeFaskes": "Dokter Umum" }, "geometry": { "type": "Point", "coordinates": [ 106.81152478499942, -6.481676359999927, 0.0 ] } },
{ "type": "Feature", "properties": { "Name": "Dokter Umum - DR. WARA WULANJAR PRAPTIWI", "TipeFaskes": "Dokter Umum" }, "geometry": { "type": "Point", "coordinates": [ 106.833316500999359, -6.501282350999913, 0.0 ] } },
{ "type": "Feature", "properties": { "Name": "Dokter Gigi - drg. Magdalena Harahap", "TipeFaskes": "Dokter Gigi" }, "geometry": { "type": "Point", "coordinates": [ 106.852449269999326, -6.471103325999926, 0.0 ] } },
{ "type": "Feature", "properties": { "Name": "Dokter Gigi - DRG. RETNO WULANDARI", "TipeFaskes": "Dokter Gigi" }, "geometry": { "type": "Point", "coordinates": [ 106.888464861999154, -6.651447666999944, 0.0 ] } },
{ "type": "Feature", "properties": { "Name": "Dokter Gigi - DRG NYOMAN DEVITHA ASTARI", "TipeFaskes": "Dokter Gigi" }, "geometry": { "type": "Point", "coordinates": [ 106.762107287999498, -6.469690337999957, 0.0 ] } },
{ "type": "Feature", "properties": { "Name": "Dokter Gigi - DRG. NILA DEWI ANDAYANI", "TipeFaskes": "Dokter Gigi" }, "geometry": { "type": "Point", "coordinates": [ 106.833212652999322, -6.501246265999941, 0.0 ] } },
{ "type": "Feature", "properties": { "Name": "IF RSUD CIBINONG", "TipeFaskes": "Apotek" }, "geometry": { "type": "Point", "coordinates": [ 106.830475014999351, -6.47341718999995, 0.0 ] } },
{ "type": "Feature", "properties": { "Name": "IF RSUD CIAWI", "TipeFaskes": "Apotek" }, "geometry": { "type": "Point", "coordinates": [ 106.852136534999289, -6.659899865999916, 0.0 ] } },
{ "type": "Feature", "properties": { "Name": "IF RS MH THAMRIN CILEUNGSI", "TipeFaskes": "Apotek" }, "geometry": { "type": "Point", "coordinates": [ 106.970568592998845, -6.375386143999936, 0.0 ] } },
{ "type": "Feature", "properties": { "Name": "IF RSUD CILEUNGSI", "TipeFaskes": "Apotek" }, "geometry": { "type": "Point", "coordinates": [ 107.048036999998487, -6.43433, 0.0 ] } },
{ "type": "Feature", "properties": { "Name": "IF RSU MARY CILEUNGSI", "TipeFaskes": "Apotek" }, "geometry": { "type": "Point", "coordinates": [ 106.968999999998857, -6.40014, 0.0 ] } },
{ "type": "Feature", "properties": { "Name": "IF RS SENTRA MEDIKA CIBINONG", "TipeFaskes": "Apotek" }, "geometry": { "type": "Point", "coordinates": [ 106.86499999999927, -6.48042, 0.0 ] } },
{ "type": "Feature", "properties": { "Name": "IF RS CITAMA", "TipeFaskes": "Apotek" }, "geometry": { "type": "Point", "coordinates": [ 106.796999999999471, -6.46129, 0.0 ] } },
{ "type": "Feature", "properties": { "Name": "IF RS RST DOMPET DHUAFA", "TipeFaskes": "Apotek" }, "geometry": { "type": "Point", "coordinates": [ 106.728831999999613, -6.473407, 0.0 ] } },
{ "type": "Feature", "properties": { "Name": "APOTEK KIMIA FARMA 348", "TipeFaskes": "Apotek" }, "geometry": { "type": "Point", "coordinates": [ 106.728999999999587, -6.59467, 0.0 ] } },
{ "type": "Feature", "properties": { "Name": "APOTEK KIMIA FARMA 362", "TipeFaskes": "Apotek" }, "geometry": { "type": "Point", "coordinates": [ 106.86199999999927, -6.47194, 0.0 ] } },
{ "type": "Feature", "properties": { "Name": "APOTEK KIMIA FARMA SUKAHATI", "TipeFaskes": "Apotek" }, "geometry": { "type": "Point", "coordinates": [ 106.81699999999941, -6.48608, 0.0 ] } },
{ "type": "Feature", "properties": { "Name": "IF RSUD LEUWILIANG", "TipeFaskes": "Apotek" }, "geometry": { "type": "Point", "coordinates": [ 106.627566999999758, -6.574538, 0.0 ] } },
{ "type": "Feature", "properties": { "Name": "IF RS SENTOSA", "TipeFaskes": "Apotek" }, "geometry": { "type": "Point", "coordinates": [ 106.751221999999544, -6.494768, 0.0 ] } },
{ "type": "Feature", "properties": { "Name": "APOTEK ZENTRUM PARUNG", "TipeFaskes": "Apotek" }, "geometry": { "type": "Point", "coordinates": [ 106.728999999999587, -6.47282, 0.0 ] } },
{ "type": "Feature", "properties": { "Name": "IF RS PERMATA JONGGOL", "TipeFaskes": "Apotek" }, "geometry": { "type": "Point", "coordinates": [ 107.053706699998457, -6.437855106999942, 0.0 ] } },
{ "type": "Feature", "properties": { "Name": "APOTEK KIMIA FARMA CILEUNGSI", "TipeFaskes": "Apotek" }, "geometry": { "type": "Point", "coordinates": [ 106.95729381399893, -6.392069689999952, 0.0 ] } },
{ "type": "Feature", "properties": { "Name": "IF RS ASYSYIFAA", "TipeFaskes": "Apotek" }, "geometry": { "type": "Point", "coordinates": [ 106.662072455999692, -6.597705879999969, 0.0 ] } },
{ "type": "Feature", "properties": { "Name": "IF KLINIK INSANI", "TipeFaskes": "Apotek" }, "geometry": { "type": "Point", "coordinates": [ 106.876999999999228, -6.49421, 0.0 ] } },
{ "type": "Feature", "properties": { "Name": "APOTEK KEMANG", "TipeFaskes": "Apotek" }, "geometry": { "type": "Point", "coordinates": [ 106.752550071999579, -6.495988268999948, 0.0 ] } },
{ "type": "Feature", "properties": { "Name": "APOTEK KIMIA FARMA PARUNG", "TipeFaskes": "Apotek" }, "geometry": { "type": "Point", "coordinates": [ 106.731338999999579, -6.429147, 0.0 ] } },
{ "type": "Feature", "properties": { "Name": "APOTEK KF CIOMAS", "TipeFaskes": "Apotek" }, "geometry": { "type": "Point", "coordinates": [ 106.75618839999953, -6.602696399999949, 0.0 ] } },
{ "type": "Feature", "properties": { "Name": "APOTEK KF BOJONGGEDE", "TipeFaskes": "Apotek" }, "geometry": { "type": "Point", "coordinates": [ 106.795842699999426, -6.48709979999995, 0.0 ] } },
{ "type": "Feature", "properties": { "Name": "IF RS TRIMITRA", "TipeFaskes": "Apotek" }, "geometry": { "type": "Point", "coordinates": [ 106.846999999999284, -6.47462, 0.0 ] } },
{ "type": "Feature", "properties": { "Name": "IF RSIA ASSALAM", "TipeFaskes": "Apotek" }, "geometry": { "type": "Point", "coordinates": [ 106.843999999999312, -6.50036, 0.0 ] } },
{ "type": "Feature", "properties": { "Name": "IF RSU ANNISA", "TipeFaskes": "Apotek" }, "geometry": { "type": "Point", "coordinates": [ 106.870999999999214, -6.48262, 0.0 ] } },
{ "type": "Feature", "properties": { "Name": "IF RS FAMILY MEDICAL CENTER", "TipeFaskes": "Apotek" }, "geometry": { "type": "Point", "coordinates": [ 106.827999999999392, -6.53409, 0.0 ] } },
{ "type": "Feature", "properties": { "Name": "IF RS HERMINA MEKARSARI", "TipeFaskes": "Apotek" }, "geometry": { "type": "Point", "coordinates": [ 106.976999999998796, -6.40601, 0.0 ] } },
{ "type": "Feature", "properties": { "Name": "IF RS KARYA BHAKTI PRATIWI", "TipeFaskes": "Apotek" }, "geometry": { "type": "Point", "coordinates": [ 106.737999999999573, -6.56942, 0.0 ] } },
{ "type": "Feature", "properties": { "Name": "IF RS BINA HUSADA", "TipeFaskes": "Apotek" }, "geometry": { "type": "Point", "coordinates": [ 106.862999999999261, -6.47331, 0.0 ] } },
{ "type": "Feature", "properties": { "Name": "IF RSIA KENARI GRAHA MEDIKA", "TipeFaskes": "Apotek" }, "geometry": { "type": "Point", "coordinates": [ 106.960861151998913, -6.410203, 0.0 ] } },
{ "type": "Feature", "properties": { "Name": "IF RSIA CITRA INSANI", "TipeFaskes": "Apotek" }, "geometry": { "type": "Point", "coordinates": [ 106.732999999999592, -6.44418, 0.0 ] } },
{ "type": "Feature", "properties": { "Name": "IF RS dr. M. Hassan Toto", "TipeFaskes": "Apotek" }, "geometry": { "type": "Point", "coordinates": [ 106.761999999999531, -6.54445, 0.0 ] } },
{ "type": "Feature", "properties": { "Name": "IF RS HARAPAN SEHATI", "TipeFaskes": "Apotek" }, "geometry": { "type": "Point", "coordinates": [ 106.804999999999424, -6.48084, 0.0 ] } },
{ "type": "Feature", "properties": { "Name": "IF RS EMC SENTUL", "TipeFaskes": "Apotek" }, "geometry": { "type": "Point", "coordinates": [ 106.853999999999289, -6.56753, 0.0 ] } },
{ "type": "Feature", "properties": { "Name": "IF RS PENA 98", "TipeFaskes": "Apotek" }, "geometry": { "type": "Point", "coordinates": [ 106.688999999999695, -6.37999, 0.0 ] } },
{ "type": "Feature", "properties": { "Name": "APOTEK KIMIA FARMA CIBINONG", "TipeFaskes": "Apotek" }, "geometry": { "type": "Point", "coordinates": [ 106.862206822999269, -6.47198947499991, 0.0 ] } },
{ "type": "Feature", "properties": { "Name": "APOTEK ZENTRUM", "TipeFaskes": "Apotek" }, "geometry": { "type": "Point", "coordinates": [ 106.72947399999957, -6.47296, 0.0 ] } },
{ "type": "Feature", "properties": { "Name": "APOTEK KIMIA FARMA NAROGONG", "TipeFaskes": "Apotek" }, "geometry": { "type": "Point", "coordinates": [ 106.976554756998851, -6.360746034999958, 0.0 ] } },
{ "type": "Feature", "properties": { "Name": "IF RS ISLAM AYSHA", "TipeFaskes": "Apotek" }, "geometry": { "type": "Point", "coordinates": [ 106.804999999999424, -6.50954, 0.0 ] } },
{ "type": "Feature", "properties": { "Name": "IF KU TOP JONGGOL", "TipeFaskes": "Apotek" }, "geometry": { "type": "Point", "coordinates": [ 107.059999999998411, -6.4656, 0.0 ] } },
{ "type": "Feature", "properties": { "Name": "IF RS HELSA CITEUREUP", "TipeFaskes": "Apotek" }, "geometry": { "type": "Point", "coordinates": [ 106.87799999999919, -6.48706, 0.0 ] } },
{ "type": "Feature", "properties": { "Name": "APOTEK KIMIA FARMA CIPAYUNG", "TipeFaskes": "Apotek" }, "geometry": { "type": "Point", "coordinates": [ 106.899501499999133, -6.649708899999932, 0.0 ] } },
{ "type": "Feature", "properties": { "Name": "APOTEK BUNDA FARMA", "TipeFaskes": "Apotek" }, "geometry": { "type": "Point", "coordinates": [ 106.679297856999682, -6.459069649999941, 0.0 ] } },
{ "type": "Feature", "properties": { "Name": "APOTEK EFADA FARMA", "TipeFaskes": "Apotek" }, "geometry": { "type": "Point", "coordinates": [ 106.812221174999394, -6.482351337999937, 0.0 ] } },
{ "type": "Feature", "properties": { "Name": "IF KU JANTUNG PARU INSANI", "TipeFaskes": "Apotek" }, "geometry": { "type": "Point", "coordinates": [ 106.880999999999233, -6.49031, 0.0 ] } },
{ "type": "Feature", "properties": { "Name": "IF RS EKA HOSPITAL", "TipeFaskes": "Apotek" }, "geometry": { "type": "Point", "coordinates": [ 106.954999999998904, -6.38476, 0.0 ] } },
{ "type": "Feature", "properties": { "Name": "APOTEK CIPAYUNG", "TipeFaskes": "Apotek" }, "geometry": { "type": "Point", "coordinates": [ 106.830363636999365, -6.47383373199993, 0.0 ] } },
{ "type": "Feature", "properties": { "Name": "APOTEK ZENTRUM 4", "TipeFaskes": "Apotek" }, "geometry": { "type": "Point", "coordinates": [ 106.965197199998855, -6.405580699999961, 0.0 ] } },
{ "type": "Feature", "properties": { "Name": "APOTEK KIMIA FARMA CIBANTENG", "TipeFaskes": "Apotek" }, "geometry": { "type": "Point", "coordinates": [ 106.712917750999637, -6.559421646999963, 0.0 ] } },
{ "type": "Feature", "properties": { "Name": "IF KURJ PARUNG", "TipeFaskes": "Apotek" }, "geometry": { "type": "Point", "coordinates": [ 106.69099999999969, -6.41901, 0.0 ] } },
{ "type": "Feature", "properties": { "Name": "IF RSP DR. M GOENAWAN P", "TipeFaskes": "Apotek" }, "geometry": { "type": "Point", "coordinates": [ 106.939132576999015, -6.687529485999945, 0.0 ] } }
]
}
