{
"type": "FeatureCollection",
"name": "Pasar",
"crs": { "type": "name", "properties": { "name": "urn:ogc:def:crs:OGC:1.3:CRS84" } },
"features": [
{ "type": "Feature", "properties": { "Nama_Pasar": "Pasar Cibinong" }, "geometry": { "type": "Point", "coordinates": [ 106.855861100009804, -6.466222221578221 ] } },
{ "type": "Feature", "properties": { "Nama_Pasar": "Pasar Cileungsi" }, "geometry": { "type": "Point", "coordinates": [ 106.961460000079001, -6.406970000065428 ] } },
{ "type": "Feature", "properties": { "Nama_Pasar": "Pasar Citeureup 1" }, "geometry": { "type": "Point", "coordinates": [ 106.883400000309848, -6.486389999598771 ] } },
{ "type": "Feature", "properties": { "Nama_Pasar": "Pasar Cariu" }, "geometry": { "type": "Point", "coordinates": [ 107.130950000142434, -6.505830000354194 ] } },
{ "type": "Feature", "properties": { "Nama_Pasar": "Pasar Citeureup II" }, "geometry": { "type": "Point", "coordinates": [ 106.883160000034025, -6.487630000124341 ] } },
{ "type": "Feature", "properties": { "Nama_Pasar": "Pasar Jonggol" }, "geometry": { "type": "Point", "coordinates": [ 107.065139999611347, -6.463900000284752 ] } },
{ "type": "Feature", "properties": { "Nama_Pasar": "Pasar Cisarua" }, "geometry": { "type": "Point", "coordinates": [ 106.928860000388795, -6.681039999796099 ] } },
{ "type": "Feature", "properties": { "Nama_Pasar": "Pasar Parungpanjang" }, "geometry": { "type": "Point", "coordinates": [ 106.568869999950607, -6.342389999598765 ] } },
{ "type": "Feature", "properties": { "Nama_Pasar": "Pasar Leuwiliang" }, "geometry": { "type": "Point", "coordinates": [ 106.633849999977599, -6.573959999954013 ] } },
{ "type": "Feature", "properties": { "Nama_Pasar": "Pasar Laladon" }, "geometry": { "type": "Point", "coordinates": [ 106.752950000142448, -6.576290000383153 ] } },
{ "type": "Feature", "properties": { "Nama_Pasar": "Pasar Ciawi" }, "geometry": { "type": "Point", "coordinates": [ 106.84722219984468, -6.65633333261718 ] } },
{ "type": "Feature", "properties": { "Nama_Pasar": "Pasar Jasinga" }, "geometry": { "type": "Point", "coordinates": [ 106.479959999854145, -6.485009999811609 ] } },
{ "type": "Feature", "properties": { "Nama_Pasar": "Pasar Ciampea" }, "geometry": { "type": "Point", "coordinates": [ 106.693060000118976, -6.548159999983966 ] } },
{ "type": "Feature", "properties": { "Nama_Pasar": "Pasar Parung" }, "geometry": { "type": "Point", "coordinates": [ 106.729200000279832, -6.422859999889056 ] } },
{ "type": "Feature", "properties": { "Nama_Pasar": "Pasar Ciluar" }, "geometry": { "type": "Point", "coordinates": [ 106.831388899578087, -6.54397222234013 ] } },
{ "type": "Feature", "properties": { "Nama_Pasar": "Pasar Cigombong" }, "geometry": { "type": "Point", "coordinates": [ 106.797739999901125, -6.747949999792581 ] } },
{ "type": "Feature", "properties": { "Nama_Pasar": "Pasar Cicangkal" }, "geometry": { "type": "Point", "coordinates": [ 106.632249999937585, -6.386790000258259 ] } },
{ "type": "Feature", "properties": { "Nama_Pasar": "Pasar Citayam" }, "geometry": { "type": "Point", "coordinates": [ 106.799694400276394, -6.450861111251243 ] } },
{ "type": "Feature", "properties": { "Nama_Pasar": "Pasar Cigudeg" }, "geometry": { "type": "Point", "coordinates": [ 106.534880000012038, -6.548890000373149 ] } },
{ "type": "Feature", "properties": { "Nama_Pasar": "Pasar Ciseeng" }, "geometry": { "type": "Point", "coordinates": [ 106.698800000419737, -6.449430000294228 ] } },
{ "type": "Feature", "properties": { "Nama_Pasar": "Pasar Prumpung" }, "geometry": { "type": "Point", "coordinates": [ 106.681039999796212, -6.384960000403623 ] } },
{ "type": "Feature", "properties": { "Nama_Pasar": "Pasar Cikreteg" }, "geometry": { "type": "Point", "coordinates": [ 106.85111110039702, -6.696111111138805 ] } },
{ "type": "Feature", "properties": { "Nama_Pasar": "Pasar Cimayang" }, "geometry": { "type": "Point", "coordinates": [ 106.667579999617374, -6.606989999688665 ] } },
{ "type": "Feature", "properties": { "Nama_Pasar": "Pasar Nanggung" }, "geometry": { "type": "Point", "coordinates": [ 106.540079999692296, -6.605259999948998 ] } },
{ "type": "Feature", "properties": { "Nama_Pasar": "Pasar Kemang" }, "geometry": { "type": "Point", "coordinates": [ 106.750300000244863, -6.505960000053904 ] } },
{ "type": "Feature", "properties": { "Nama_Pasar": "Pasar Leuwisadeng" }, "geometry": { "type": "Point", "coordinates": [ 106.578305599623775, -6.561277778446652 ] } },
{ "type": "Feature", "properties": { "Nama_Pasar": "Pasar Tenjo" }, "geometry": { "type": "Point", "coordinates": [ 106.46355999989413, -6.328520000297715 ] } },
{ "type": "Feature", "properties": { "Nama_Pasar": "Pasar Rakyat Cijeruk" }, "geometry": { "type": "Point", "coordinates": [ 106.79030999990664, -6.686860000188801 ] } },
{ "type": "Feature", "properties": { "Nama_Pasar": "Pasar Rakyat Babakanmadang" }, "geometry": { "type": "Point", "coordinates": [ 106.876579999667285, -6.570679999782101 ] } },
{ "type": "Feature", "properties": { "Nama_Pasar": "Pasar Rakyat Tamansari" }, "geometry": { "type": "Point", "coordinates": [ 106.767279999972061, -6.644489999613768 ] } },
{ "type": "Feature", "properties": { "Nama_Pasar": "Pasar Klapanunggal" }, "geometry": { "type": "Point", "coordinates": [ 106.943159999734235, -6.449609999601762 ] } },
{ "type": "Feature", "properties": { "Nama_Pasar": "Pasar Rest Area Cisarua" }, "geometry": { "type": "Point", "coordinates": [ 106.968119999638361, -6.702050000107363 ] } },
{ "type": "Feature", "properties": { "Nama_Pasar": "Pasar Bojong Kulur" }, "geometry": { "type": "Point", "coordinates": [ 106.975439999956109, -6.322989999788604 ] } },
{ "type": "Feature", "properties": { "Nama_Pasar": "Pasar Tenjo" }, "geometry": { "type": "Point", "coordinates": [ 106.46355999989413, -6.328520000297715 ] } },
{ "type": "Feature", "properties": { "Nama_Pasar": "Pasar Batok" }, "geometry": { "type": "Point", "coordinates": [ 106.511847999985264, -6.356282999960456 ] } },
{ "type": "Feature", "properties": { "Nama_Pasar": "Pasar Gandoang" }, "geometry": { "type": "Point", "coordinates": [ 107.011520000048051, -6.412900000134869 ] } },
{ "type": "Feature", "properties": { "Nama_Pasar": "Pasar Wanaherang" }, "geometry": { "type": "Point", "coordinates": [ 106.943379999987087, -6.419759999923997 ] } },
{ "type": "Feature", "properties": { "Nama_Pasar": "Pasar Bagoang" }, "geometry": { "type": "Point", "coordinates": [ 106.456583000105411, -6.422761999866339 ] } },
{ "type": "Feature", "properties": { "Nama_Pasar": "Pasar Desa Mampir" }, "geometry": { "type": "Point", "coordinates": [ 106.999309999956608, -6.435049999957471 ] } },
{ "type": "Feature", "properties": { "Nama_Pasar": "Pasar Sawo Bojong" }, "geometry": { "type": "Point", "coordinates": [ 107.000459999929092, -6.446629999774643 ] } },
{ "type": "Feature", "properties": { "Nama_Pasar": "Pasar Cikahuripan" }, "geometry": { "type": "Point", "coordinates": [ 106.971660000108955, -6.454389999698662 ] } },
{ "type": "Feature", "properties": { "Nama_Pasar": "Pasar Nambo" }, "geometry": { "type": "Point", "coordinates": [ 106.928459999929089, -6.456390000198326 ] } },
{ "type": "Feature", "properties": { "Nama_Pasar": "Pasar Rengasjajar" }, "geometry": { "type": "Point", "coordinates": [ 106.64932000021787, -6.459074999911252 ] } },
{ "type": "Feature", "properties": { "Nama_Pasar": "Pasar Kampung Sawah" }, "geometry": { "type": "Point", "coordinates": [ 106.64932000021787, -6.459080000141853 ] } },
{ "type": "Feature", "properties": { "Nama_Pasar": "Pasar Desa Tajurhalang" }, "geometry": { "type": "Point", "coordinates": [ 106.767509999786739, -6.475720000377692 ] } },
{ "type": "Feature", "properties": { "Nama_Pasar": "Pasar Bojonggede" }, "geometry": { "type": "Point", "coordinates": [ 106.794820000142977, -6.489979999677189 ] } },
{ "type": "Feature", "properties": { "Nama_Pasar": "Pasar Cimanggis" }, "geometry": { "type": "Point", "coordinates": [ 106.775469999940583, -6.505240000125866 ] } },
{ "type": "Feature", "properties": { "Nama_Pasar": "Pasar Gobang" }, "geometry": { "type": "Point", "coordinates": [ 106.654279999622361, -6.505599999640197 ] } },
{ "type": "Feature", "properties": { "Nama_Pasar": "Pasar Desa Sukanegara" }, "geometry": { "type": "Point", "coordinates": [ 107.046379999637338, -6.518749999912529 ] } },
{ "type": "Feature", "properties": { "Nama_Pasar": "Pasar Bantarjaya" }, "geometry": { "type": "Point", "coordinates": [ 106.737179999557384, -6.536549999682677 ] } },
{ "type": "Feature", "properties": { "Nama_Pasar": "Pasar Bersih Sentul City" }, "geometry": { "type": "Point", "coordinates": [ 106.861959999954081, -6.564450000267243 ] } },
{ "type": "Feature", "properties": { "Nama_Pasar": "Pasar Babakan Madang" }, "geometry": { "type": "Point", "coordinates": [ 106.876579999667285, -6.570679999782101 ] } },
{ "type": "Feature", "properties": { "Nama_Pasar": "Pasar Desa Sukamakmur" }, "geometry": { "type": "Point", "coordinates": [ 106.993291000279498, -6.57172400026235 ] } },
{ "type": "Feature", "properties": { "Nama_Pasar": "Pasar Pamipirin" }, "geometry": { "type": "Point", "coordinates": [ 107.142690000143432, -6.57326000004889 ] } },
{ "type": "Feature", "properties": { "Nama_Pasar": "Pasar Dramaga" }, "geometry": { "type": "Point", "coordinates": [ 106.739039999896136, -6.575609999601738 ] } },
{ "type": "Feature", "properties": { "Nama_Pasar": "Pasar Desa Cikeas" }, "geometry": { "type": "Point", "coordinates": [ 106.843710000116459, -6.586769999835553 ] } },
{ "type": "Feature", "properties": { "Nama_Pasar": "Pasar Rebo" }, "geometry": { "type": "Point", "coordinates": [ 107.145010000111483, -6.594620000312716 ] } },
{ "type": "Feature", "properties": { "Nama_Pasar": "Pasar Cibitung Tengah" }, "geometry": { "type": "Point", "coordinates": [ 106.695199999880174, -6.618820000242749 ] } },
{ "type": "Feature", "properties": { "Nama_Pasar": "Pasar Sabtu" }, "geometry": { "type": "Point", "coordinates": [ 106.659910000246384, -6.621880000161809 ] } },
{ "type": "Feature", "properties": { "Nama_Pasar": "Pasar Cibeber" }, "geometry": { "type": "Point", "coordinates": [ 106.538140000160922, -6.631630000124346 ] } },
{ "type": "Feature", "properties": { "Nama_Pasar": "Pasar Senin Cibening" }, "geometry": { "type": "Point", "coordinates": [ 106.671010000411229, -6.634529999859581 ] } },
{ "type": "Feature", "properties": { "Nama_Pasar": "Pasar Selasa Desa Pamijahan" }, "geometry": { "type": "Point", "coordinates": [ 106.651789999908601, -6.644029999984468 ] } },
{ "type": "Feature", "properties": { "Nama_Pasar": "Pasar Tenjolaya" }, "geometry": { "type": "Point", "coordinates": [ 106.700570900426783, -6.660644999966735 ] } },
{ "type": "Feature", "properties": { "Nama_Pasar": "Pasar Selasa Gunung Picung" }, "geometry": { "type": "Point", "coordinates": [ 106.665559999994059, -6.6650899999035 ] } },
{ "type": "Feature", "properties": { "Nama_Pasar": "Pasar Rebo Gunung Bunder 2" }, "geometry": { "type": "Point", "coordinates": [ 106.686670000420236, -6.666270000360157 ] } },
{ "type": "Feature", "properties": { "Nama_Pasar": "Pasar Jumat Gunungsari" }, "geometry": { "type": "Point", "coordinates": [ 106.663995999815597, -6.671503999809715 ] } },
{ "type": "Feature", "properties": { "Nama_Pasar": "Pasar Senen desa Ciasmara" }, "geometry": { "type": "Point", "coordinates": [ 106.648910000196395, -6.685460000378669 ] } },
{ "type": "Feature", "properties": { "Nama_Pasar": "Pasar Sukamanah" }, "geometry": { "type": "Point", "coordinates": [ 106.901389999848675, -6.687959999654197 ] } },
{ "type": "Feature", "properties": { "Nama_Pasar": "Pasar Caringin" }, "geometry": { "type": "Point", "coordinates": [ 106.820979999627355, -6.707051999649991 ] } },
{ "type": "Feature", "properties": { "Nama_Pasar": "Pasar Rebo" }, "geometry": { "type": "Point", "coordinates": [ 106.437555600210828, -6.375305556106468 ] } },
{ "type": "Feature", "properties": { "Nama_Pasar": "Pasar Tegalega" }, "geometry": { "type": "Point", "coordinates": [ 106.597527799868146, -6.442499999974984 ] } },
{ "type": "Feature", "properties": { "Nama_Pasar": "Pasar Singasari" }, "geometry": { "type": "Point", "coordinates": [ 107.006111100447015, -6.490888888711197 ] } },
{ "type": "Feature", "properties": { "Nama_Pasar": "Pasar Tajur" }, "geometry": { "type": "Point", "coordinates": [ 106.905805600048438, -6.516555556093977 ] } },
{ "type": "Feature", "properties": { "Nama_Pasar": "Pasar Minggu" }, "geometry": { "type": "Point", "coordinates": [ 107.080611099722546, -6.577222222327634 ] } },
{ "type": "Feature", "properties": { "Nama_Pasar": "Pasar Sadengkolot" }, "geometry": { "type": "Point", "coordinates": [ 106.587750000062499, -6.583833332941936 ] } },
{ "type": "Feature", "properties": { "Nama_Pasar": "Pasar Sipayung" }, "geometry": { "type": "Point", "coordinates": [ 106.508750000112457, -6.584305556156437 ] } },
{ "type": "Feature", "properties": { "Nama_Pasar": "Pasar Harkat Jaya" }, "geometry": { "type": "Point", "coordinates": [ 106.520249999837688, -6.593805556281325 ] } },
{ "type": "Feature", "properties": { "Nama_Pasar": "Pasar Pasir Madang" }, "geometry": { "type": "Point", "coordinates": [ 106.47825000013745, -6.599527777884589 ] } },
{ "type": "Feature", "properties": { "Nama_Pasar": "Pasar Ciomas" }, "geometry": { "type": "Point", "coordinates": [ 106.767888900352546, -6.602722221952945 ] } },
{ "type": "Feature", "properties": { "Nama_Pasar": "Pasar Selasa" }, "geometry": { "type": "Point", "coordinates": [ 106.684805599698734, -6.610861110751614 ] } },
{ "type": "Feature", "properties": { "Nama_Pasar": "Pasar Sabtu" }, "geometry": { "type": "Point", "coordinates": [ 107.157861099909894, -6.61988888856132 ] } },
{ "type": "Feature", "properties": { "Nama_Pasar": "Pasar Rebo" }, "geometry": { "type": "Point", "coordinates": [ 106.563111100397009, -6.641666667082973 ] } },
{ "type": "Feature", "properties": { "Nama_Pasar": "Pasar Cipayung Girang" }, "geometry": { "type": "Point", "coordinates": [ 106.905444399939142, -6.651000000349711 ] } },
{ "type": "Feature", "properties": { "Nama_Pasar": "Pasar Puraseda" }, "geometry": { "type": "Point", "coordinates": [ 106.623472200381798, -6.653138889448144 ] } }
]
}
