{
"type": "FeatureCollection",
"name": "Prasarana_Energi",
"crs": { "type": "name", "properties": { "name": "urn:ogc:def:crs:OGC:1.3:CRS84" } },
"features": [
{ "type": "Feature", "properties": { "NAMOBJ": "Gardu Listrik", "REMARK": "GI 150 kV Ciawi", "STSJRN_res": "Eksisting" }, "geometry": { "type": "Point", "coordinates": [ 106.848658927058025, -6.657730137134943, 0.0 ] } },
{ "type": "Feature", "properties": { "NAMOBJ": "Gardu Listrik", "REMARK": "GI 150 kV Cibinong", "STSJRN_res": "Eksisting" }, "geometry": { "type": "Point", "coordinates": [ 106.913919899573543, -6.441118799592365, 0.0 ] } },
{ "type": "Feature", "properties": { "NAMOBJ": "Gardu Listrik", "REMARK": "GI 150 kV ITP", "STSJRN_res": "Eksisting" }, "geometry": { "type": "Point", "coordinates": [ 106.891141199896779, -6.484671299839881, 0.0 ] } },
{ "type": "Feature", "properties": { "NAMOBJ": "Gardu Listrik", "REMARK": "GI 150 kV Semen Baru", "STSJRN_res": "Eksisting" }, "geometry": { "type": "Point", "coordinates": [ 106.936512222847867, -6.455987904317306, 0.0 ] } },
{ "type": "Feature", "properties": { "NAMOBJ": "Gardu Listrik", "REMARK": "GI 150 kV Sentul", "STSJRN_res": "Eksisting" }, "geometry": { "type": "Point", "coordinates": [ 106.856517200397775, -6.525195700022442, 0.0 ] } },
{ "type": "Feature", "properties": { "NAMOBJ": "Gardu Listrik", "REMARK": "GI 70 kV Bunar", "STSJRN_res": "Eksisting" }, "geometry": { "type": "Point", "coordinates": [ 106.498179799554265, -6.519306399670258, 0.0 ] } },
{ "type": "Feature", "properties": { "NAMOBJ": "Gardu Listrik", "REMARK": "GI 70 kV Ciawi", "STSJRN_res": "Eksisting" }, "geometry": { "type": "Point", "coordinates": [ 106.848332321170545, -6.657684775332452, 0.0 ] } },
{ "type": "Feature", "properties": { "NAMOBJ": "Gardu Listrik", "REMARK": "GI 70 kV Cibinong", "STSJRN_res": "Eksisting" }, "geometry": { "type": "Point", "coordinates": [ 106.913826299933575, -6.439424699889865, 0.0 ] } },
{ "type": "Feature", "properties": { "NAMOBJ": "Gardu Listrik", "REMARK": "GI 70 kV Cileungsi", "STSJRN_res": "Eksisting" }, "geometry": { "type": "Point", "coordinates": [ 106.953165008744762, -6.431552750559762, 0.0 ] } },
{ "type": "Feature", "properties": { "NAMOBJ": "Gardu Listrik", "REMARK": "GI 70 kV Kracak", "STSJRN_res": "Eksisting" }, "geometry": { "type": "Point", "coordinates": [ 106.644159700204852, -6.617121299607697, 0.0 ] } },
{ "type": "Feature", "properties": { "NAMOBJ": "Gardu Listrik", "REMARK": "GI 70 kV Semen Lama", "STSJRN_res": "Eksisting" }, "geometry": { "type": "Point", "coordinates": [ 106.936386890630345, -6.457327992192313, 0.0 ] } },
{ "type": "Feature", "properties": { "NAMOBJ": "Gardu Listrik", "REMARK": "GI 70 kV Semen Baru", "STSJRN_res": "Eksisting" }, "geometry": { "type": "Point", "coordinates": [ 106.936280840775368, -6.456826664219786, 0.0 ] } },
{ "type": "Feature", "properties": { "NAMOBJ": "Gardu Listrik", "REMARK": "GIS 150 kV Gunung Salak Baru", "STSJRN_res": "Eksisting" }, "geometry": { "type": "Point", "coordinates": [ 106.648102999847268, -6.741743000440209, 0.0 ] } },
{ "type": "Feature", "properties": { "NAMOBJ": "Gardu Listrik", "REMARK": "GITET 500 kV Cibinong", "STSJRN_res": "Eksisting" }, "geometry": { "type": "Point", "coordinates": [ 106.91625140007099, -6.440310899927354, 0.0 ] } },
{ "type": "Feature", "properties": { "NAMOBJ": "Gardu Listrik", "REMARK": "GI 150 kV Bunar Baru (120 MVA No.1 dan 2)", "STSJRN_res": "Eksisting" }, "geometry": { "type": "Point", "coordinates": [ 106.504835718889183, -6.506785708095262, 0.0 ] } },
{ "type": "Feature", "properties": { "NAMOBJ": "Gardu Listrik", "REMARK": "GI 150 kV Semen Baru (100 MVA No.1)", "STSJRN_res": "Eksisting" }, "geometry": { "type": "Point", "coordinates": [ 106.936550293847873, -6.456159225167282, 0.0 ] } },
{ "type": "Feature", "properties": { "NAMOBJ": "Pembangkit Listrik Tenaga Mikro Hidro (PLTMH)", "REMARK": "PLTMH Ciwaluh", "STSJRN_res": "Eksisting" }, "geometry": { "type": "Point", "coordinates": [ 106.812534291816462, -6.755522134040024, 0.0 ] } },
{ "type": "Feature", "properties": { "NAMOBJ": "Pembangkit Listrik Tenaga Surya (PLTS)", "REMARK": "PLTS Caringin", "STSJRN_res": "Eksisting" }, "geometry": { "type": "Point", "coordinates": [ 106.879867246567187, -6.753337412792412, 0.0 ] } },
{ "type": "Feature", "properties": { "NAMOBJ": "Pembangkit Listrik Tenaga Mikro Hidro (PLTMH)", "REMARK": "PLTMH Tangkil", "STSJRN_res": "Eksisting" }, "geometry": { "type": "Point", "coordinates": [ 106.879867246567187, -6.753337412792412, 0.0 ] } },
{ "type": "Feature", "properties": { "NAMOBJ": "Pembangkit Listrik Tenaga Panas Bumi (PLTP)", "REMARK": "PLTP Gunung Salak", "STSJRN_res": "Eksisting" }, "geometry": { "type": "Point", "coordinates": [ 106.648102999847268, -6.741742999540201, 0.0 ] } },
{ "type": "Feature", "properties": { "NAMOBJ": "Pembangkit Listrik Tenaga Surya (PLTS)", "REMARK": "PLTS Caringin PT. Tirta Investama Bogor", "STSJRN_res": "Eksisting" }, "geometry": { "type": "Point", "coordinates": [ 106.840273800285757, -6.694597449612483, 0.0 ] } },
{ "type": "Feature", "properties": { "NAMOBJ": "Pembangkit Listrik Tenaga Mikro Hidro (PLTMH)", "REMARK": "PLTMH Pamijahan", "STSJRN_res": "Rencana" }, "geometry": { "type": "Point", "coordinates": [ 106.639221173912432, -6.682962470642703, 0.0 ] } },
{ "type": "Feature", "properties": { "NAMOBJ": "Pembangkit Listrik Tenaga Mikro Hidro (PLTMH)", "REMARK": "PLTMH Sukajaya", "STSJRN_res": "Rencana" }, "geometry": { "type": "Point", "coordinates": [ 106.499392660339268, -6.675306009665299, 0.0 ] } },
{ "type": "Feature", "properties": { "NAMOBJ": "Pembangkit Listrik Tenaga Mikro Hidro (PLTMH)", "REMARK": "PLTMH Pamijahan", "STSJRN_res": "Rencana" }, "geometry": { "type": "Point", "coordinates": [ 106.631659870202526, -6.66681991420772, 0.0 ] } },
{ "type": "Feature", "properties": { "NAMOBJ": "Pembangkit Listrik Tenaga Mikro Hidro (PLTMH)", "REMARK": "PLTMH Citugu", "STSJRN_res": "Eksisting" }, "geometry": { "type": "Point", "coordinates": [ 106.600727974413005, -6.662268938160252, 0.0 ] } },
{ "type": "Feature", "properties": { "NAMOBJ": "Pembangkit Listrik Tenaga Diesel (PLTD)", "REMARK": "UPDL Megamendung", "STSJRN_res": "Eksisting" }, "geometry": { "type": "Point", "coordinates": [ 106.87440567996731, -6.657217140457385, 0.0 ] } },
{ "type": "Feature", "properties": { "NAMOBJ": "Pembangkit Listrik Tenaga Mikro Hidro (PLTMH)", "REMARK": "PLTMH Cisarua", "STSJRN_res": "Eksisting" }, "geometry": { "type": "Point", "coordinates": [ 106.911797564293735, -6.654687669347319, 0.0 ] } },
{ "type": "Feature", "properties": { "NAMOBJ": "Pembangkit Listrik Tenaga Mikro Hidro (PLTMH)", "REMARK": "PLTMH Paseban", "STSJRN_res": "Eksisting" }, "geometry": { "type": "Point", "coordinates": [ 106.952570310459905, -6.649088113624745, 0.0 ] } },
{ "type": "Feature", "properties": { "NAMOBJ": "Pembangkit Listrik Tenaga Mikro Hidro (PLTMH)", "REMARK": "PLTMH Nanggung", "STSJRN_res": "Rencana" }, "geometry": { "type": "Point", "coordinates": [ 106.565744863030957, -6.642203729617752, 0.0 ] } },
{ "type": "Feature", "properties": { "NAMOBJ": "Infrastruktur Minyak dan Gas Bumi", "REMARK": "RS berlokasi di Kantor Desa Cibanon", "STSJRN_res": "Eksisting" }, "geometry": { "type": "Point", "coordinates": [ 106.839400000100781, -6.62869999990497, 0.0 ] } },
{ "type": "Feature", "properties": { "NAMOBJ": "Infrastruktur Minyak dan Gas Bumi", "REMARK": "RS berlokasi di Kantor Desa Sukatani", "STSJRN_res": "Eksisting" }, "geometry": { "type": "Point", "coordinates": [ 106.838000000290776, -6.616799999719984, 0.0 ] } },
{ "type": "Feature", "properties": { "NAMOBJ": "Pembangkit Listrik Tenaga Air (PLTA)", "REMARK": "PLTA Karacak", "STSJRN_res": "Eksisting" }, "geometry": { "type": "Point", "coordinates": [ 106.643896179059809, -6.616620407805182, 0.0 ] } },
{ "type": "Feature", "properties": { "NAMOBJ": "Infrastruktur Minyak dan Gas Bumi", "REMARK": "RS berlokasi di SD Nagrak 02", "STSJRN_res": "Eksisting" }, "geometry": { "type": "Point", "coordinates": [ 106.853900000575365, -6.615199999679937, 0.0 ] } },
{ "type": "Feature", "properties": { "NAMOBJ": "Pembangkit Listrik Tenaga Mikro Hidro (PLTMH)", "REMARK": "PLTMH Nanggung", "STSJRN_res": "Rencana" }, "geometry": { "type": "Point", "coordinates": [ 106.544866951543725, -6.613974645512755, 0.0 ] } },
{ "type": "Feature", "properties": { "NAMOBJ": "Infrastruktur Minyak dan Gas Bumi", "REMARK": "RS berlokasi di SDN Sukaraja 02", "STSJRN_res": "Eksisting" }, "geometry": { "type": "Point", "coordinates": [ 106.836899999925805, -6.610899999234994, 0.0 ] } },
{ "type": "Feature", "properties": { "NAMOBJ": "Infrastruktur Minyak dan Gas Bumi", "REMARK": "RS berlokasi di Kantor Desa Cijayanti", "STSJRN_res": "Eksisting" }, "geometry": { "type": "Point", "coordinates": [ 106.873999999389795, -6.607700000054902, 0.0 ] } },
{ "type": "Feature", "properties": { "NAMOBJ": "Infrastruktur Minyak dan Gas Bumi", "REMARK": "RS berlokasi di Kantor Desa Nagrak", "STSJRN_res": "Eksisting" }, "geometry": { "type": "Point", "coordinates": [ 106.849299999785487, -6.60749999982496, 0.0 ] } },
{ "type": "Feature", "properties": { "NAMOBJ": "Infrastruktur Minyak dan Gas Bumi", "REMARK": "RS berlokasi di SD Nagrak 01", "STSJRN_res": "Eksisting" }, "geometry": { "type": "Point", "coordinates": [ 106.847099999955546, -6.605399999209979, 0.0 ] } },
{ "type": "Feature", "properties": { "NAMOBJ": "Pembangkit Listrik Tenaga Surya (PLTS)", "REMARK": "PLTS Babakan Madang", "STSJRN_res": "Eksisting" }, "geometry": { "type": "Point", "coordinates": [ 106.938188433237855, -6.599446087067313, 0.0 ] } },
{ "type": "Feature", "properties": { "NAMOBJ": "Infrastruktur Minyak dan Gas Bumi", "REMARK": "RS berlokasi di SDN Cijayanti 01", "STSJRN_res": "Eksisting" }, "geometry": { "type": "Point", "coordinates": [ 106.864500000165066, -6.59419999982992, 0.0 ] } },
{ "type": "Feature", "properties": { "NAMOBJ": "Pembangkit Listrik Tenaga Mikro Hidro (PLTMH)", "REMARK": "PLTMH Ciear", "STSJRN_res": "Eksisting" }, "geometry": { "type": "Point", "coordinates": [ 106.442497916242331, -6.592965366457824, 0.0 ] } },
{ "type": "Feature", "properties": { "NAMOBJ": "Infrastruktur Minyak dan Gas Bumi", "REMARK": "RS berlokasi di Kantor Desa Sukaraja", "STSJRN_res": "Eksisting" }, "geometry": { "type": "Point", "coordinates": [ 106.839099999755732, -6.591599999539967, 0.0 ] } },
{ "type": "Feature", "properties": { "NAMOBJ": "Infrastruktur Minyak dan Gas Bumi", "REMARK": "RS berlokasi di Kantor Desa Cikeas", "STSJRN_res": "Eksisting" }, "geometry": { "type": "Point", "coordinates": [ 106.843899999875646, -6.587699999554991, 0.0 ] } },
{ "type": "Feature", "properties": { "NAMOBJ": "Infrastruktur Minyak dan Gas Bumi", "REMARK": "RS berlokasi di SDN Cikeas 03", "STSJRN_res": "Eksisting" }, "geometry": { "type": "Point", "coordinates": [ 106.850099999805437, -6.585900000184969, 0.0 ] } },
{ "type": "Feature", "properties": { "NAMOBJ": "Infrastruktur Minyak dan Gas Bumi", "REMARK": "RS berlokasi di Sentul City", "STSJRN_res": "Eksisting" }, "geometry": { "type": "Point", "coordinates": [ 106.867199999670007, -6.583199999779923, 0.0 ] } },
{ "type": "Feature", "properties": { "NAMOBJ": "Infrastruktur Minyak dan Gas Bumi", "REMARK": "RS berlokasi di Green valley", "STSJRN_res": "Eksisting" }, "geometry": { "type": "Point", "coordinates": [ 106.856999999640252, -6.582900000334928, 0.0 ] } },
{ "type": "Feature", "properties": { "NAMOBJ": "Infrastruktur Minyak dan Gas Bumi", "REMARK": "RS berlokasi di Kantor Desa Cadas Ngampar", "STSJRN_res": "Eksisting" }, "geometry": { "type": "Point", "coordinates": [ 106.839400000100753, -6.577300000194982, 0.0 ] } },
{ "type": "Feature", "properties": { "NAMOBJ": "Infrastruktur Minyak dan Gas Bumi", "REMARK": "RS berlokasi di Kantor Desa Sumur Batu", "STSJRN_res": "Eksisting" }, "geometry": { "type": "Point", "coordinates": [ 106.883099999954538, -6.574599999789906, 0.0 ] } },
{ "type": "Feature", "properties": { "NAMOBJ": "Infrastruktur Minyak dan Gas Bumi", "REMARK": "RS berlokasi di Grand Sentul City", "STSJRN_res": "Eksisting" }, "geometry": { "type": "Point", "coordinates": [ 106.839600000330748, -6.571899999384966, 0.0 ] } },
{ "type": "Feature", "properties": { "NAMOBJ": "Infrastruktur Minyak dan Gas Bumi", "REMARK": "RS berlokasi di Kantor Kecamatan Babakan Madang", "STSJRN_res": "Eksisting" }, "geometry": { "type": "Point", "coordinates": [ 106.865099999955078, -6.571299999594925, 0.0 ] } },
{ "type": "Feature", "properties": { "NAMOBJ": "Infrastruktur Minyak dan Gas Bumi", "REMARK": "RS berlokasi di SMPN 1 Babakan Madang", "STSJRN_res": "Eksisting" }, "geometry": { "type": "Point", "coordinates": [ 106.868400000149975, -6.565500000124921, 0.0 ] } },
{ "type": "Feature", "properties": { "NAMOBJ": "Infrastruktur Minyak dan Gas Bumi", "REMARK": "RS berlokasi di Kantor Desa Babakan Madang", "STSJRN_res": "Eksisting" }, "geometry": { "type": "Point", "coordinates": [ 106.867099999555023, -6.564299999644952, 0.0 ] } },
{ "type": "Feature", "properties": { "NAMOBJ": "Infrastruktur Minyak dan Gas Bumi", "REMARK": "RS berlokasi di SDN Citarunggul 02", "STSJRN_res": "Eksisting" }, "geometry": { "type": "Point", "coordinates": [ 106.857600000330294, -6.561500000024933, 0.0 ] } },
{ "type": "Feature", "properties": { "NAMOBJ": "Infrastruktur Minyak dan Gas Bumi", "REMARK": "RS berlokasi di Masjid Jami Nurul Iman", "STSJRN_res": "Eksisting" }, "geometry": { "type": "Point", "coordinates": [ 106.834199999520848, -6.560700000004985, 0.0 ] } },
{ "type": "Feature", "properties": { "NAMOBJ": "Infrastruktur Minyak dan Gas Bumi", "REMARK": "RS berlokasi di Kantor Desa Cipambuan", "STSJRN_res": "Eksisting" }, "geometry": { "type": "Point", "coordinates": [ 106.849500000015453, -6.558299999944963, 0.0 ] } },
{ "type": "Feature", "properties": { "NAMOBJ": "Infrastruktur Minyak dan Gas Bumi", "REMARK": "RS berlokasi di Kantor Desa Citarunggul", "STSJRN_res": "Eksisting" }, "geometry": { "type": "Point", "coordinates": [ 106.85539999960028, -6.557999999599936, 0.0 ] } },
{ "type": "Feature", "properties": { "NAMOBJ": "Infrastruktur Minyak dan Gas Bumi", "REMARK": "RS berlokasi di SDN Kadungmanggu 02", "STSJRN_res": "Eksisting" }, "geometry": { "type": "Point", "coordinates": [ 106.857499999315266, -6.553699999154954, 0.0 ] } },
{ "type": "Feature", "properties": { "NAMOBJ": "Infrastruktur Minyak dan Gas Bumi", "REMARK": "RS berlokasi di SDN Pasirlaja 01", "STSJRN_res": "Eksisting" }, "geometry": { "type": "Point", "coordinates": [ 106.837400000500779, -6.548299999244967, 0.0 ] } },
{ "type": "Feature", "properties": { "NAMOBJ": "Infrastruktur Minyak dan Gas Bumi", "REMARK": "RS berlokasi di Permata Bogor Residence", "STSJRN_res": "Eksisting" }, "geometry": { "type": "Point", "coordinates": [ 106.798799999311754, -6.54450000027501, 0.0 ] } },
{ "type": "Feature", "properties": { "NAMOBJ": "Infrastruktur Minyak dan Gas Bumi", "REMARK": "RS berlokasi di SDN Kadungmanggu 05", "STSJRN_res": "Eksisting" }, "geometry": { "type": "Point", "coordinates": [ 106.857999999890239, -6.543899999584945, 0.0 ] } },
{ "type": "Feature", "properties": { "NAMOBJ": "Infrastruktur Minyak dan Gas Bumi", "REMARK": "RS berlokasi di SDN Kadungmanggu 06", "STSJRN_res": "Eksisting" }, "geometry": { "type": "Point", "coordinates": [ 106.845600000030572, -6.543500000024969, 0.0 ] } },
{ "type": "Feature", "properties": { "NAMOBJ": "Infrastruktur Minyak dan Gas Bumi", "REMARK": "RS berlokasi di Vila Bogor Indah 5", "STSJRN_res": "Eksisting" }, "geometry": { "type": "Point", "coordinates": [ 106.809700000146449, -6.543100000465034, 0.0 ] } },
{ "type": "Feature", "properties": { "NAMOBJ": "Infrastruktur Minyak dan Gas Bumi", "REMARK": "RS berlokasi di Kantor Desa Cijujung", "STSJRN_res": "Eksisting" }, "geometry": { "type": "Point", "coordinates": [ 106.832999999940895, -6.54279999921998, 0.0 ] } },
{ "type": "Feature", "properties": { "NAMOBJ": "Infrastruktur Minyak dan Gas Bumi", "REMARK": "RS berlokasi di SDN Kadungmanggu 01", "STSJRN_res": "Eksisting" }, "geometry": { "type": "Point", "coordinates": [ 106.853199999770325, -6.542499999774939, 0.0 ] } },
{ "type": "Feature", "properties": { "NAMOBJ": "Infrastruktur Minyak dan Gas Bumi", "REMARK": "RS berlokasi di Kantor Desa Cimandala", "STSJRN_res": "Eksisting" }, "geometry": { "type": "Point", "coordinates": [ 106.82389999937611, -6.541099999965021, 0.0 ] } },
{ "type": "Feature", "properties": { "NAMOBJ": "Infrastruktur Minyak dan Gas Bumi", "REMARK": "RS berlokasi di Cilebut Residence", "STSJRN_res": "Eksisting" }, "geometry": { "type": "Point", "coordinates": [ 106.797699999846785, -6.539199999580012, 0.0 ] } },
{ "type": "Feature", "properties": { "NAMOBJ": "Infrastruktur Minyak dan Gas Bumi", "REMARK": "RS berlokasi di Masjid Arrahman Jl. Mandala", "STSJRN_res": "Eksisting" }, "geometry": { "type": "Point", "coordinates": [ 106.8201000004062, -6.538699999905026, 0.0 ] } },
{ "type": "Feature", "properties": { "NAMOBJ": "Infrastruktur Minyak dan Gas Bumi", "REMARK": "RS berlokasi di Kantor Desa Pasirjambu", "STSJRN_res": "Eksisting" }, "geometry": { "type": "Point", "coordinates": [ 106.814499999366376, -6.537400000210038, 0.0 ] } },
{ "type": "Feature", "properties": { "NAMOBJ": "Infrastruktur Minyak dan Gas Bumi", "REMARK": "RS berlokasi di SDN Cijujung Tengah", "STSJRN_res": "Eksisting" }, "geometry": { "type": "Point", "coordinates": [ 106.833700000745893, -6.536199999729989, 0.0 ] } },
{ "type": "Feature", "properties": { "NAMOBJ": "Infrastruktur Minyak dan Gas Bumi", "REMARK": "RS berlokasi di Masjid Ahlul Khoir JL. Bumi Pertiwi Raya", "STSJRN_res": "Eksisting" }, "geometry": { "type": "Point", "coordinates": [ 106.801800000061661, -6.535700000055013, 0.0 ] } },
{ "type": "Feature", "properties": { "NAMOBJ": "Infrastruktur Minyak dan Gas Bumi", "REMARK": "RS berlokasi di Puskesmas Cimandala", "STSJRN_res": "Eksisting" }, "geometry": { "type": "Point", "coordinates": [ 106.828800000510995, -6.533299999994992, 0.0 ] } },
{ "type": "Feature", "properties": { "NAMOBJ": "Infrastruktur Minyak dan Gas Bumi", "REMARK": "RS berlokasi di SDN Cijujung 03", "STSJRN_res": "Eksisting" }, "geometry": { "type": "Point", "coordinates": [ 106.838600000080774, -6.532899999534985, 0.0 ] } },
{ "type": "Feature", "properties": { "NAMOBJ": "Infrastruktur Minyak dan Gas Bumi", "REMARK": "RS berlokasi di SDN Kedung Halang 03", "STSJRN_res": "Eksisting" }, "geometry": { "type": "Point", "coordinates": [ 106.810599999381438, -6.532499999075037, 0.0 ] } },
{ "type": "Feature", "properties": { "NAMOBJ": "Infrastruktur Minyak dan Gas Bumi", "REMARK": "RS berlokasi di SDN Cilebut 01", "STSJRN_res": "Eksisting" }, "geometry": { "type": "Point", "coordinates": [ 106.796500000266789, -6.531400000510052, 0.0 ] } },
{ "type": "Feature", "properties": { "NAMOBJ": "Infrastruktur Minyak dan Gas Bumi", "REMARK": "RS berlokasi di Kantor Desa Cilebut Barat", "STSJRN_res": "Eksisting" }, "geometry": { "type": "Point", "coordinates": [ 106.799500000116751, -6.530799999820005, 0.0 ] } },
{ "type": "Feature", "properties": { "NAMOBJ": "Infrastruktur Minyak dan Gas Bumi", "REMARK": "RS berlokasi di SDN Cantang Jaya", "STSJRN_res": "Eksisting" }, "geometry": { "type": "Point", "coordinates": [ 106.820600000081214, -6.530700000605009, 0.0 ] } },
{ "type": "Feature", "properties": { "NAMOBJ": "Infrastruktur Minyak dan Gas Bumi", "REMARK": "RS berlokasi di Masjid Jami Baiturrahman Jl Tatya Asri Utama", "STSJRN_res": "Eksisting" }, "geometry": { "type": "Point", "coordinates": [ 106.840399999450682, -6.530599999589956, 0.0 ] } },
{ "type": "Feature", "properties": { "NAMOBJ": "Infrastruktur Minyak dan Gas Bumi", "REMARK": "RSI berlokasi di Kantor Samsat Cibinong", "STSJRN_res": "Eksisting" }, "geometry": { "type": "Point", "coordinates": [ 106.828600000281014, -6.529399999110012, 0.0 ] } },
{ "type": "Feature", "properties": { "NAMOBJ": "Infrastruktur Minyak dan Gas Bumi", "REMARK": "RS berlokasi di Samsat Cibinong", "STSJRN_res": "Eksisting" }, "geometry": { "type": "Point", "coordinates": [ 106.828699999495967, -6.529299999894987, 0.0 ] } },
{ "type": "Feature", "properties": { "NAMOBJ": "Infrastruktur Minyak dan Gas Bumi", "REMARK": "RS berlokasi di Masjid Al Furqon Jl. Durian Raya", "STSJRN_res": "Eksisting" }, "geometry": { "type": "Point", "coordinates": [ 106.803600000331613, -6.529199999780041, 0.0 ] } },
{ "type": "Feature", "properties": { "NAMOBJ": "Infrastruktur Minyak dan Gas Bumi", "REMARK": "RS berlokasi di Masjid Al Ikhlas Jl Pahlawan", "STSJRN_res": "Eksisting" }, "geometry": { "type": "Point", "coordinates": [ 106.855399999600266, -6.528399999759933, 0.0 ] } },
{ "type": "Feature", "properties": { "NAMOBJ": "Infrastruktur Minyak dan Gas Bumi", "REMARK": "RS berlokasi di Kantor Desa Cilebut Timur", "STSJRN_res": "Eksisting" }, "geometry": { "type": "Point", "coordinates": [ 106.803499999316642, -6.526699999605024, 0.0 ] } },
{ "type": "Feature", "properties": { "NAMOBJ": "Infrastruktur Minyak dan Gas Bumi", "REMARK": "RS berlokasi di Masjid Asy Syifa Perum RSCM Griya Cilebut Asri", "STSJRN_res": "Eksisting" }, "geometry": { "type": "Point", "coordinates": [ 106.796999999941789, -6.525399999010041, 0.0 ] } },
{ "type": "Feature", "properties": { "NAMOBJ": "Infrastruktur Minyak dan Gas Bumi", "REMARK": "RS berlokasi di SDN Sentul 01", "STSJRN_res": "Eksisting" }, "geometry": { "type": "Point", "coordinates": [ 106.857600000330265, -6.525299998894935, 0.0 ] } },
{ "type": "Feature", "properties": { "NAMOBJ": "Infrastruktur Minyak dan Gas Bumi", "REMARK": "RS berlokasi di SDN Cimandala 01", "STSJRN_res": "Eksisting" }, "geometry": { "type": "Point", "coordinates": [ 106.820399999851219, -6.525000000350021, 0.0 ] } },
{ "type": "Feature", "properties": { "NAMOBJ": "Infrastruktur Minyak dan Gas Bumi", "REMARK": "RS berlokasi di SDN Cimandala 03", "STSJRN_res": "Eksisting" }, "geometry": { "type": "Point", "coordinates": [ 106.826599999781067, -6.523499999524971, 0.0 ] } },
{ "type": "Feature", "properties": { "NAMOBJ": "Infrastruktur Minyak dan Gas Bumi", "REMARK": "RS berlokasi di Masjid Jami Al Barokah Jl. Bojong Sempu", "STSJRN_res": "Eksisting" }, "geometry": { "type": "Point", "coordinates": [ 106.794800000111834, -6.52200000050003, 0.0 ] } },
{ "type": "Feature", "properties": { "NAMOBJ": "Infrastruktur Minyak dan Gas Bumi", "REMARK": "RS berlokasi di Masjid Al Anwar Jl Surya Raya Olimpic", "STSJRN_res": "Eksisting" }, "geometry": { "type": "Point", "coordinates": [ 106.856299999735242, -6.522000000499939, 0.0 ] } },
{ "type": "Feature", "properties": { "NAMOBJ": "Infrastruktur Minyak dan Gas Bumi", "REMARK": "RS berlokasi di Kantor Desa Sentul", "STSJRN_res": "Eksisting" }, "geometry": { "type": "Point", "coordinates": [ 106.848599999880449, -6.521600000039965, 0.0 ] } },
{ "type": "Feature", "properties": { "NAMOBJ": "Infrastruktur Minyak dan Gas Bumi", "REMARK": "RS berlokasi di SDN Patahunan 01", "STSJRN_res": "Eksisting" }, "geometry": { "type": "Point", "coordinates": [ 106.80169999904669, -6.520699999905028, 0.0 ] } },
{ "type": "Feature", "properties": { "NAMOBJ": "Infrastruktur Minyak dan Gas Bumi", "REMARK": "RS berlokasi di Mutiara Sentul", "STSJRN_res": "Eksisting" }, "geometry": { "type": "Point", "coordinates": [ 106.840100000005719, -6.52039999956, 0.0 ] } },
{ "type": "Feature", "properties": { "NAMOBJ": "Infrastruktur Minyak dan Gas Bumi", "REMARK": "RS berlokasi di Kantor Desa Tajur", "STSJRN_res": "Eksisting" }, "geometry": { "type": "Point", "coordinates": [ 106.909800000058723, -6.518699999404845, 0.0 ] } },
{ "type": "Feature", "properties": { "NAMOBJ": "Infrastruktur Minyak dan Gas Bumi", "REMARK": "RS berlokasi di Kantor Desa Tajur", "STSJRN_res": "Eksisting" }, "geometry": { "type": "Point", "coordinates": [ 106.909800000058723, -6.518699999404845, 0.0 ] } },
{ "type": "Feature", "properties": { "NAMOBJ": "Infrastruktur Minyak dan Gas Bumi", "REMARK": "RS berlokasi di Masjid Bumi Sentosa 2", "STSJRN_res": "Eksisting" }, "geometry": { "type": "Point", "coordinates": [ 106.827200000471024, -6.518399999960029, 0.0 ] } },
{ "type": "Feature", "properties": { "NAMOBJ": "Pembangkit Listrik Tenaga Surya (PLTS)", "REMARK": "PLTS Klapanunggal", "STSJRN_res": "Eksisting" }, "geometry": { "type": "Point", "coordinates": [ 106.94144476415272, -6.516745464132278, 0.0 ] } },
{ "type": "Feature", "properties": { "NAMOBJ": "Infrastruktur Minyak dan Gas Bumi", "REMARK": "RS berlokasi di Kantor Desa Leuwinutug", "STSJRN_res": "Eksisting" }, "geometry": { "type": "Point", "coordinates": [ 106.863700000145073, -6.516300000244938, 0.0 ] } },
{ "type": "Feature", "properties": { "NAMOBJ": "Infrastruktur Minyak dan Gas Bumi", "REMARK": "RS berlokasi di Masjid As Shidiq Bumi Rancamanyar", "STSJRN_res": "Eksisting" }, "geometry": { "type": "Point", "coordinates": [ 106.886899999824422, -6.516300000244888, 0.0 ] } },
{ "type": "Feature", "properties": { "NAMOBJ": "Infrastruktur Minyak dan Gas Bumi", "REMARK": "RS berlokasi di SDN Sentul 03", "STSJRN_res": "Eksisting" }, "geometry": { "type": "Point", "coordinates": [ 106.846999999840548, -6.516100000014964, 0.0 ] } },
{ "type": "Feature", "properties": { "NAMOBJ": "Infrastruktur Minyak dan Gas Bumi", "REMARK": "RS berlokasi di SDN Cilebut 03", "STSJRN_res": "Eksisting" }, "geometry": { "type": "Point", "coordinates": [ 106.793699999746849, -6.515400000110031, 0.0 ] } },
{ "type": "Feature", "properties": { "NAMOBJ": "Infrastruktur Minyak dan Gas Bumi", "REMARK": "RS berlokasi di Masjid Al Hidayah Tajur", "STSJRN_res": "Eksisting" }, "geometry": { "type": "Point", "coordinates": [ 106.90370000024393, -6.515199999879862, 0.0 ] } },
{ "type": "Feature", "properties": { "NAMOBJ": "Infrastruktur Minyak dan Gas Bumi", "REMARK": "RS berlokasi di Kantor Kelurahan Nanggewer", "STSJRN_res": "Eksisting" }, "geometry": { "type": "Point", "coordinates": [ 106.828999999840988, -6.515000000550003, 0.0 ] } },
{ "type": "Feature", "properties": { "NAMOBJ": "Infrastruktur Minyak dan Gas Bumi", "REMARK": "RS berlokasi di SD Sukahati 03", "STSJRN_res": "Eksisting" }, "geometry": { "type": "Point", "coordinates": [ 106.890169999534294, -6.513999999399918, 0.0 ] } },
{ "type": "Feature", "properties": { "NAMOBJ": "Infrastruktur Minyak dan Gas Bumi", "REMARK": "RS berlokasi di Perumahan Bogor Asri", "STSJRN_res": "Eksisting" }, "geometry": { "type": "Point", "coordinates": [ 106.822399999451164, -6.512999999149995, 0.0 ] } },
{ "type": "Feature", "properties": { "NAMOBJ": "Infrastruktur Minyak dan Gas Bumi", "REMARK": "RS berlokasi di Masjid Al Fudhola", "STSJRN_res": "Eksisting" }, "geometry": { "type": "Point", "coordinates": [ 106.832199999920931, -6.51279999981999, 0.0 ] } },
{ "type": "Feature", "properties": { "NAMOBJ": "Infrastruktur Minyak dan Gas Bumi", "REMARK": "RS berlokasi di SDN Leuwinutug 05", "STSJRN_res": "Eksisting" }, "geometry": { "type": "Point", "coordinates": [ 106.859000000140185, -6.512099999014938, 0.0 ] } },
{ "type": "Feature", "properties": { "NAMOBJ": "Infrastruktur Minyak dan Gas Bumi", "REMARK": "RS berlokasi di Kantor Desa Pasir Mukti", "STSJRN_res": "Eksisting" }, "geometry": { "type": "Point", "coordinates": [ 106.899100000354068, -6.511699999454877, 0.0 ] } },
{ "type": "Feature", "properties": { "NAMOBJ": "Infrastruktur Minyak dan Gas Bumi", "REMARK": "RS berlokasi di SMAN 3 Cibinong", "STSJRN_res": "Eksisting" }, "geometry": { "type": "Point", "coordinates": [ 106.82279999991114, -6.51109999966503, 0.0 ] } },
{ "type": "Feature", "properties": { "NAMOBJ": "Infrastruktur Minyak dan Gas Bumi", "REMARK": "RS berlokasi di SDN Hambalang 05", "STSJRN_res": "Eksisting" }, "geometry": { "type": "Point", "coordinates": [ 106.867099999554995, -6.511099999664957, 0.0 ] } },
{ "type": "Feature", "properties": { "NAMOBJ": "Infrastruktur Minyak dan Gas Bumi", "REMARK": "RS berlokasi di Kantor Desa Cimanggis", "STSJRN_res": "Eksisting" }, "geometry": { "type": "Point", "coordinates": [ 106.773899999477337, -6.510900000335096, 0.0 ] } },
{ "type": "Feature", "properties": { "NAMOBJ": "Infrastruktur Minyak dan Gas Bumi", "REMARK": "RS berlokasi di SDN Kedung Waringin 02", "STSJRN_res": "Eksisting" }, "geometry": { "type": "Point", "coordinates": [ 106.789799999761968, -6.510900000335079, 0.0 ] } },
{ "type": "Feature", "properties": { "NAMOBJ": "Infrastruktur Minyak dan Gas Bumi", "REMARK": "RS berlokasi di SDN Kandang Roda", "STSJRN_res": "Eksisting" }, "geometry": { "type": "Point", "coordinates": [ 106.845499999915546, -6.510499998974939, 0.0 ] } },
{ "type": "Feature", "properties": { "NAMOBJ": "Infrastruktur Minyak dan Gas Bumi", "REMARK": "RS berlokasi di Kantor Desa Waringin Jaya", "STSJRN_res": "Eksisting" }, "geometry": { "type": "Point", "coordinates": [ 106.79440000055186, -6.510100000315029, 0.0 ] } },
{ "type": "Feature", "properties": { "NAMOBJ": "Infrastruktur Minyak dan Gas Bumi", "REMARK": "RS berlokasi di Masjid Al Muslih", "STSJRN_res": "Eksisting" }, "geometry": { "type": "Point", "coordinates": [ 106.897500000314096, -6.509499999624876, 0.0 ] } },
{ "type": "Feature", "properties": { "NAMOBJ": "Infrastruktur Minyak dan Gas Bumi", "REMARK": "RS berlokasi di SDN Sukahati 01", "STSJRN_res": "Eksisting" }, "geometry": { "type": "Point", "coordinates": [ 106.880699999894588, -6.507799999469931, 0.0 ] } },
{ "type": "Feature", "properties": { "NAMOBJ": "Infrastruktur Minyak dan Gas Bumi", "REMARK": "RS berlokasi di Komplek Ambar Waringin Elok", "STSJRN_res": "Eksisting" }, "geometry": { "type": "Point", "coordinates": [ 106.787300000487008, -6.507599999240082, 0.0 ] } },
{ "type": "Feature", "properties": { "NAMOBJ": "Infrastruktur Minyak dan Gas Bumi", "REMARK": "RS berlokasi di SDN Dukuh", "STSJRN_res": "Eksisting" }, "geometry": { "type": "Point", "coordinates": [ 106.896399999949125, -6.507000000349876, 0.0 ] } },
{ "type": "Feature", "properties": { "NAMOBJ": "Infrastruktur Minyak dan Gas Bumi", "REMARK": "RS berlokasi di Masjid Al Ikhwan", "STSJRN_res": "Eksisting" }, "geometry": { "type": "Point", "coordinates": [ 106.8210999997562, -6.506599999890012, 0.0 ] } },
{ "type": "Feature", "properties": { "NAMOBJ": "Infrastruktur Minyak dan Gas Bumi", "REMARK": "RS berlokasi di Masjid Al Ikhwan", "STSJRN_res": "Eksisting" }, "geometry": { "type": "Point", "coordinates": [ 106.8210999997562, -6.506499999774975, 0.0 ] } },
{ "type": "Feature", "properties": { "NAMOBJ": "Infrastruktur Minyak dan Gas Bumi", "REMARK": "RS berlokasi di Puskesmas Kemuning", "STSJRN_res": "Eksisting" }, "geometry": { "type": "Point", "coordinates": [ 106.775399999402282, -6.505699999755064, 0.0 ] } },
{ "type": "Feature", "properties": { "NAMOBJ": "Infrastruktur Minyak dan Gas Bumi", "REMARK": "RS berlokasi di Gedung Arsip Kementerian PU Kintaka", "STSJRN_res": "Eksisting" }, "geometry": { "type": "Point", "coordinates": [ 106.869499999614931, -6.504099999714902, 0.0 ] } },
{ "type": "Feature", "properties": { "NAMOBJ": "Infrastruktur Minyak dan Gas Bumi", "REMARK": "RS berlokasi di Masjid Al Fattah Puri Harmoni", "STSJRN_res": "Eksisting" }, "geometry": { "type": "Point", "coordinates": [ 106.906700000093807, -6.50329999969486, 0.0 ] } },
{ "type": "Feature", "properties": { "NAMOBJ": "Infrastruktur Minyak dan Gas Bumi", "REMARK": "RS berlokasi di Kantor Kelurahan Nanggewer Mekar", "STSJRN_res": "Eksisting" }, "geometry": { "type": "Point", "coordinates": [ 106.84309999985561, -6.502900000134984, 0.0 ] } },
{ "type": "Feature", "properties": { "NAMOBJ": "Infrastruktur Minyak dan Gas Bumi", "REMARK": "RS berlokasi di SDN Tarikolot 06", "STSJRN_res": "Eksisting" }, "geometry": { "type": "Point", "coordinates": [ 106.881700000144534, -6.502699999004926, 0.0 ] } },
{ "type": "Feature", "properties": { "NAMOBJ": "Infrastruktur Minyak dan Gas Bumi", "REMARK": "RS berlokasi di SDN Tarikolot 05", "STSJRN_res": "Eksisting" }, "geometry": { "type": "Point", "coordinates": [ 106.890299999234273, -6.502699999004902, 0.0 ] } },
{ "type": "Feature", "properties": { "NAMOBJ": "Infrastruktur Minyak dan Gas Bumi", "REMARK": "RS berlokasi di Kantor Desa Sanja", "STSJRN_res": "Eksisting" }, "geometry": { "type": "Point", "coordinates": [ 106.868199999919966, -6.501899999884906, 0.0 ] } },
{ "type": "Feature", "properties": { "NAMOBJ": "Infrastruktur Minyak dan Gas Bumi", "REMARK": "RS berlokasi di Billabong Permai", "STSJRN_res": "Eksisting" }, "geometry": { "type": "Point", "coordinates": [ 106.769800000162391, -6.500399999960079, 0.0 ] } },
{ "type": "Feature", "properties": { "NAMOBJ": "Infrastruktur Minyak dan Gas Bumi", "REMARK": "RS berlokasi di SMPN 1 Bojonggede", "STSJRN_res": "Eksisting" }, "geometry": { "type": "Point", "coordinates": [ 106.787700000046982, -6.500399999960046, 0.0 ] } },
{ "type": "Feature", "properties": { "NAMOBJ": "Infrastruktur Minyak dan Gas Bumi", "REMARK": "RS berlokasi di SDN Leuwinutug 04", "STSJRN_res": "Eksisting" }, "geometry": { "type": "Point", "coordinates": [ 106.861599999530085, -6.500299999844967, 0.0 ] } },
{ "type": "Feature", "properties": { "NAMOBJ": "Infrastruktur Minyak dan Gas Bumi", "REMARK": "RS berlokasi di Masjid Jami Nurul Huda", "STSJRN_res": "Eksisting" }, "geometry": { "type": "Point", "coordinates": [ 106.792999999841854, -6.500099999615027, 0.0 ] } },
{ "type": "Feature", "properties": { "NAMOBJ": "Infrastruktur Minyak dan Gas Bumi", "REMARK": "RS berlokasi di SMPN 4 Cibinong", "STSJRN_res": "Eksisting" }, "geometry": { "type": "Point", "coordinates": [ 106.855100000155304, -6.498999999249935, 0.0 ] } },
{ "type": "Feature", "properties": { "NAMOBJ": "Infrastruktur Minyak dan Gas Bumi", "REMARK": "RS berlokasi di Bojong Gede Green Park", "STSJRN_res": "Eksisting" }, "geometry": { "type": "Point", "coordinates": [ 106.789599999531916, -6.498900000035059, 0.0 ] } },
{ "type": "Feature", "properties": { "NAMOBJ": "Infrastruktur Minyak dan Gas Bumi", "REMARK": "RS berlokasi di Perum Puri Lavender", "STSJRN_res": "Eksisting" }, "geometry": { "type": "Point", "coordinates": [ 106.890400000249301, -6.498900000034904, 0.0 ] } },
{ "type": "Feature", "properties": { "NAMOBJ": "Infrastruktur Minyak dan Gas Bumi", "REMARK": "RS berlokasi di SMAN 1 Bojonggede", "STSJRN_res": "Eksisting" }, "geometry": { "type": "Point", "coordinates": [ 106.778999999942172, -6.497799999670069, 0.0 ] } },
{ "type": "Feature", "properties": { "NAMOBJ": "Infrastruktur Minyak dan Gas Bumi", "REMARK": "RS berlokasi di Masjid Al Muqqarabin Jl. Kp Tonggoh", "STSJRN_res": "Eksisting" }, "geometry": { "type": "Point", "coordinates": [ 106.897999999989096, -6.497799999669887, 0.0 ] } },
{ "type": "Feature", "properties": { "NAMOBJ": "Infrastruktur Minyak dan Gas Bumi", "REMARK": "RS berlokasi di Polsek Bojong Gede", "STSJRN_res": "Eksisting" }, "geometry": { "type": "Point", "coordinates": [ 106.799299999886756, -6.497500000225023, 0.0 ] } },
{ "type": "Feature", "properties": { "NAMOBJ": "Infrastruktur Minyak dan Gas Bumi", "REMARK": "RS berlokasi di SMK Purnama Bakti", "STSJRN_res": "Eksisting" }, "geometry": { "type": "Point", "coordinates": [ 106.839699999545715, -6.497299999994965, 0.0 ] } },
{ "type": "Feature", "properties": { "NAMOBJ": "Infrastruktur Minyak dan Gas Bumi", "REMARK": "RS berlokasi di Kantor Dessa Kedungwaringin", "STSJRN_res": "Eksisting" }, "geometry": { "type": "Point", "coordinates": [ 106.786799999912006, -6.496299999745068, 0.0 ] } },
{ "type": "Feature", "properties": { "NAMOBJ": "Infrastruktur Minyak dan Gas Bumi", "REMARK": "RS berlokasi di SDN Tarikolot 04", "STSJRN_res": "Eksisting" }, "geometry": { "type": "Point", "coordinates": [ 106.892499999964215, -6.496099999514913, 0.0 ] } },
{ "type": "Feature", "properties": { "NAMOBJ": "Infrastruktur Minyak dan Gas Bumi", "REMARK": "RS berlokasi di Kantor Desa Karang Asem Timur", "STSJRN_res": "Eksisting" }, "geometry": { "type": "Point", "coordinates": [ 106.877399999699691, -6.495899999284886, 0.0 ] } },
{ "type": "Feature", "properties": { "NAMOBJ": "Infrastruktur Minyak dan Gas Bumi", "REMARK": "RS berlokasi di SDN Karang Asem Timur 02", "STSJRN_res": "Eksisting" }, "geometry": { "type": "Point", "coordinates": [ 106.878800000409612, -6.495199999379924, 0.0 ] } },
{ "type": "Feature", "properties": { "NAMOBJ": "Infrastruktur Minyak dan Gas Bumi", "REMARK": "RS berlokasi di Kantor Kelurahan Karang Asem Barat", "STSJRN_res": "Eksisting" }, "geometry": { "type": "Point", "coordinates": [ 106.876500000464702, -6.495100000164913, 0.0 ] } },
{ "type": "Feature", "properties": { "NAMOBJ": "Infrastruktur Minyak dan Gas Bumi", "REMARK": "RS berlokasi di Masjid Nuruzzaman", "STSJRN_res": "Eksisting" }, "geometry": { "type": "Point", "coordinates": [ 106.794100000206825, -6.494300000145067, 0.0 ] } },
{ "type": "Feature", "properties": { "NAMOBJ": "Infrastruktur Minyak dan Gas Bumi", "REMARK": "RS berlokasi di Kantor Desa Gunungsari", "STSJRN_res": "Eksisting" }, "geometry": { "type": "Point", "coordinates": [ 106.902299999533938, -6.494300000144891, 0.0 ] } },
{ "type": "Feature", "properties": { "NAMOBJ": "Infrastruktur Minyak dan Gas Bumi", "REMARK": "RS berlokasi di SDN Pakansari 03", "STSJRN_res": "Eksisting" }, "geometry": { "type": "Point", "coordinates": [ 106.84309999985561, -6.493199999779994, 0.0 ] } },
{ "type": "Feature", "properties": { "NAMOBJ": "Infrastruktur Minyak dan Gas Bumi", "REMARK": "RS berlokasi di Kantor Desa Tarikolot", "STSJRN_res": "Eksisting" }, "geometry": { "type": "Point", "coordinates": [ 106.888999999539323, -6.492599999089869, 0.0 ] } },
{ "type": "Feature", "properties": { "NAMOBJ": "Infrastruktur Minyak dan Gas Bumi", "REMARK": "RS berlokasi di Griya Anggraini", "STSJRN_res": "Eksisting" }, "geometry": { "type": "Point", "coordinates": [ 106.864700000395004, -6.491399999509945, 0.0 ] } },
{ "type": "Feature", "properties": { "NAMOBJ": "Infrastruktur Minyak dan Gas Bumi", "REMARK": "RS berlokasi di SD Karangasem 01", "STSJRN_res": "Eksisting" }, "geometry": { "type": "Point", "coordinates": [ 106.881499999914539, -6.488799999219926, 0.0 ] } },
{ "type": "Feature", "properties": { "NAMOBJ": "Infrastruktur Minyak dan Gas Bumi", "REMARK": "RS berlokasi di SDN Gunungsari 01", "STSJRN_res": "Eksisting" }, "geometry": { "type": "Point", "coordinates": [ 106.900699999493966, -6.488700000004861, 0.0 ] } },
{ "type": "Feature", "properties": { "NAMOBJ": "Infrastruktur Minyak dan Gas Bumi", "REMARK": "RSI berlokasi di Masjid As Shoheh", "STSJRN_res": "Eksisting" }, "geometry": { "type": "Point", "coordinates": [ 106.881499999914539, -6.488599999889934, 0.0 ] } },
{ "type": "Feature", "properties": { "NAMOBJ": "Infrastruktur Minyak dan Gas Bumi", "REMARK": "RS berlokasi di Perumahan duta parahyangan", "STSJRN_res": "Eksisting" }, "geometry": { "type": "Point", "coordinates": [ 106.830100000205945, -6.487399999409997, 0.0 ] } },
{ "type": "Feature", "properties": { "NAMOBJ": "Infrastruktur Minyak dan Gas Bumi", "REMARK": "RS berlokasi di Kantor Kelurahan Cibinong", "STSJRN_res": "Eksisting" }, "geometry": { "type": "Point", "coordinates": [ 106.857999999890225, -6.487299999294928, 0.0 ] } },
{ "type": "Feature", "properties": { "NAMOBJ": "Infrastruktur Minyak dan Gas Bumi", "REMARK": "RS berlokasi di Kantor Kecamatan Citeureup", "STSJRN_res": "Eksisting" }, "geometry": { "type": "Point", "coordinates": [ 106.878699999394627, -6.487099999964896, 0.0 ] } },
{ "type": "Feature", "properties": { "NAMOBJ": "Pembangkit Listrik Lainnya", "REMARK": "Pembangkit Listrik Tenaga Sampah (PLTSa) TPPAS Nambo", "STSJRN_res": "Rencana" }, "geometry": { "type": "Point", "coordinates": [ 106.939072781570317, -6.486934404199777, 0.0 ] } },
{ "type": "Feature", "properties": { "NAMOBJ": "Infrastruktur Minyak dan Gas Bumi", "REMARK": "RS berlokasi di SDN Citeureup 05", "STSJRN_res": "Eksisting" }, "geometry": { "type": "Point", "coordinates": [ 106.886500000264419, -6.486099999714911, 0.0 ] } },
{ "type": "Feature", "properties": { "NAMOBJ": "Infrastruktur Minyak dan Gas Bumi", "REMARK": "RS berlokasi di Masjid Al Barokah Komplek Bekang Kostrad", "STSJRN_res": "Eksisting" }, "geometry": { "type": "Point", "coordinates": [ 106.847200000070529, -6.485900000384976, 0.0 ] } },
{ "type": "Feature", "properties": { "NAMOBJ": "Infrastruktur Minyak dan Gas Bumi", "REMARK": "RS berlokasi di Masjid Al Muhajirin", "STSJRN_res": "Eksisting" }, "geometry": { "type": "Point", "coordinates": [ 106.874100000404766, -6.485900000384932, 0.0 ] } },
{ "type": "Feature", "properties": { "NAMOBJ": "Infrastruktur Minyak dan Gas Bumi", "REMARK": "RS berlokasi di SDN Lanbau 01", "STSJRN_res": "Eksisting" }, "geometry": { "type": "Point", "coordinates": [ 106.868099999804926, -6.485700000154945, 0.0 ] } },
{ "type": "Feature", "properties": { "NAMOBJ": "Infrastruktur Minyak dan Gas Bumi", "REMARK": "RS berlokasi di SDN Citeureup 07", "STSJRN_res": "Eksisting" }, "geometry": { "type": "Point", "coordinates": [ 106.888699999194358, -6.485700000154913, 0.0 ] } },
{ "type": "Feature", "properties": { "NAMOBJ": "Infrastruktur Minyak dan Gas Bumi", "REMARK": "RS berlokasi di Unit Laka Polres Bogor", "STSJRN_res": "Eksisting" }, "geometry": { "type": "Point", "coordinates": [ 106.843400000200603, -6.485299999694947, 0.0 ] } },
{ "type": "Feature", "properties": { "NAMOBJ": "Infrastruktur Minyak dan Gas Bumi", "REMARK": "MRS berlokasi di Kantor kelurahan pakansari", "STSJRN_res": "Eksisting" }, "geometry": { "type": "Point", "coordinates": [ 106.836899999925762, -6.484800000020003, 0.0 ] } },
{ "type": "Feature", "properties": { "NAMOBJ": "Infrastruktur Minyak dan Gas Bumi", "REMARK": "RS berlokasi di Kantor kelurahan pakansari", "STSJRN_res": "Eksisting" }, "geometry": { "type": "Point", "coordinates": [ 106.836899999925762, -6.484800000020003, 0.0 ] } },
{ "type": "Feature", "properties": { "NAMOBJ": "Infrastruktur Minyak dan Gas Bumi", "REMARK": "RS berlokasi di SDN Bunisari Cibinong", "STSJRN_res": "Eksisting" }, "geometry": { "type": "Point", "coordinates": [ 106.851399999500401, -6.484699999904945, 0.0 ] } },
{ "type": "Feature", "properties": { "NAMOBJ": "Infrastruktur Minyak dan Gas Bumi", "REMARK": "RS berlokasi di Kantor Kelurahan Puspanegara", "STSJRN_res": "Eksisting" }, "geometry": { "type": "Point", "coordinates": [ 106.879600000429619, -6.483499999424931, 0.0 ] } },
{ "type": "Feature", "properties": { "NAMOBJ": "Infrastruktur Minyak dan Gas Bumi", "REMARK": "RS berlokasi di SDN Cibinong 02", "STSJRN_res": "Eksisting" }, "geometry": { "type": "Point", "coordinates": [ 106.85959999993014, -6.482799999519956, 0.0 ] } },
{ "type": "Feature", "properties": { "NAMOBJ": "Infrastruktur Minyak dan Gas Bumi", "REMARK": "RS berlokasi di SDN Pakansari 02", "STSJRN_res": "Eksisting" }, "geometry": { "type": "Point", "coordinates": [ 106.84219999972062, -6.481899999384986, 0.0 ] } },
{ "type": "Feature", "properties": { "NAMOBJ": "Infrastruktur Minyak dan Gas Bumi", "REMARK": "RS berlokasi di Masjid As Salam", "STSJRN_res": "Eksisting" }, "geometry": { "type": "Point", "coordinates": [ 106.790500000566894, -6.481599999040034, 0.0 ] } },
{ "type": "Feature", "properties": { "NAMOBJ": "Infrastruktur Minyak dan Gas Bumi", "REMARK": "RS berlokasi di Kantor Desa Citeureup", "STSJRN_res": "Eksisting" }, "geometry": { "type": "Point", "coordinates": [ 106.883300000184491, -6.481599999039889, 0.0 ] } },
{ "type": "Feature", "properties": { "NAMOBJ": "Infrastruktur Minyak dan Gas Bumi", "REMARK": "RS berlokasi di SDN Cibinong Raya", "STSJRN_res": "Eksisting" }, "geometry": { "type": "Point", "coordinates": [ 106.854099999905287, -6.481399999709953, 0.0 ] } },
{ "type": "Feature", "properties": { "NAMOBJ": "Infrastruktur Minyak dan Gas Bumi", "REMARK": "RSI berlokasi di Masjid At Taqwa", "STSJRN_res": "Eksisting" }, "geometry": { "type": "Point", "coordinates": [ 106.802399999851602, -6.479999999900011, 0.0 ] } },
{ "type": "Feature", "properties": { "NAMOBJ": "Infrastruktur Minyak dan Gas Bumi", "REMARK": "RS berlokasi di Masjid Al Ishlah Komplek Bekang Kostrad", "STSJRN_res": "Eksisting" }, "geometry": { "type": "Point", "coordinates": [ 106.845000000240589, -6.478899999534951, 0.0 ] } },
{ "type": "Feature", "properties": { "NAMOBJ": "Infrastruktur Minyak dan Gas Bumi", "REMARK": "RS berlokasi di Masjid Al Iqra Taman Kenari", "STSJRN_res": "Eksisting" }, "geometry": { "type": "Point", "coordinates": [ 106.873999999389753, -6.478699999304904, 0.0 ] } },
{ "type": "Feature", "properties": { "NAMOBJ": "Infrastruktur Minyak dan Gas Bumi", "REMARK": "RS berlokasi di Masjid Al Iqra Taman Kenari", "STSJRN_res": "Eksisting" }, "geometry": { "type": "Point", "coordinates": [ 106.874100000404766, -6.478699999304893, 0.0 ] } },
{ "type": "Feature", "properties": { "NAMOBJ": "Infrastruktur Minyak dan Gas Bumi", "REMARK": "RS berlokasi di Masjid Al Barokah", "STSJRN_res": "Eksisting" }, "geometry": { "type": "Point", "coordinates": [ 106.855399999600252, -6.477199999379938, 0.0 ] } },
{ "type": "Feature", "properties": { "NAMOBJ": "Infrastruktur Minyak dan Gas Bumi", "REMARK": "RS berlokasi di Kantor Desa Puspasari", "STSJRN_res": "Eksisting" }, "geometry": { "type": "Point", "coordinates": [ 106.872899999924783, -6.476200000029944, 0.0 ] } },
{ "type": "Feature", "properties": { "NAMOBJ": "Infrastruktur Minyak dan Gas Bumi", "REMARK": "RS berlokasi di Komplek De Minimalist", "STSJRN_res": "Eksisting" }, "geometry": { "type": "Point", "coordinates": [ 106.865899999974985, -6.475699999454942, 0.0 ] } },
{ "type": "Feature", "properties": { "NAMOBJ": "Infrastruktur Minyak dan Gas Bumi", "REMARK": "RS berlokasi di SDN Curug Raya", "STSJRN_res": "Eksisting" }, "geometry": { "type": "Point", "coordinates": [ 106.836400000250805, -6.475299999895004, 0.0 ] } },
{ "type": "Feature", "properties": { "NAMOBJ": "Infrastruktur Minyak dan Gas Bumi", "REMARK": "RS berlokasi di SDN Citeureup 03", "STSJRN_res": "Eksisting" }, "geometry": { "type": "Point", "coordinates": [ 106.882299999934531, -6.474999999549903, 0.0 ] } },
{ "type": "Feature", "properties": { "NAMOBJ": "Infrastruktur Minyak dan Gas Bumi", "REMARK": "RS berlokasi di Masjid At Tammimah Taman Kenari Jagorawi", "STSJRN_res": "Eksisting" }, "geometry": { "type": "Point", "coordinates": [ 106.877199999469696, -6.474899999434939, 0.0 ] } },
{ "type": "Feature", "properties": { "NAMOBJ": "Infrastruktur Minyak dan Gas Bumi", "REMARK": "RS berlokasi di Masjid Baiturrahman Kristal Garden", "STSJRN_res": "Eksisting" }, "geometry": { "type": "Point", "coordinates": [ 106.868300000034921, -6.473999999299944, 0.0 ] } },
{ "type": "Feature", "properties": { "NAMOBJ": "Infrastruktur Minyak dan Gas Bumi", "REMARK": "RS berlokasi di SDN Cirimekar 02", "STSJRN_res": "Eksisting" }, "geometry": { "type": "Point", "coordinates": [ 106.848800000110444, -6.473499999624964, 0.0 ] } },
{ "type": "Feature", "properties": { "NAMOBJ": "Infrastruktur Minyak dan Gas Bumi", "REMARK": "RS berlokasi di Masjid Al Hidayah Jl Kp Gunung Putri", "STSJRN_res": "Eksisting" }, "geometry": { "type": "Point", "coordinates": [ 106.891900000174232, -6.473300000294905, 0.0 ] } },
{ "type": "Feature", "properties": { "NAMOBJ": "Infrastruktur Minyak dan Gas Bumi", "REMARK": "RS berlokasi di SDN Surakarya 03", "STSJRN_res": "Eksisting" }, "geometry": { "type": "Point", "coordinates": [ 106.801699999046662, -6.472199999030042, 0.0 ] } },
{ "type": "Feature", "properties": { "NAMOBJ": "Infrastruktur Minyak dan Gas Bumi", "REMARK": "RS berlokasi di SDN Muhara 01", "STSJRN_res": "Eksisting" }, "geometry": { "type": "Point", "coordinates": [ 106.89380000055921, -6.472199999029905, 0.0 ] } },
{ "type": "Feature", "properties": { "NAMOBJ": "Infrastruktur Minyak dan Gas Bumi", "REMARK": "RS berlokasi di SDN Curug", "STSJRN_res": "Eksisting" }, "geometry": { "type": "Point", "coordinates": [ 106.83929999998567, -6.471599999239999, 0.0 ] } },
{ "type": "Feature", "properties": { "NAMOBJ": "Infrastruktur Minyak dan Gas Bumi", "REMARK": "RS berlokasi di Kantor Kelurahan Cirimekar", "STSJRN_res": "Eksisting" }, "geometry": { "type": "Point", "coordinates": [ 106.85450000036532, -6.471099999564965, 0.0 ] } },
{ "type": "Feature", "properties": { "NAMOBJ": "Infrastruktur Minyak dan Gas Bumi", "REMARK": "RS berlokasi di Kantor Kelurahan Ciriung", "STSJRN_res": "Eksisting" }, "geometry": { "type": "Point", "coordinates": [ 106.861899999875106, -6.470899999334958, 0.0 ] } },
{ "type": "Feature", "properties": { "NAMOBJ": "Infrastruktur Minyak dan Gas Bumi", "REMARK": "RS berlokasi di SDN Ciriung 2", "STSJRN_res": "Eksisting" }, "geometry": { "type": "Point", "coordinates": [ 106.844700000795569, -6.470599999889974, 0.0 ] } },
{ "type": "Feature", "properties": { "NAMOBJ": "Infrastruktur Minyak dan Gas Bumi", "REMARK": "RS berlokasi di Kantor Desa Susukan", "STSJRN_res": "Eksisting" }, "geometry": { "type": "Point", "coordinates": [ 106.788600000181958, -6.469599999640071, 0.0 ] } },
{ "type": "Feature", "properties": { "NAMOBJ": "Infrastruktur Minyak dan Gas Bumi", "REMARK": "RS berlokasi di SDN Panineungan", "STSJRN_res": "Eksisting" }, "geometry": { "type": "Point", "coordinates": [ 106.869799999959866, -6.469499999524928, 0.0 ] } },
{ "type": "Feature", "properties": { "NAMOBJ": "Infrastruktur Minyak dan Gas Bumi", "REMARK": "RS berlokasi di SDN Puspanegara 04", "STSJRN_res": "Eksisting" }, "geometry": { "type": "Point", "coordinates": [ 106.884300000434493, -6.469099999964907, 0.0 ] } },
{ "type": "Feature", "properties": { "NAMOBJ": "Infrastruktur Minyak dan Gas Bumi", "REMARK": "RS berlokasi di SDN Ciriung 04", "STSJRN_res": "Eksisting" }, "geometry": { "type": "Point", "coordinates": [ 106.858299999335173, -6.467899999484935, 0.0 ] } },
{ "type": "Feature", "properties": { "NAMOBJ": "Infrastruktur Minyak dan Gas Bumi", "REMARK": "RSI berlokasi di Gereja Kristus Cibinong", "STSJRN_res": "Eksisting" }, "geometry": { "type": "Point", "coordinates": [ 106.853500000115318, -6.467499999924949, 0.0 ] } },
{ "type": "Feature", "properties": { "NAMOBJ": "Infrastruktur Minyak dan Gas Bumi", "REMARK": "RS berlokasi di Gereja Kristus Cibinong", "STSJRN_res": "Eksisting" }, "geometry": { "type": "Point", "coordinates": [ 106.853500000115318, -6.467499999924949, 0.0 ] } },
{ "type": "Feature", "properties": { "NAMOBJ": "Infrastruktur Minyak dan Gas Bumi", "REMARK": "RS berlokasi di Masjid Hijau Albarkah", "STSJRN_res": "Eksisting" }, "geometry": { "type": "Point", "coordinates": [ 106.794800000111806, -6.467099999465048, 0.0 ] } },
{ "type": "Feature", "properties": { "NAMOBJ": "Infrastruktur Minyak dan Gas Bumi", "REMARK": "RS berlokasi di Masjid Jami Baiturrohman", "STSJRN_res": "Eksisting" }, "geometry": { "type": "Point", "coordinates": [ 106.799700000346718, -6.466, 0.0 ] } },
{ "type": "Feature", "properties": { "NAMOBJ": "Infrastruktur Minyak dan Gas Bumi", "REMARK": "RS berlokasi di Masjid Adzikra", "STSJRN_res": "Eksisting" }, "geometry": { "type": "Point", "coordinates": [ 106.86390000037504, -6.465400000209969, 0.0 ] } },
{ "type": "Feature", "properties": { "NAMOBJ": "Infrastruktur Minyak dan Gas Bumi", "REMARK": "RS berlokasi di SDN Kranggan 03", "STSJRN_res": "Eksisting" }, "geometry": { "type": "Point", "coordinates": [ 106.878000000389648, -6.46499999974989, 0.0 ] } },
{ "type": "Feature", "properties": { "NAMOBJ": "Infrastruktur Minyak dan Gas Bumi", "REMARK": "RS berlokasi di SDN Kranggan 01", "STSJRN_res": "Eksisting" }, "geometry": { "type": "Point", "coordinates": [ 106.880800000009529, -6.464799999519897, 0.0 ] } },
{ "type": "Feature", "properties": { "NAMOBJ": "Infrastruktur Minyak dan Gas Bumi", "REMARK": "RS berlokasi di TPU Pondok Rajeg", "STSJRN_res": "Eksisting" }, "geometry": { "type": "Point", "coordinates": [ 106.819999999391214, -6.464199999730006, 0.0 ] } },
{ "type": "Feature", "properties": { "NAMOBJ": "Infrastruktur Minyak dan Gas Bumi", "REMARK": "RS berlokasi di SDN Pabuaran 01", "STSJRN_res": "Eksisting" }, "geometry": { "type": "Point", "coordinates": [ 106.804299999336592, -6.46359999994004, 0.0 ] } },
{ "type": "Feature", "properties": { "NAMOBJ": "Infrastruktur Minyak dan Gas Bumi", "REMARK": "RS berlokasi di SDN Surakarya 02", "STSJRN_res": "Eksisting" }, "geometry": { "type": "Point", "coordinates": [ 106.787300000486994, -6.463499999825047, 0.0 ] } },
{ "type": "Feature", "properties": { "NAMOBJ": "Infrastruktur Minyak dan Gas Bumi", "REMARK": "RS berlokasi di Gereja Baptis CIBINONG indonesia", "STSJRN_res": "Eksisting" }, "geometry": { "type": "Point", "coordinates": [ 106.865500000415011, -6.463499999824921, 0.0 ] } },
{ "type": "Feature", "properties": { "NAMOBJ": "Infrastruktur Minyak dan Gas Bumi", "REMARK": "RS berlokasi di Kantor Desa Gunung Putri", "STSJRN_res": "Eksisting" }, "geometry": { "type": "Point", "coordinates": [ 106.891599999829282, -6.463499999824878, 0.0 ] } },
{ "type": "Feature", "properties": { "NAMOBJ": "Infrastruktur Minyak dan Gas Bumi", "REMARK": "RS berlokasi di Masjid Fajar Baitullah", "STSJRN_res": "Eksisting" }, "geometry": { "type": "Point", "coordinates": [ 106.812200000321383, -6.463399999710048, 0.0 ] } },
{ "type": "Feature", "properties": { "NAMOBJ": "Infrastruktur Minyak dan Gas Bumi", "REMARK": "RS berlokasi di Kantor kelurahan pabuaran", "STSJRN_res": "Eksisting" }, "geometry": { "type": "Point", "coordinates": [ 106.846699999495513, -6.462799999919947, 0.0 ] } },
{ "type": "Feature", "properties": { "NAMOBJ": "Infrastruktur Minyak dan Gas Bumi", "REMARK": "RS berlokasi di Kantor Kelurahan Pabuaran", "STSJRN_res": "Eksisting" }, "geometry": { "type": "Point", "coordinates": [ 106.796500000266761, -6.461899999785011, 0.0 ] } },
{ "type": "Feature", "properties": { "NAMOBJ": "Infrastruktur Minyak dan Gas Bumi", "REMARK": "RS berlokasi di Masjid Al Munawaroh", "STSJRN_res": "Eksisting" }, "geometry": { "type": "Point", "coordinates": [ 106.806500000066535, -6.461299999995014, 0.0 ] } },
{ "type": "Feature", "properties": { "NAMOBJ": "Infrastruktur Minyak dan Gas Bumi", "REMARK": "RS berlokasi di Masjid Jami Al Barkah", "STSJRN_res": "Eksisting" }, "geometry": { "type": "Point", "coordinates": [ 106.810299999936447, -6.461299999995009, 0.0 ] } },
{ "type": "Feature", "properties": { "NAMOBJ": "Infrastruktur Minyak dan Gas Bumi", "REMARK": "RS berlokasi di SDN Pabuaran 01 & 04", "STSJRN_res": "Eksisting" }, "geometry": { "type": "Point", "coordinates": [ 106.850300000035432, -6.460699999304961, 0.0 ] } },
{ "type": "Feature", "properties": { "NAMOBJ": "Infrastruktur Minyak dan Gas Bumi", "REMARK": "RSI berlokasi di Masjid Agung Al Muqorrobin", "STSJRN_res": "Eksisting" }, "geometry": { "type": "Point", "coordinates": [ 106.894799999909139, -6.460099999514897, 0.0 ] } },
{ "type": "Feature", "properties": { "NAMOBJ": "Infrastruktur Minyak dan Gas Bumi", "REMARK": "RS berlokasi di Masjid Agung Al Muqorrobin", "STSJRN_res": "Eksisting" }, "geometry": { "type": "Point", "coordinates": [ 106.89490000002418, -6.460099999514915, 0.0 ] } },
{ "type": "Feature", "properties": { "NAMOBJ": "Infrastruktur Minyak dan Gas Bumi", "REMARK": "RS berlokasi di Masjid Duren Baru Permai", "STSJRN_res": "Eksisting" }, "geometry": { "type": "Point", "coordinates": [ 106.788299999836951, -6.458799999820032, 0.0 ] } },
{ "type": "Feature", "properties": { "NAMOBJ": "Infrastruktur Minyak dan Gas Bumi", "REMARK": "RS berlokasi di SDN Padurenan Jaya", "STSJRN_res": "Eksisting" }, "geometry": { "type": "Point", "coordinates": [ 106.845999999590518, -6.457599999339975, 0.0 ] } },
{ "type": "Feature", "properties": { "NAMOBJ": "Infrastruktur Minyak dan Gas Bumi", "REMARK": "RS berlokasi di Kantor Desa Kranggan", "STSJRN_res": "Eksisting" }, "geometry": { "type": "Point", "coordinates": [ 106.883799999859477, -6.457599999339912, 0.0 ] } },
{ "type": "Feature", "properties": { "NAMOBJ": "Infrastruktur Minyak dan Gas Bumi", "REMARK": "RS berlokasi di Griya Pondok Rajeg", "STSJRN_res": "Eksisting" }, "geometry": { "type": "Point", "coordinates": [ 106.822900000026138, -6.456200000429997, 0.0 ] } },
{ "type": "Feature", "properties": { "NAMOBJ": "Infrastruktur Minyak dan Gas Bumi", "REMARK": "RS berlokasi di SDN Gunung Putri 01", "STSJRN_res": "Eksisting" }, "geometry": { "type": "Point", "coordinates": [ 106.900600000278999, -6.456099999414898, 0.0 ] } },
{ "type": "Feature", "properties": { "NAMOBJ": "Infrastruktur Minyak dan Gas Bumi", "REMARK": "RS berlokasi di Masjid Jami Baiturrahman", "STSJRN_res": "Eksisting" }, "geometry": { "type": "Point", "coordinates": [ 106.796500000266761, -6.455999999300028, 0.0 ] } },
{ "type": "Feature", "properties": { "NAMOBJ": "Infrastruktur Minyak dan Gas Bumi", "REMARK": "RS berlokasi di Masjid Mursyidul Falah", "STSJRN_res": "Eksisting" }, "geometry": { "type": "Point", "coordinates": [ 106.846899999725494, -6.455599999739968, 0.0 ] } },
{ "type": "Feature", "properties": { "NAMOBJ": "Infrastruktur Minyak dan Gas Bumi", "REMARK": "RS berlokasi di Gereja Kristus Gunung Putri", "STSJRN_res": "Eksisting" }, "geometry": { "type": "Point", "coordinates": [ 106.893600000329158, -6.455199999279905, 0.0 ] } },
{ "type": "Feature", "properties": { "NAMOBJ": "Infrastruktur Minyak dan Gas Bumi", "REMARK": "RS berlokasi di SDN Pabuaran 02", "STSJRN_res": "Eksisting" }, "geometry": { "type": "Point", "coordinates": [ 106.806700000296516, -6.454999999950042, 0.0 ] } },
{ "type": "Feature", "properties": { "NAMOBJ": "Infrastruktur Minyak dan Gas Bumi", "REMARK": "RS berlokasi di SMP Muhammadiyah Pabuaran", "STSJRN_res": "Eksisting" }, "geometry": { "type": "Point", "coordinates": [ 106.792400000051884, -6.454699999605038, 0.0 ] } },
{ "type": "Feature", "properties": { "NAMOBJ": "Infrastruktur Minyak dan Gas Bumi", "REMARK": "RS berlokasi di Gunung Putri Indah Estate", "STSJRN_res": "Eksisting" }, "geometry": { "type": "Point", "coordinates": [ 106.903099999553874, -6.454400000159846, 0.0 ] } },
{ "type": "Feature", "properties": { "NAMOBJ": "Infrastruktur Minyak dan Gas Bumi", "REMARK": "RS berlokasi di Masjid Al Istiqomah", "STSJRN_res": "Eksisting" }, "geometry": { "type": "Point", "coordinates": [ 106.803600000331585, -6.45419999993001, 0.0 ] } },
{ "type": "Feature", "properties": { "NAMOBJ": "Infrastruktur Minyak dan Gas Bumi", "REMARK": "RS berlokasi di Kantor Desa Rawapanjang", "STSJRN_res": "Eksisting" }, "geometry": { "type": "Point", "coordinates": [ 106.808499999666481, -6.453800000370021, 0.0 ] } },
{ "type": "Feature", "properties": { "NAMOBJ": "Infrastruktur Minyak dan Gas Bumi", "REMARK": "RS berlokasi di Masjid Jami Nursaádah", "STSJRN_res": "Eksisting" }, "geometry": { "type": "Point", "coordinates": [ 106.798900000326697, -6.453500000025006, 0.0 ] } },
{ "type": "Feature", "properties": { "NAMOBJ": "Infrastruktur Minyak dan Gas Bumi", "REMARK": "RS berlokasi di Kantor Kelurahan Pondok Rajeg", "STSJRN_res": "Eksisting" }, "geometry": { "type": "Point", "coordinates": [ 106.818500000366271, -6.452299999545013, 0.0 ] } },
{ "type": "Feature", "properties": { "NAMOBJ": "Infrastruktur Minyak dan Gas Bumi", "REMARK": "RS berlokasi di SDN Kampung Bulak", "STSJRN_res": "Eksisting" }, "geometry": { "type": "Point", "coordinates": [ 106.845399999800549, -6.452299999544973, 0.0 ] } },
{ "type": "Feature", "properties": { "NAMOBJ": "Infrastruktur Minyak dan Gas Bumi", "REMARK": "RS berlokasi di Masjid Ar Ruju", "STSJRN_res": "Eksisting" }, "geometry": { "type": "Point", "coordinates": [ 106.849700000245406, -6.451799999869952, 0.0 ] } },
{ "type": "Feature", "properties": { "NAMOBJ": "Infrastruktur Minyak dan Gas Bumi", "REMARK": "RS berlokasi di SDN Gunung Putri 03", "STSJRN_res": "Eksisting" }, "geometry": { "type": "Point", "coordinates": [ 106.892200000519239, -6.451399999409896, 0.0 ] } },
{ "type": "Feature", "properties": { "NAMOBJ": "Infrastruktur Minyak dan Gas Bumi", "REMARK": "RS berlokasi di Masjid Jami Baitul Falah", "STSJRN_res": "Eksisting" }, "geometry": { "type": "Point", "coordinates": [ 106.812200000321383, -6.450500000175011, 0.0 ] } },
{ "type": "Feature", "properties": { "NAMOBJ": "Infrastruktur Minyak dan Gas Bumi", "REMARK": "RS berlokasi di SDN Kedep", "STSJRN_res": "Eksisting" }, "geometry": { "type": "Point", "coordinates": [ 106.919500000413393, -6.450099999714845, 0.0 ] } },
{ "type": "Feature", "properties": { "NAMOBJ": "Infrastruktur Minyak dan Gas Bumi", "REMARK": "RS berlokasi di Masjid Nurul Iman", "STSJRN_res": "Eksisting" }, "geometry": { "type": "Point", "coordinates": [ 106.848099999305489, -6.449699999254976, 0.0 ] } },
{ "type": "Feature", "properties": { "NAMOBJ": "Infrastruktur Minyak dan Gas Bumi", "REMARK": "RS berlokasi di SMK Pratama", "STSJRN_res": "Eksisting" }, "geometry": { "type": "Point", "coordinates": [ 106.887200000169329, -6.449099999464874, 0.0 ] } },
{ "type": "Feature", "properties": { "NAMOBJ": "Infrastruktur Minyak dan Gas Bumi", "REMARK": "RS berlokasi di Kantor Desa Tlajung Udik", "STSJRN_res": "Eksisting" }, "geometry": { "type": "Point", "coordinates": [ 106.910299999733681, -6.448900000134842, 0.0 ] } },
{ "type": "Feature", "properties": { "NAMOBJ": "Infrastruktur Minyak dan Gas Bumi", "REMARK": "RS berlokasi di Kantor Desa Tlajung Udik", "STSJRN_res": "Eksisting" }, "geometry": { "type": "Point", "coordinates": [ 106.91039999984865, -6.44879999911987, 0.0 ] } },
{ "type": "Feature", "properties": { "NAMOBJ": "Infrastruktur Minyak dan Gas Bumi", "REMARK": "RS berlokasi di SDN Tlajung Udik 04", "STSJRN_res": "Eksisting" }, "geometry": { "type": "Point", "coordinates": [ 106.90619999951879, -6.448399999559889, 0.0 ] } },
{ "type": "Feature", "properties": { "NAMOBJ": "Infrastruktur Minyak dan Gas Bumi", "REMARK": "RS berlokasi di SDN Citayam 03", "STSJRN_res": "Eksisting" }, "geometry": { "type": "Point", "coordinates": [ 106.785599999432051, -6.448200000230034, 0.0 ] } },
{ "type": "Feature", "properties": { "NAMOBJ": "Infrastruktur Minyak dan Gas Bumi", "REMARK": "RS berlokasi di Masjid Al Busro", "STSJRN_res": "Eksisting" }, "geometry": { "type": "Point", "coordinates": [ 106.92119999966836, -6.447499999424847, 0.0 ] } },
{ "type": "Feature", "properties": { "NAMOBJ": "Infrastruktur Minyak dan Gas Bumi", "REMARK": "RS berlokasi di Kantor Desa Ragajaya", "STSJRN_res": "Eksisting" }, "geometry": { "type": "Point", "coordinates": [ 106.78000000019216, -6.447099999865042, 0.0 ] } },
{ "type": "Feature", "properties": { "NAMOBJ": "Infrastruktur Minyak dan Gas Bumi", "REMARK": "RS berlokasi di SDN Raga Jaya", "STSJRN_res": "Eksisting" }, "geometry": { "type": "Point", "coordinates": [ 106.789899999876923, -6.445599999940037, 0.0 ] } },
{ "type": "Feature", "properties": { "NAMOBJ": "Infrastruktur Minyak dan Gas Bumi", "REMARK": "RS berlokasi di Masjid Jami Nurul Iman", "STSJRN_res": "Eksisting" }, "geometry": { "type": "Point", "coordinates": [ 106.775699999747218, -6.444400000360088, 0.0 ] } },
{ "type": "Feature", "properties": { "NAMOBJ": "Infrastruktur Minyak dan Gas Bumi", "REMARK": "RS berlokasi di SDN Pabuaran 05", "STSJRN_res": "Eksisting" }, "geometry": { "type": "Point", "coordinates": [ 106.848000000090451, -6.444400000359981, 0.0 ] } },
{ "type": "Feature", "properties": { "NAMOBJ": "Infrastruktur Minyak dan Gas Bumi", "REMARK": "RS berlokasi di SDN Bedahan 01", "STSJRN_res": "Eksisting" }, "geometry": { "type": "Point", "coordinates": [ 106.849000000340411, -6.443199999879963, 0.0 ] } },
{ "type": "Feature", "properties": { "NAMOBJ": "Infrastruktur Minyak dan Gas Bumi", "REMARK": "RS berlokasi di Masjid Jami Nurul Ihsan", "STSJRN_res": "Eksisting" }, "geometry": { "type": "Point", "coordinates": [ 106.768300000237417, -6.44179999917005, 0.0 ] } },
{ "type": "Feature", "properties": { "NAMOBJ": "Infrastruktur Minyak dan Gas Bumi", "REMARK": "RS berlokasi di Puskesmas Pabuaran Indah", "STSJRN_res": "Eksisting" }, "geometry": { "type": "Point", "coordinates": [ 106.845999999590518, -6.441699999954968, 0.0 ] } },
{ "type": "Feature", "properties": { "NAMOBJ": "Infrastruktur Minyak dan Gas Bumi", "REMARK": "RS berlokasi di SD Cikuda 01", "STSJRN_res": "Eksisting" }, "geometry": { "type": "Point", "coordinates": [ 106.893800000559196, -6.441599999839868, 0.0 ] } },
{ "type": "Feature", "properties": { "NAMOBJ": "Infrastruktur Minyak dan Gas Bumi", "REMARK": "RS berlokasi di Kantor Kelurahan Pabuaran Mekar", "STSJRN_res": "Eksisting" }, "geometry": { "type": "Point", "coordinates": [ 106.847699999745444, -6.441400000509955, 0.0 ] } },
{ "type": "Feature", "properties": { "NAMOBJ": "Infrastruktur Minyak dan Gas Bumi", "REMARK": "RS berlokasi di Kantor Kelurahan Pabuaran Mekar", "STSJRN_res": "Eksisting" }, "geometry": { "type": "Point", "coordinates": [ 106.847699999745444, -6.441400000509955, 0.0 ] } },
{ "type": "Feature", "properties": { "NAMOBJ": "Infrastruktur Minyak dan Gas Bumi", "REMARK": "RS berlokasi di Masjid Al Kahfi Griya Bukit Jaya", "STSJRN_res": "Eksisting" }, "geometry": { "type": "Point", "coordinates": [ 106.908200000018724, -6.441400000509842, 0.0 ] } },
{ "type": "Feature", "properties": { "NAMOBJ": "Infrastruktur Minyak dan Gas Bumi", "REMARK": "RS berlokasi di SDN Cicadas 05", "STSJRN_res": "Eksisting" }, "geometry": { "type": "Point", "coordinates": [ 106.925299999883222, -6.441199999379809, 0.0 ] } },
{ "type": "Feature", "properties": { "NAMOBJ": "Infrastruktur Minyak dan Gas Bumi", "REMARK": "RS berlokasi di Masjid Ar Rahman", "STSJRN_res": "Eksisting" }, "geometry": { "type": "Point", "coordinates": [ 106.847200000070515, -6.440399999359987, 0.0 ] } },
{ "type": "Feature", "properties": { "NAMOBJ": "Infrastruktur Minyak dan Gas Bumi", "REMARK": "RS berlokasi di Masjid At Taqwa Griya Bukit Jaya", "STSJRN_res": "Eksisting" }, "geometry": { "type": "Point", "coordinates": [ 106.907599999328738, -6.437699998954852, 0.0 ] } },
{ "type": "Feature", "properties": { "NAMOBJ": "Infrastruktur Minyak dan Gas Bumi", "REMARK": "RS berlokasi di Masjid Jami Baitusholihin", "STSJRN_res": "Eksisting" }, "geometry": { "type": "Point", "coordinates": [ 106.918299999933453, -6.43719999927982, 0.0 ] } },
{ "type": "Feature", "properties": { "NAMOBJ": "Infrastruktur Minyak dan Gas Bumi", "REMARK": "RS berlokasi di SDN Bedahan 02", "STSJRN_res": "Eksisting" }, "geometry": { "type": "Point", "coordinates": [ 106.849200000570463, -6.436899998934983, 0.0 ] } },
{ "type": "Feature", "properties": { "NAMOBJ": "Infrastruktur Minyak dan Gas Bumi", "REMARK": "RS berlokasi di SDN Cikuda 02", "STSJRN_res": "Eksisting" }, "geometry": { "type": "Point", "coordinates": [ 106.891400000499218, -6.436799999719892, 0.0 ] } },
{ "type": "Feature", "properties": { "NAMOBJ": "Pembangkit Listrik Tenaga Surya (PLTS)", "REMARK": "PLTS Gunung Putri PT SHELL INDONESIA", "STSJRN_res": "Eksisting" }, "geometry": { "type": "Point", "coordinates": [ 106.893503019239148, -6.43495836713487, 0.0 ] } },
{ "type": "Feature", "properties": { "NAMOBJ": "Infrastruktur Minyak dan Gas Bumi", "REMARK": "RS berlokasi di Masjid Parung Tanjung", "STSJRN_res": "Eksisting" }, "geometry": { "type": "Point", "coordinates": [ 106.931599999927982, -6.434700000004835, 0.0 ] } },
{ "type": "Feature", "properties": { "NAMOBJ": "Infrastruktur Minyak dan Gas Bumi", "REMARK": "RS berlokasi di SDN Cicadas 01", "STSJRN_res": "Eksisting" }, "geometry": { "type": "Point", "coordinates": [ 106.92644599967069, -6.434376999499809, 0.0 ] } },
{ "type": "Feature", "properties": { "NAMOBJ": "Infrastruktur Minyak dan Gas Bumi", "REMARK": "RS berlokasi di Kantor Desa Bojong Nangka", "STSJRN_res": "Eksisting" }, "geometry": { "type": "Point", "coordinates": [ 106.905399999498812, -6.434199999429875, 0.0 ] } },
{ "type": "Feature", "properties": { "NAMOBJ": "Infrastruktur Minyak dan Gas Bumi", "REMARK": "RS berlokasi di SDN Cicadas 03", "STSJRN_res": "Eksisting" }, "geometry": { "type": "Point", "coordinates": [ 106.921499999113323, -6.434199999429847, 0.0 ] } },
{ "type": "Feature", "properties": { "NAMOBJ": "Infrastruktur Minyak dan Gas Bumi", "REMARK": "RS berlokasi di Masjid Jami Ar Royyan Griya Bukit Jaya", "STSJRN_res": "Eksisting" }, "geometry": { "type": "Point", "coordinates": [ 106.913000000138609, -6.433399999409877, 0.0 ] } },
{ "type": "Feature", "properties": { "NAMOBJ": "Gardu Listrik", "REMARK": "GI 150 kV Cileungsi", "STSJRN_res": "Eksisting" }, "geometry": { "type": "Point", "coordinates": [ 106.953066999729771, -6.431849999877272, 0.0 ] } },
{ "type": "Feature", "properties": { "NAMOBJ": "Infrastruktur Minyak dan Gas Bumi", "REMARK": "RS berlokasi di Masjid Darut Taibin Jl. H. Muhidin", "STSJRN_res": "Eksisting" }, "geometry": { "type": "Point", "coordinates": [ 106.935099999452916, -6.428399999959798, 0.0 ] } },
{ "type": "Feature", "properties": { "NAMOBJ": "Infrastruktur Minyak dan Gas Bumi", "REMARK": "RS berlokasi di SMAN 1 Gunungputri", "STSJRN_res": "Eksisting" }, "geometry": { "type": "Point", "coordinates": [ 106.915099999853524, -6.426399999459843, 0.0 ] } },
{ "type": "Feature", "properties": { "NAMOBJ": "Gardu Listrik", "REMARK": "Gardu Induk Cogreg", "STSJRN_res": "Eksisting" }, "geometry": { "type": "Point", "coordinates": [ 106.698133000231323, -6.425150000272634, 0.0 ] } },
{ "type": "Feature", "properties": { "NAMOBJ": "Infrastruktur Minyak dan Gas Bumi", "REMARK": "RS berlokasi di SDN Cicadas 02", "STSJRN_res": "Eksisting" }, "geometry": { "type": "Point", "coordinates": [ 106.931302999720501, -6.425060999764789, 0.0 ] } },
{ "type": "Feature", "properties": { "NAMOBJ": "Infrastruktur Minyak dan Gas Bumi", "REMARK": "RS berlokasi di Masjid Baiturrahim/Hj. Ohing", "STSJRN_res": "Eksisting" }, "geometry": { "type": "Point", "coordinates": [ 106.923400000398274, -6.424899999534833, 0.0 ] } },
{ "type": "Feature", "properties": { "NAMOBJ": "Infrastruktur Minyak dan Gas Bumi", "REMARK": "RS berlokasi di Masjid Al Istiqomah", "STSJRN_res": "Eksisting" }, "geometry": { "type": "Point", "coordinates": [ 106.931199999467992, -6.424299999744835, 0.0 ] } },
{ "type": "Feature", "properties": { "NAMOBJ": "Infrastruktur Minyak dan Gas Bumi", "REMARK": "RS berlokasi di Kantor Kecamatan Gunung Putri", "STSJRN_res": "Eksisting" }, "geometry": { "type": "Point", "coordinates": [ 106.940199999917695, -6.423999999399789, 0.0 ] } },
{ "type": "Feature", "properties": { "NAMOBJ": "Infrastruktur Minyak dan Gas Bumi", "REMARK": "RS berlokasi di Masjid Al Jafariyah", "STSJRN_res": "Eksisting" }, "geometry": { "type": "Point", "coordinates": [ 106.946899999522486, -6.423799999169779, 0.0 ] } },
{ "type": "Feature", "properties": { "NAMOBJ": "Infrastruktur Minyak dan Gas Bumi", "REMARK": "RS berlokasi di Kantor Desa Wanaherang", "STSJRN_res": "Eksisting" }, "geometry": { "type": "Point", "coordinates": [ 106.943199999767614, -6.419899999184805, 0.0 ] } },
{ "type": "Feature", "properties": { "NAMOBJ": "Infrastruktur Minyak dan Gas Bumi", "REMARK": "RS berlokasi di Bukit Golf Cibubur", "STSJRN_res": "Eksisting" }, "geometry": { "type": "Point", "coordinates": [ 106.907299999883733, -6.415699999754877, 0.0 ] } },
{ "type": "Feature", "properties": { "NAMOBJ": "Infrastruktur Minyak dan Gas Bumi", "REMARK": "RS berlokasi di SDN Wanaherang 02", "STSJRN_res": "Eksisting" }, "geometry": { "type": "Point", "coordinates": [ 106.943499999212634, -6.415400000309792, 0.0 ] } },
{ "type": "Feature", "properties": { "NAMOBJ": "Infrastruktur Minyak dan Gas Bumi", "REMARK": "RS berlokasi di SDN Wanaherang 01", "STSJRN_res": "Eksisting" }, "geometry": { "type": "Point", "coordinates": [ 106.937699999742819, -6.415099999964776, 0.0 ] } },
{ "type": "Feature", "properties": { "NAMOBJ": "Infrastruktur Minyak dan Gas Bumi", "REMARK": "RS berlokasi di SDN Cikeas Udik 03", "STSJRN_res": "Eksisting" }, "geometry": { "type": "Point", "coordinates": [ 106.925756000228219, -6.413015000042322, 0.0 ] } },
{ "type": "Feature", "properties": { "NAMOBJ": "Infrastruktur Minyak dan Gas Bumi", "REMARK": "RS berlokasi di Masjid At Taqwa", "STSJRN_res": "Eksisting" }, "geometry": { "type": "Point", "coordinates": [ 106.946499999962512, -6.410500000074769, 0.0 ] } },
{ "type": "Feature", "properties": { "NAMOBJ": "Infrastruktur Minyak dan Gas Bumi", "REMARK": "RS berlokasi di SDN Cikeas Udik 01", "STSJRN_res": "Eksisting" }, "geometry": { "type": "Point", "coordinates": [ 106.925280999905681, -6.402539999919838, 0.0 ] } },
{ "type": "Feature", "properties": { "NAMOBJ": "Infrastruktur Minyak dan Gas Bumi", "REMARK": "RS berlokasi di Legenda Wisata", "STSJRN_res": "Eksisting" }, "geometry": { "type": "Point", "coordinates": [ 106.946099999502522, -6.401499999624783, 0.0 ] } },
{ "type": "Feature", "properties": { "NAMOBJ": "Infrastruktur Minyak dan Gas Bumi", "REMARK": "RS berlokasi di Kantor Desa Cikeas Udik", "STSJRN_res": "Eksisting" }, "geometry": { "type": "Point", "coordinates": [ 106.93090000002303, -6.399600000139844, 0.0 ] } },
{ "type": "Feature", "properties": { "NAMOBJ": "Infrastruktur Minyak dan Gas Bumi", "REMARK": "RS berlokasi di Legenda Wisata", "STSJRN_res": "Eksisting" }, "geometry": { "type": "Point", "coordinates": [ 106.943199999767614, -6.397299999294794, 0.0 ] } },
{ "type": "Feature", "properties": { "NAMOBJ": "Infrastruktur Minyak dan Gas Bumi", "REMARK": "RS berlokasi di Cibubur Country", "STSJRN_res": "Eksisting" }, "geometry": { "type": "Point", "coordinates": [ 106.937300000182816, -6.394299999444823, 0.0 ] } },
{ "type": "Feature", "properties": { "NAMOBJ": "Infrastruktur Minyak dan Gas Bumi", "REMARK": "RS berlokasi di Masjid Al Hijrah Cotton Wood", "STSJRN_res": "Eksisting" }, "geometry": { "type": "Point", "coordinates": [ 106.927599999828132, -6.393499999424817, 0.0 ] } },
{ "type": "Feature", "properties": { "NAMOBJ": "Infrastruktur Minyak dan Gas Bumi", "REMARK": "RS berlokasi di Kota Wisata", "STSJRN_res": "Eksisting" }, "geometry": { "type": "Point", "coordinates": [ 106.946499999962498, -6.389299999994765, 0.0 ] } },
{ "type": "Feature", "properties": { "NAMOBJ": "Infrastruktur Minyak dan Gas Bumi", "REMARK": "RS berlokasi di Taman Kenari Nusantara", "STSJRN_res": "Eksisting" }, "geometry": { "type": "Point", "coordinates": [ 106.942199999517612, -6.388699999304801, 0.0 ] } },
{ "type": "Feature", "properties": { "NAMOBJ": "Infrastruktur Minyak dan Gas Bumi", "REMARK": "RS berlokasi di Kantor Desa Nagrak", "STSJRN_res": "Eksisting" }, "geometry": { "type": "Point", "coordinates": [ 106.944200000017545, -6.387999999399772, 0.0 ] } },
{ "type": "Feature", "properties": { "NAMOBJ": "Infrastruktur Minyak dan Gas Bumi", "REMARK": "RS berlokasi di SDN Ciangsana 04", "STSJRN_res": "Eksisting" }, "geometry": { "type": "Point", "coordinates": [ 106.945599999827508, -6.369699999054777, 0.0 ] } },
{ "type": "Feature", "properties": { "NAMOBJ": "Infrastruktur Minyak dan Gas Bumi", "REMARK": "RS berlokasi di Kantor Desa Ciangsana", "STSJRN_res": "Eksisting" }, "geometry": { "type": "Point", "coordinates": [ 106.951999999987279, -6.368099999914759, 0.0 ] } },
{ "type": "Feature", "properties": { "NAMOBJ": "Infrastruktur Minyak dan Gas Bumi", "REMARK": "RS berlokasi di Masjid Jami Darussalam Kota Wisata", "STSJRN_res": "Eksisting" }, "geometry": { "type": "Point", "coordinates": [ 106.956299999532177, -6.365199999279749, 0.0 ] } },
{ "type": "Feature", "properties": { "NAMOBJ": "Infrastruktur Minyak dan Gas Bumi", "REMARK": "RS berlokasi di SDN Ciangsana 01", "STSJRN_res": "Eksisting" }, "geometry": { "type": "Point", "coordinates": [ 106.950399999947322, -6.363199999679755, 0.0 ] } },
{ "type": "Feature", "properties": { "NAMOBJ": "Infrastruktur Minyak dan Gas Bumi", "REMARK": "RS berlokasi di Kota Wisata", "STSJRN_res": "Eksisting" }, "geometry": { "type": "Point", "coordinates": [ 106.960499999862023, -6.349799999569745, 0.0 ] } },
{ "type": "Feature", "properties": { "NAMOBJ": "Infrastruktur Minyak dan Gas Bumi", "REMARK": "RS berlokasi di Masjid Baitussalam Vila Nusa Indah 5", "STSJRN_res": "Eksisting" }, "geometry": { "type": "Point", "coordinates": [ 106.968800000406702, -6.338199999729754, 0.0 ] } },
{ "type": "Feature", "properties": { "NAMOBJ": "Infrastruktur Minyak dan Gas Bumi", "REMARK": "RS berlokasi di Masjid Al Fath Villa Nusa Indah 3", "STSJRN_res": "Eksisting" }, "geometry": { "type": "Point", "coordinates": [ 106.963599999826911, -6.333599999839714, 0.0 ] } },
{ "type": "Feature", "properties": { "NAMOBJ": "Infrastruktur Minyak dan Gas Bumi", "REMARK": "RS berlokasi di SDN Bojong Kulur 02", "STSJRN_res": "Eksisting" }, "geometry": { "type": "Point", "coordinates": [ 106.968500000061681, -6.330099999414713, 0.0 ] } },
{ "type": "Feature", "properties": { "NAMOBJ": "Infrastruktur Minyak dan Gas Bumi", "REMARK": "RS berlokasi di SDN Bojong Kulur 03", "STSJRN_res": "Eksisting" }, "geometry": { "type": "Point", "coordinates": [ 106.966599999676774, -6.323999999599742, 0.0 ] } },
{ "type": "Feature", "properties": { "NAMOBJ": "Infrastruktur Minyak dan Gas Bumi", "REMARK": "RS berlokasi di Kantor Desa Bojong Kulur", "STSJRN_res": "Eksisting" }, "geometry": { "type": "Point", "coordinates": [ 106.968800000406688, -6.323100000364732, 0.0 ] } },
{ "type": "Feature", "properties": { "NAMOBJ": "Infrastruktur Minyak dan Gas Bumi", "REMARK": "RS berlokasi di SDN Bojong Kulur 01", "STSJRN_res": "Eksisting" }, "geometry": { "type": "Point", "coordinates": [ 106.968699999391674, -6.316799999419766, 0.0 ] } },
{ "type": "Feature", "properties": { "NAMOBJ": "Infrastruktur Minyak dan Gas Bumi", "REMARK": "RS berlokasi di Vila Nusa Indah 2", "STSJRN_res": "Eksisting" }, "geometry": { "type": "Point", "coordinates": [ 106.974199999416527, -6.31549999972469, 0.0 ] } },
{ "type": "Feature", "properties": { "NAMOBJ": "Infrastruktur Minyak dan Gas Bumi", "REMARK": "RS berlokasi di Masjid Al Munawaroh Jl. Kp. Bojong Kulur", "STSJRN_res": "Eksisting" }, "geometry": { "type": "Point", "coordinates": [ 106.963599999826897, -6.31409999991476, 0.0 ] } },
{ "type": "Feature", "properties": { "NAMOBJ": "Infrastruktur Minyak dan Gas Bumi", "REMARK": "RS berlokasi di SDN Bojong Kulur 04", "STSJRN_res": "Eksisting" }, "geometry": { "type": "Point", "coordinates": [ 106.967800000156686, -6.307699999754747, 0.0 ] } },
{ "type": "Feature", "properties": { "NAMOBJ": "Infrastruktur Minyak dan Gas Bumi", "REMARK": "RS berlokasi di Vila Nusa Indah", "STSJRN_res": "Eksisting" }, "geometry": { "type": "Point", "coordinates": [ 106.971199999566608, -6.306899999734713, 0.0 ] } },
{ "type": "Feature", "properties": { "NAMOBJ": "Pembangkit Listrik Tenaga Surya (PLTS)", "REMARK": "PLTS SMKN 1 CIOMAS", "STSJRN_res": "Rencana" }, "geometry": { "type": "Point", "coordinates": [ 106.758599999882676, -6.586000000300069, 0.0 ] } },
{ "type": "Feature", "properties": { "NAMOBJ": "Pembangkit Listrik Tenaga Surya (PLTS)", "REMARK": "PLTS SMKN 1 KEMANG", "STSJRN_res": "Rencana" }, "geometry": { "type": "Point", "coordinates": [ 106.748100000407845, -6.500399999960101, 0.0 ] } },
{ "type": "Feature", "properties": { "NAMOBJ": "Pembangkit Listrik Tenaga Surya (PLTS)", "REMARK": "PLTS SMKN 1 BOJONG GEDE", "STSJRN_res": "Rencana" }, "geometry": { "type": "Point", "coordinates": [ 106.771699999647367, -6.490400000160058, 0.0 ] } },
{ "type": "Feature", "properties": { "NAMOBJ": "Pembangkit Listrik Tenaga Surya (PLTS)", "REMARK": "PLTS SMKN 1 GUNUNGPUTRI", "STSJRN_res": "Rencana" }, "geometry": { "type": "Point", "coordinates": [ 106.940099999802726, -6.423900000184771, 0.0 ] } },
{ "type": "Feature", "properties": { "NAMOBJ": "Pembangkit Listrik Tenaga Surya (PLTS)", "REMARK": "PLTS SMKN 1 CILEUNGSI", "STSJRN_res": "Rencana" }, "geometry": { "type": "Point", "coordinates": [ 107.018903999704904, -6.431972000107112, 0.0 ] } },
{ "type": "Feature", "properties": { "NAMOBJ": "Pembangkit Listrik Tenaga Surya (PLTS)", "REMARK": "PLTS SMKN 1 CIBINONG", "STSJRN_res": "Rencana" }, "geometry": { "type": "Point", "coordinates": [ 106.807699999646488, -6.521999999600005, 0.0 ] } },
{ "type": "Feature", "properties": { "NAMOBJ": "Pembangkit Listrik Tenaga Mikro Hidro (PLTMH)", "REMARK": "PLTMH Cianten 1", "STSJRN_res": "Eksisting" }, "geometry": { "type": "Point", "coordinates": [ 106.637458000879931, -6.685097400925177, 0.0 ] } },
{ "type": "Feature", "properties": { "NAMOBJ": "Pembangkit Listrik Tenaga Mikro Hidro (PLTMH)", "REMARK": "PLTMH Cianten 2", "STSJRN_res": "Eksisting" }, "geometry": { "type": "Point", "coordinates": [ 106.630365200787537, -6.66995740061269, 0.0 ] } },
{ "type": "Feature", "properties": { "NAMOBJ": "Pembangkit Listrik Tenaga Mikro Hidro (PLTMH)", "REMARK": "PLTMH Cianten 1B", "STSJRN_res": "Eksisting" }, "geometry": { "type": "Point", "coordinates": [ 106.640930298589865, -6.702083999877713, 0.0 ] } },
{ "type": "Feature", "properties": { "NAMOBJ": "Pembangkit Listrik Tenaga Mikro Hidro (PLTMH)", "REMARK": "PLTMH Cianten 3", "STSJRN_res": "Eksisting" }, "geometry": { "type": "Point", "coordinates": [ 106.632426499977512, -6.645933300880219, 0.0 ] } },
{ "type": "Feature", "properties": { "NAMOBJ": "Gardu Listrik", "REMARK": "Gardu Induk Cileungsi II/Jonggol", "STSJRN_res": "Eksisting" }, "geometry": { "type": "Point", "coordinates": [ 107.064017940658061, -6.440516118024466, 0.0 ] } },
{ "type": "Feature", "properties": { "NAMOBJ": "Gardu Listrik", "REMARK": "Gardu Induk ITP", "STSJRN_res": "Rencana" }, "geometry": { "type": "Point", "coordinates": [ 106.894288999726683, -6.477731999632398, 0.0 ] } },
{ "type": "Feature", "properties": { "NAMOBJ": "Gardu Listrik", "REMARK": "Gardu Induk Bunar Baru", "STSJRN_res": "Rencana" }, "geometry": { "type": "Point", "coordinates": [ 106.497110000224311, -6.517669999570274, 0.0 ] } },
{ "type": "Feature", "properties": { "NAMOBJ": "Gardu Listrik", "REMARK": "Gardu Induk Cijayanti", "STSJRN_res": "Rencana" }, "geometry": { "type": "Point", "coordinates": [ 106.535590000373872, -6.648330000430272, 0.0 ] } },
{ "type": "Feature", "properties": { "NAMOBJ": "Gardu Listrik", "REMARK": "Gardu Induk Cibeber", "STSJRN_res": "Rencana" }, "geometry": { "type": "Point", "coordinates": [ 106.6124499996628, -6.580990000387708, 0.0 ] } },
{ "type": "Feature", "properties": { "NAMOBJ": "Gardu Listrik", "REMARK": "Gardu Induk Kracak Baru", "STSJRN_res": "Rencana" }, "geometry": { "type": "Point", "coordinates": [ 106.643769999679805, -6.617060000020187, 0.0 ] } },
{ "type": "Feature", "properties": { "NAMOBJ": "Gardu Listrik", "REMARK": "Gardu Induk Sawangan", "STSJRN_res": "Rencana" }, "geometry": { "type": "Point", "coordinates": [ 106.691359999958991, -6.459029999635156, 0.0 ] } },
{ "type": "Feature", "properties": { "NAMOBJ": "Gardu Listrik", "REMARK": "Gardu Induk Cimanggis II", "STSJRN_res": "Rencana" }, "geometry": { "type": "Point", "coordinates": [ 106.800070000321668, -6.462810000380029, 0.0 ] } },
{ "type": "Feature", "properties": { "NAMOBJ": "Gardu Listrik", "REMARK": "Gardu Induk Jonggol", "STSJRN_res": "Rencana" }, "geometry": { "type": "Point", "coordinates": [ 107.050000000183644, -6.427880000262033, 0.0 ] } },
{ "type": "Feature", "properties": { "NAMOBJ": "Gardu Listrik", "REMARK": "Gardu Induk Cileungsi III", "STSJRN_res": "Rencana" }, "geometry": { "type": "Point", "coordinates": [ 107.050519999881146, -6.434829999704522, 0.0 ] } },
{ "type": "Feature", "properties": { "NAMOBJ": "Gardu Listrik", "REMARK": "Gardu Induk Cibinong II", "STSJRN_res": "Rencana" }, "geometry": { "type": "Point", "coordinates": [ 106.917579737403443, -6.433134448494864, 0.0 ] } },
{ "type": "Feature", "properties": { "NAMOBJ": "Gardu Listrik", "REMARK": "Gardu Induk Cileungsi IV", "STSJRN_res": "Rencana" }, "geometry": { "type": "Point", "coordinates": [ 106.986552967431081, -6.372292717534696, 0.0 ] } },
{ "type": "Feature", "properties": { "NAMOBJ": "Gardu Listrik", "REMARK": "Gardu Induk Citeureup", "STSJRN_res": "Rencana" }, "geometry": { "type": "Point", "coordinates": [ 106.896776997549082, -6.459020387679901, 0.0 ] } },
{ "type": "Feature", "properties": { "NAMOBJ": "Gardu Listrik", "REMARK": "Gardu Induk Sukajaya", "STSJRN_res": "Rencana" }, "geometry": { "type": "Point", "coordinates": [ 106.455488758097232, -6.666174259435332, 0.0 ] } },
{ "type": "Feature", "properties": { "NAMOBJ": "Gardu Listrik", "REMARK": "Gardu Induk Cisolok", "STSJRN_res": "Rencana" }, "geometry": { "type": "Point", "coordinates": [ 106.656397641332134, -6.73600332929017, 0.0 ] } },
{ "type": "Feature", "properties": { "NAMOBJ": "Gardu Listrik", "REMARK": "Gardu Induk Gunung Salak", "STSJRN_res": "Rencana" }, "geometry": { "type": "Point", "coordinates": [ 106.648312183954786, -6.741663902367717, 0.0 ] } },
{ "type": "Feature", "properties": { "NAMOBJ": "Gardu Listrik", "REMARK": "Gardu Induk Nambo", "STSJRN_res": "Rencana" }, "geometry": { "type": "Point", "coordinates": [ 106.929418387635607, -6.473200116192325, 0.0 ] } },
{ "type": "Feature", "properties": { "NAMOBJ": "Pembangkit Listrik Tenaga Mikro Hidro (PLTMH)", "REMARK": "PLTMH Cipayung", "STSJRN_res": "Eksisting" }, "geometry": { "type": "Point", "coordinates": [ 106.888541661856934, -6.654384667217418, 0.0 ] } },
{ "type": "Feature", "properties": { "NAMOBJ": "Pembangkit Listrik Tenaga Surya (PLTS)", "REMARK": "PLTS Atap Pondok Pesantren Nurul Ummah", "STSJRN_res": "Rencana" }, "geometry": { "type": "Point", "coordinates": [ 106.693259261998932, -6.557536912597685, 0.0 ] } },
{ "type": "Feature", "properties": { "NAMOBJ": "Pembangkit Listrik Tenaga Surya (PLTS)", "REMARK": "PLTS Atap Pondok Pesantren Modern Ummul Quro Al Islami", "STSJRN_res": "Rencana" }, "geometry": { "type": "Point", "coordinates": [ 106.637405018222452, -6.58034376735018, 0.0 ] } },
{ "type": "Feature", "properties": { "NAMOBJ": "Pembangkit Listrik Tenaga Surya (PLTS)", "REMARK": "PLTS Atap PT. Indesso Aroma Bogor", "STSJRN_res": "Eksisting" }, "geometry": { "type": "Point", "coordinates": [ 106.954999999987194, -6.388999999999766, 0.0 ] } },
{ "type": "Feature", "properties": { "NAMOBJ": "Pembangkit Listrik Tenaga Surya (PLTS)", "REMARK": "PLTS Gedung Gunung Sindur P3TKEBTKE KESDM #1", "STSJRN_res": "Eksisting" }, "geometry": { "type": "Point", "coordinates": [ 106.698999999993831, -6.361130000000158, 0.0 ] } },
{ "type": "Feature", "properties": { "NAMOBJ": "Pembangkit Listrik Tenaga Surya (PLTS)", "REMARK": "PLTS Terpusat Sukaraksa", "STSJRN_res": "Eksisting" }, "geometry": { "type": "Point", "coordinates": [ 107.086999999982169, -6.60741999999936, 0.0 ] } },
{ "type": "Feature", "properties": { "NAMOBJ": "Pembangkit Listrik Tenaga Surya (PLTS)", "REMARK": "PLTS Atap Aqua Ciherang Plant", "STSJRN_res": "Eksisting" }, "geometry": { "type": "Point", "coordinates": [ 106.833179999990961, -6.69881, 0.0 ] } },
{ "type": "Feature", "properties": { "NAMOBJ": "Pembangkit Listrik Tenaga Gas (PLTG)", "REMARK": "PLTG Indocement Tunggal Prakarsa", "STSJRN_res": "Eksisting" }, "geometry": { "type": "Point", "coordinates": [ 106.897999999989096, -6.486669999999886, 0.0 ] } },
{ "type": "Feature", "properties": { "NAMOBJ": "Pembangkit Listrik Tenaga Mikro Hidro (PLTMH)", "REMARK": "PLTMH Ciesek", "STSJRN_res": "Eksisting" }, "geometry": { "type": "Point", "coordinates": [ 106.952570310459905, -6.649088113624745, 0.0 ] } },
{ "type": "Feature", "properties": { "NAMOBJ": "Pembangkit Listrik Tenaga Mikro Hidro (PLTMH)", "REMARK": "PLTMH Ciberang", "STSJRN_res": "Eksisting" }, "geometry": { "type": "Point", "coordinates": [ 106.442497916242331, -6.592965366457824, 0.0 ] } }
]
}
