{
"type": "FeatureCollection",
"name": "Prasarana_Transportasi",
"crs": { "type": "name", "properties": { "name": "urn:ogc:def:crs:OGC:1.3:CRS84" } },
"features": [
{ "type": "Feature", "properties": { "NAMOBJ": "Terminal Barang", "REMARK": "Terminal Barang Cigombong", "STSJRN_res": "Rencana" }, "geometry": { "type": "Point", "coordinates": [ 106.802862240701714, -6.746183115090025, 0.0 ] } },
{ "type": "Feature", "properties": { "NAMOBJ": "Stasiun Penumpang", "REMARK": "Stasiun Cigombong", "STSJRN_res": "Pengembangan Eksisting" }, "geometry": { "type": "Point", "coordinates": [ 106.8032503614142, -6.742157627427525, 0.0 ] } },
{ "type": "Feature", "properties": { "NAMOBJ": "Stasiun Penumpang", "REMARK": "Stasiun Maseng", "STSJRN_res": "Pengembangan Eksisting" }, "geometry": { "type": "Point", "coordinates": [ 106.814451979306398, -6.70250843083251, 0.0 ] } },
{ "type": "Feature", "properties": { "NAMOBJ": "Stasiun Penumpang", "REMARK": "Stasiun Cibanon (LRT)", "STSJRN_res": "Rencana" }, "geometry": { "type": "Point", "coordinates": [ 106.835063803738379, -6.62041109549748, 0.0 ] } },
{ "type": "Feature", "properties": { "NAMOBJ": "Stasiun Penumpang", "REMARK": "Stasiun Cibanon (LoopLine)", "STSJRN_res": "Rencana" }, "geometry": { "type": "Point", "coordinates": [ 106.834666966673382, -6.619813239497468, 0.0 ] } },
{ "type": "Feature", "properties": { "NAMOBJ": "Stasiun Penumpang", "REMARK": "Stasiun Laladon", "STSJRN_res": "Rencana" }, "geometry": { "type": "Point", "coordinates": [ 106.753547024105245, -6.576523540597622, 0.0 ] } },
{ "type": "Feature", "properties": { "NAMOBJ": "Terminal Penumpang Tipe C", "REMARK": "Terminal Laladon", "STSJRN_res": "Pengembangan Eksisting" }, "geometry": { "type": "Point", "coordinates": [ 106.752908564482766, -6.576613288142572, 0.0 ] } },
{ "type": "Feature", "properties": { "NAMOBJ": "Terminal Penumpang Tipe B", "REMARK": "Terminal Leuwiliang", "STSJRN_res": "Pengembangan Eksisting" }, "geometry": { "type": "Point", "coordinates": [ 106.627678583637561, -6.570342901477703, 0.0 ] } },
{ "type": "Feature", "properties": { "NAMOBJ": "Stasiun Penumpang", "REMARK": "Stasiun Sentul Selatan (LoopLine)", "STSJRN_res": "Rencana" }, "geometry": { "type": "Point", "coordinates": [ 106.842722245165675, -6.569072370284998, 0.0 ] } },
{ "type": "Feature", "properties": { "NAMOBJ": "Stasiun Penumpang", "REMARK": "Stasiun Sentul Selatan (LRT)", "STSJRN_res": "Rencana" }, "geometry": { "type": "Point", "coordinates": [ 106.842631080538169, -6.568387727399987, 0.0 ] } },
{ "type": "Feature", "properties": { "NAMOBJ": "Bandar Udara Khusus", "REMARK": "Lanud Atang Sanjaya", "STSJRN_res": "Pengembangan Eksisting" }, "geometry": { "type": "Point", "coordinates": [ 106.755017266187735, -6.540612469132596, 0.0 ] } },
{ "type": "Feature", "properties": { "NAMOBJ": "Stasiun Penumpang", "REMARK": "Stasiun Sentul", "STSJRN_res": "Rencana" }, "geometry": { "type": "Point", "coordinates": [ 106.851554365155394, -6.539930814034976, 0.0 ] } },
{ "type": "Feature", "properties": { "NAMOBJ": "Stasiun Penumpang", "REMARK": "Stasiun Cilebut", "STSJRN_res": "Pengembangan Eksisting" }, "geometry": { "type": "Point", "coordinates": [ 106.800561149506663, -6.530564270555008, 0.0 ] } },
{ "type": "Feature", "properties": { "NAMOBJ": "Terminal Penumpang Tipe A", "REMARK": "Terminal Perkotaan Cibinong Baru", "STSJRN_res": "Rencana" }, "geometry": { "type": "Point", "coordinates": [ 106.800749350154163, -6.476392216477542, 0.0 ] } },
{ "type": "Feature", "properties": { "NAMOBJ": "Stasiun Penumpang", "REMARK": "Stasiun Bojonggede", "STSJRN_res": "Pengembangan Eksisting" }, "geometry": { "type": "Point", "coordinates": [ 106.794870594371801, -6.492747775250042, 0.0 ] } },
{ "type": "Feature", "properties": { "NAMOBJ": "Terminal Penumpang Tipe C", "REMARK": "Terminal Bojonggede", "STSJRN_res": "Pengembangan Eksisting" }, "geometry": { "type": "Point", "coordinates": [ 106.79345858917182, -6.491181306765026, 0.0 ] } },
{ "type": "Feature", "properties": { "NAMOBJ": "Terminal Penumpang Tipe C", "REMARK": "Terminal Jasinga", "STSJRN_res": "Pengembangan Eksisting" }, "geometry": { "type": "Point", "coordinates": [ 106.480314984659501, -6.486626342305273, 0.0 ] } },
{ "type": "Feature", "properties": { "NAMOBJ": "Stasiun Penumpang", "REMARK": "Susukan", "STSJRN_res": "Rencana" }, "geometry": { "type": "Point", "coordinates": [ 106.802490817874101, -6.477869434060013, 0.0 ] } },
{ "type": "Feature", "properties": { "NAMOBJ": "Stasiun Penumpang", "REMARK": "Stasiun Sukagalih", "STSJRN_res": "Rencana" }, "geometry": { "type": "Point", "coordinates": [ 107.092380442494331, -6.475343069514372, 0.0 ] } },
{ "type": "Feature", "properties": { "NAMOBJ": "Stasiun Penumpang", "REMARK": "Stasiun Karanggan", "STSJRN_res": "Rencana" }, "geometry": { "type": "Point", "coordinates": [ 106.881480383287055, -6.468272789764932, 0.0 ] } },
{ "type": "Feature", "properties": { "NAMOBJ": "Stasiun Barang", "REMARK": "Stasiun Barang Klapanunggal", "STSJRN_res": "Rencana" }, "geometry": { "type": "Point", "coordinates": [ 106.904959976853831, -6.468017349507342, 0.0 ] } },
{ "type": "Feature", "properties": { "NAMOBJ": "Stasiun Penumpang", "REMARK": "Stasiun Nambo", "STSJRN_res": "Pengembangan Eksisting" }, "geometry": { "type": "Point", "coordinates": [ 106.906125831988803, -6.466126678194858, 0.0 ] } },
{ "type": "Feature", "properties": { "NAMOBJ": "Stasiun Penumpang", "REMARK": "Stasiun Citayam", "STSJRN_res": "Pengembangan Eksisting" }, "geometry": { "type": "Point", "coordinates": [ 106.802223121716608, -6.44916658723756, 0.0 ] } },
{ "type": "Feature", "properties": { "NAMOBJ": "Stasiun Penumpang", "REMARK": "Stasiun Cimanggis", "STSJRN_res": "Rencana" }, "geometry": { "type": "Point", "coordinates": [ 106.894349556419129, -6.43197723931741, 0.0 ] } },
{ "type": "Feature", "properties": { "NAMOBJ": "Terminal Penumpang Tipe C", "REMARK": "Terminal Parungpanjang", "STSJRN_res": "Rencana" }, "geometry": { "type": "Point", "coordinates": [ 106.568990551978388, -6.342642721852732, 0.0 ] } },
{ "type": "Feature", "properties": { "NAMOBJ": "Stasiun Penumpang", "REMARK": "Stasiun Cileungsi", "STSJRN_res": "Rencana" }, "geometry": { "type": "Point", "coordinates": [ 106.97984529334633, -6.427343948464721, 0.0 ] } },
{ "type": "Feature", "properties": { "NAMOBJ": "Terminal Penumpang Tipe B", "REMARK": "Terminal Cileungsi", "STSJRN_res": "Pengembangan Eksisting" }, "geometry": { "type": "Point", "coordinates": [ 106.968892813314241, -6.407763569594706, 0.0 ] } },
{ "type": "Feature", "properties": { "NAMOBJ": "Bandar Udara Khusus", "REMARK": "Lanud Rumpin", "STSJRN_res": "Pengembangan Eksisting" }, "geometry": { "type": "Point", "coordinates": [ 106.62359528343012, -6.372715881525195, 0.0 ] } },
{ "type": "Feature", "properties": { "NAMOBJ": "Stasiun Penumpang", "REMARK": "Stasiun Cilejit", "STSJRN_res": "Pengembangan Eksisting" }, "geometry": { "type": "Point", "coordinates": [ 106.509620125894159, -6.354447124475243, 0.0 ] } },
{ "type": "Feature", "properties": { "NAMOBJ": "Stasiun Penumpang", "REMARK": "Stasiun Parungpanjang", "STSJRN_res": "Pengembangan Eksisting" }, "geometry": { "type": "Point", "coordinates": [ 106.569955234795856, -6.344096310727735, 0.0 ] } },
{ "type": "Feature", "properties": { "NAMOBJ": "Terminal Penumpang Tipe C", "REMARK": "Terminal Tenjo", "STSJRN_res": "Rencana" }, "geometry": { "type": "Point", "coordinates": [ 106.462348314262144, -6.327995704425299, 0.0 ] } },
{ "type": "Feature", "properties": { "NAMOBJ": "Stasiun Barang", "REMARK": "Stasiun Barang Tenjo", "STSJRN_res": "Rencana" }, "geometry": { "type": "Point", "coordinates": [ 106.462158053779646, -6.327917748455274, 0.0 ] } },
{ "type": "Feature", "properties": { "NAMOBJ": "Stasiun Penumpang", "REMARK": "Stasiun Tenjo", "STSJRN_res": "Pengembangan Eksisting" }, "geometry": { "type": "Point", "coordinates": [ 106.461472245754635, -6.327251166602782, 0.0 ] } },
{ "type": "Feature", "properties": { "NAMOBJ": "Stasiun Penumpang", "REMARK": "Stasiun Cigombong Baru", "STSJRN_res": "Rencana" }, "geometry": { "type": "Point", "coordinates": [ 106.803192516196702, -6.745254305562545, 0.0 ] } },
{ "type": "Feature", "properties": { "NAMOBJ": "Terminal Penumpang Tipe C", "REMARK": "Terminal Cibinong", "STSJRN_res": "Pengembangan Eksisting" }, "geometry": { "type": "Point", "coordinates": [ 106.854300630862809, -6.467676193942467, 0.0 ] } },
{ "type": "Feature", "properties": { "NAMOBJ": "Stasiun Penumpang", "REMARK": "Stasiun Kembang Kuning", "STSJRN_res": "Rencana" }, "geometry": { "type": "Point", "coordinates": [ 106.935975252575389, -6.453509521749793, 0.0 ] } },
{ "type": "Feature", "properties": { "NAMOBJ": "Stasiun Penumpang", "REMARK": "Stasiun Mampir", "STSJRN_res": "Rencana" }, "geometry": { "type": "Point", "coordinates": [ 107.004924156715433, -6.434990121847106, 0.0 ] } },
{ "type": "Feature", "properties": { "NAMOBJ": "Stasiun Penumpang", "REMARK": "Stasiun Jonggol", "STSJRN_res": "Rencana" }, "geometry": { "type": "Point", "coordinates": [ 107.053517043381007, -6.435674142011981, 0.0 ] } },
{ "type": "Feature", "properties": { "NAMOBJ": "Stasiun Penumpang", "REMARK": "Stasiun Antajaya", "STSJRN_res": "Rencana" }, "geometry": { "type": "Point", "coordinates": [ 107.17757054381272, -6.599576423461503, 0.0 ] } },
{ "type": "Feature", "properties": { "NAMOBJ": "Terminal Penumpang Tipe B", "REMARK": "Terminal Parung", "STSJRN_res": "Rencana" }, "geometry": { "type": "Point", "coordinates": [ 106.729956212818237, -6.425037479672603, 0.0 ] } },
{ "type": "Feature", "properties": { "NAMOBJ": "Terminal Penumpang Tipe C", "REMARK": "Terminal Jonggol", "STSJRN_res": "Rencana" }, "geometry": { "type": "Point", "coordinates": [ 107.065360152710539, -6.46207411585695, 0.0 ] } },
{ "type": "Feature", "properties": { "NAMOBJ": "Terminal Penumpang Tipe C", "REMARK": "Terminal Cigombong", "STSJRN_res": "Rencana" }, "geometry": { "type": "Point", "coordinates": [ 106.802801637656728, -6.747276788455029, 0.0 ] } },
{ "type": "Feature", "properties": { "NAMOBJ": "Terminal Penumpang Tipe C", "REMARK": "Terminal Ciawi", "STSJRN_res": "Rencana" }, "geometry": { "type": "Point", "coordinates": [ 106.845803877120588, -6.659618974652483, 0.0 ] } },
{ "type": "Feature", "properties": { "NAMOBJ": "Stasiun Penumpang", "REMARK": "Stasiun Arco", "STSJRN_res": "Rencana" }, "geometry": { "type": "Point", "coordinates": [ 106.732846374258187, -6.445509967817604, 0.0 ] } },
{ "type": "Feature", "properties": { "NAMOBJ": "Stasiun Penumpang", "REMARK": "Stasiun Parung", "STSJRN_res": "Rencana" }, "geometry": { "type": "Point", "coordinates": [ 106.712738370853558, -6.432023095095166, 0.0 ] } },
{ "type": "Feature", "properties": { "NAMOBJ": "Stasiun Penumpang", "REMARK": "Stasiun Cogreg", "STSJRN_res": "Rencana" }, "geometry": { "type": "Point", "coordinates": [ 106.694956067091411, -6.415808328642682, 0.0 ] } },
{ "type": "Feature", "properties": { "NAMOBJ": "Stasiun Penumpang", "REMARK": "Stasiun Gunungsindur", "STSJRN_res": "Rencana" }, "geometry": { "type": "Point", "coordinates": [ 106.653910364607114, -6.38340006998017, 0.0 ] } },
{ "type": "Feature", "properties": { "NAMOBJ": "Stasiun Penumpang", "REMARK": "Stasiun Rumpin", "STSJRN_res": "Rencana" }, "geometry": { "type": "Point", "coordinates": [ 106.632423831717489, -6.367410091742711, 0.0 ] } },
{ "type": "Feature", "properties": { "NAMOBJ": "Stasiun Penumpang", "REMARK": "Stasiun Gunungputri", "STSJRN_res": "Pengembangan Eksisting" }, "geometry": { "type": "Point", "coordinates": [ 106.88835284465685, -6.4717520181199, 0.0 ] } },
{ "type": "Feature", "properties": { "NAMOBJ": "Stasiun Penumpang", "REMARK": "Stasiun Cibinong", "STSJRN_res": "Pengembangan Eksisting" }, "geometry": { "type": "Point", "coordinates": [ 106.852593989925325, -6.464120621947433, 0.0 ] } },
{ "type": "Feature", "properties": { "NAMOBJ": "Stasiun Penumpang", "REMARK": "Stasiun Jatisari", "STSJRN_res": "Rencana" }, "geometry": { "type": "Point", "coordinates": [ 107.051243537651104, -6.408836106127022, 0.0 ] } },
{ "type": "Feature", "properties": { "NAMOBJ": "Stasiun Penumpang", "REMARK": "Stasiun Cibatutiga", "STSJRN_res": "Rencana" }, "geometry": { "type": "Point", "coordinates": [ 107.125405032110336, -6.522774126291749, 0.0 ] } },
{ "type": "Feature", "properties": { "NAMOBJ": "Jembatan Timbang", "REMARK": "Jembatan Timbang Kemang", "STSJRN_res": "Eksisting" }, "geometry": { "type": "Point", "coordinates": [ 106.757964449090196, -6.519146466940112, 0.0 ] } }
]
}
