{
"type": "FeatureCollection",
"name": "Prasarana_Lainnya",
"crs": { "type": "name", "properties": { "name": "urn:ogc:def:crs:OGC:1.3:CRS84" } },
"features": [
{ "type": "Feature", "properties": { "NAMOBJ": "Infrastruktur Sistem Pengelolaan Air Limbah Domestik", "REMARK": "SPALD Bojonggede", "ORDE01_res": "Sistem Pengelolaan Air Limbah (SPAL)", "STSJRN_res": "Eksisting" }, "geometry": { "type": "MultiPoint", "coordinates": [ [ 106.806670246610466, -6.488402956138978, 0.0 ] ] } },
{ "type": "Feature", "properties": { "NAMOBJ": "Infrastruktur Sistem Pengelolaan Air Limbah Domestik", "REMARK": "SPALD Cibinong", "ORDE01_res": "Sistem Pengelolaan Air Limbah (SPAL)", "STSJRN_res": "Eksisting" }, "geometry": { "type": "MultiPoint", "coordinates": [ [ 106.859499584293147, -6.486172982679535, 0.0 ] ] } },
{ "type": "Feature", "properties": { "NAMOBJ": "Infrastruktur Sistem Pengelolaan Air Limbah Domestik", "REMARK": "SPALD Ciomas Rahayu", "ORDE01_res": "Sistem Pengelolaan Air Limbah (SPAL)", "STSJRN_res": "Eksisting" }, "geometry": { "type": "MultiPoint", "coordinates": [ [ 106.761637160641911, -6.582992727148206, 0.0 ] ] } },
{ "type": "Feature", "properties": { "NAMOBJ": "Infrastruktur Sistem Pengelolaan Air Limbah Domestik", "REMARK": "SPALD Tlajung Udik", "ORDE01_res": "Sistem Pengelolaan Air Limbah (SPAL)", "STSJRN_res": "Eksisting" }, "geometry": { "type": "MultiPoint", "coordinates": [ [ 106.926441368047563, -6.447861104745601, 0.0 ] ] } },
{ "type": "Feature", "properties": { "NAMOBJ": "Sistem Pengelolaan Limbah Bahan Berbahaya dan Beracun (B3)", "REMARK": "PT Prasadha Pamunah Limbah Industri - PPLI", "ORDE01_res": "Sistem Pengelolaan Limbah Bahan Berbahaya dan Beracun (B3)", "STSJRN_res": "Eksisting" }, "geometry": { "type": "MultiPoint", "coordinates": [ [ 106.923949205952894, -6.469866872648078, 0.0 ] ] } },
{ "type": "Feature", "properties": { "NAMOBJ": "Sistem Pengelolaan Limbah Bahan Berbahaya dan Beracun (B3)", "REMARK": "PT. Hijau Lestari Prakarsa Utama", "ORDE01_res": "Sistem Pengelolaan Limbah Bahan Berbahaya dan Beracun (B3)", "STSJRN_res": "Eksisting" }, "geometry": { "type": "MultiPoint", "coordinates": [ [ 107.092939717403539, -6.45316442183592, 0.0 ] ] } },
{ "type": "Feature", "properties": { "NAMOBJ": "Tempat Pemrosesan Akhir (TPA)", "REMARK": "TPA Galuga", "ORDE01_res": "Sistem Jaringan Persampahan", "STSJRN_res": "Eksisting" }, "geometry": { "type": "MultiPoint", "coordinates": [ [ 106.643211332709896, -6.565832982605258, 0.0 ] ] } },
{ "type": "Feature", "properties": { "NAMOBJ": "Tempat Pemrosesan Akhir (TPA)", "REMARK": "TPPAS Regional Lulut Nambo", "ORDE01_res": "Sistem Jaringan Persampahan", "STSJRN_res": "Rencana" }, "geometry": { "type": "MultiPoint", "coordinates": [ [ 106.935329100795073, -6.486599088211201, 0.0 ] ] } },
{ "type": "Feature", "properties": { "NAMOBJ": "Unit Air Baku", "REMARK": "Cikeas Hulu Dan Hilir", "ORDE01_res": "Sistem Penyediaan Air Minum (SPAM)", "STSJRN_res": "Rencana" }, "geometry": { "type": "MultiPoint", "coordinates": [ [ 106.852083331959577, -6.596250000122248, 0.0 ] ] } },
{ "type": "Feature", "properties": { "NAMOBJ": "Unit Air Baku", "REMARK": "Cisadane Hulu", "ORDE01_res": "Sistem Penyediaan Air Minum (SPAM)", "STSJRN_res": "Rencana" }, "geometry": { "type": "MultiPoint", "coordinates": [ [ 106.82866666964739, -6.755472221473717, 0.0 ] ] } },
{ "type": "Feature", "properties": { "NAMOBJ": "Unit Air Baku", "REMARK": "Damkarian (Lokasi Ipa)", "ORDE01_res": "Sistem Penyediaan Air Minum (SPAM)", "STSJRN_res": "Rencana" }, "geometry": { "type": "MultiPoint", "coordinates": [ [ 106.549202779029557, -6.365025000719832, 0.0 ] ] } },
{ "type": "Feature", "properties": { "NAMOBJ": "Unit Air Baku", "REMARK": "Inst. Bukit Golf", "ORDE01_res": "Sistem Penyediaan Air Minum (SPAM)", "STSJRN_res": "Eksisting" }, "geometry": { "type": "MultiPoint", "coordinates": [ [ 106.906266699946599, -6.41419439984139, 0.0 ] ] } },
{ "type": "Feature", "properties": { "NAMOBJ": "Unit Air Baku", "REMARK": "Inst. Cariu", "ORDE01_res": "Sistem Penyediaan Air Minum (SPAM)", "STSJRN_res": "Eksisting" }, "geometry": { "type": "MultiPoint", "coordinates": [ [ 107.140098000179336, -6.506959000238647, 0.0 ] ] } },
{ "type": "Feature", "properties": { "NAMOBJ": "Unit Air Baku", "REMARK": "Inst. Cibinong", "ORDE01_res": "Sistem Penyediaan Air Minum (SPAM)", "STSJRN_res": "Eksisting" }, "geometry": { "type": "MultiPoint", "coordinates": [ [ 106.815400000399265, -6.482930000780168, 0.0 ] ] } },
{ "type": "Feature", "properties": { "NAMOBJ": "Unit Air Baku", "REMARK": "Inst. Ciherang Pondok", "ORDE01_res": "Sistem Penyediaan Air Minum (SPAM)", "STSJRN_res": "Eksisting" }, "geometry": { "type": "MultiPoint", "coordinates": [ [ 106.826158000756166, -6.695817000949525, 0.0 ] ] } },
{ "type": "Feature", "properties": { "NAMOBJ": "Unit Air Baku", "REMARK": "Inst. Citra Indah (Baru)", "ORDE01_res": "Sistem Penyediaan Air Minum (SPAM)", "STSJRN_res": "Eksisting" }, "geometry": { "type": "MultiPoint", "coordinates": [ [ 107.049961000471043, -6.44083100022572, 0.0 ] ] } },
{ "type": "Feature", "properties": { "NAMOBJ": "Unit Air Baku", "REMARK": "Inst. Gunung Putri", "ORDE01_res": "Sistem Penyediaan Air Minum (SPAM)", "STSJRN_res": "Eksisting" }, "geometry": { "type": "MultiPoint", "coordinates": [ [ 106.964077799905752, -6.327272199855219, 0.0 ] ] } },
{ "type": "Feature", "properties": { "NAMOBJ": "Unit Air Baku", "REMARK": "Inst. Kujang / Jonggol", "ORDE01_res": "Sistem Penyediaan Air Minum (SPAM)", "STSJRN_res": "Eksisting" }, "geometry": { "type": "MultiPoint", "coordinates": [ [ 107.071424999899321, -6.476100000418396, 0.0 ] ] } },
{ "type": "Feature", "properties": { "NAMOBJ": "Unit Air Baku", "REMARK": "Inst. Rumpin", "ORDE01_res": "Sistem Penyediaan Air Minum (SPAM)", "STSJRN_res": "Eksisting" }, "geometry": { "type": "MultiPoint", "coordinates": [ [ 106.646905599713108, -6.382688900656531, 0.0 ] ] } },
{ "type": "Feature", "properties": { "NAMOBJ": "Unit Air Baku", "REMARK": "Inst. Tajur Halang", "ORDE01_res": "Sistem Penyediaan Air Minum (SPAM)", "STSJRN_res": "Eksisting" }, "geometry": { "type": "MultiPoint", "coordinates": [ [ 106.734325001493886, -6.463594000151589, 0.0 ] ] } },
{ "type": "Feature", "properties": { "NAMOBJ": "Unit Air Baku", "REMARK": "Inst. Vimalla Hills", "ORDE01_res": "Sistem Penyediaan Air Minum (SPAM)", "STSJRN_res": "Eksisting" }, "geometry": { "type": "MultiPoint", "coordinates": [ [ 106.876293999239337, -6.673347000525212, 0.0 ] ] } },
{ "type": "Feature", "properties": { "NAMOBJ": "Unit Air Baku", "REMARK": "Ma. Binong", "ORDE01_res": "Sistem Penyediaan Air Minum (SPAM)", "STSJRN_res": "Eksisting" }, "geometry": { "type": "MultiPoint", "coordinates": [ [ 106.734497200353886, -6.609680556344432, 0.0 ] ] } },
{ "type": "Feature", "properties": { "NAMOBJ": "Unit Air Baku", "REMARK": "Ma. Brujul", "ORDE01_res": "Sistem Penyediaan Air Minum (SPAM)", "STSJRN_res": "Eksisting" }, "geometry": { "type": "MultiPoint", "coordinates": [ [ 106.938771999088218, -6.682158000019165, 0.0 ] ] } },
{ "type": "Feature", "properties": { "NAMOBJ": "Unit Air Baku", "REMARK": "Ma. Ciampea", "ORDE01_res": "Sistem Penyediaan Air Minum (SPAM)", "STSJRN_res": "Eksisting" }, "geometry": { "type": "MultiPoint", "coordinates": [ [ 106.687722000358576, -6.588006000115861, 0.0 ] ] } },
{ "type": "Feature", "properties": { "NAMOBJ": "Unit Air Baku", "REMARK": "Ma. Cibedug / Cisalada", "ORDE01_res": "Sistem Penyediaan Air Minum (SPAM)", "STSJRN_res": "Eksisting" }, "geometry": { "type": "MultiPoint", "coordinates": [ [ 106.884292000727555, -6.701472001181366, 0.0 ] ] } },
{ "type": "Feature", "properties": { "NAMOBJ": "Unit Air Baku", "REMARK": "Ma. Cibogo 1", "ORDE01_res": "Sistem Penyediaan Air Minum (SPAM)", "STSJRN_res": "Rencana" }, "geometry": { "type": "MultiPoint", "coordinates": [ [ 106.784111111088677, -6.737250000198478, 0.0 ] ] } },
{ "type": "Feature", "properties": { "NAMOBJ": "Unit Air Baku", "REMARK": "Ma. Cibogo 2", "ORDE01_res": "Sistem Penyediaan Air Minum (SPAM)", "STSJRN_res": "Rencana" }, "geometry": { "type": "MultiPoint", "coordinates": [ [ 106.782777776805219, -6.744138889137852, 0.0 ] ] } },
{ "type": "Feature", "properties": { "NAMOBJ": "Unit Air Baku", "REMARK": "Ma. Ciburial", "ORDE01_res": "Sistem Penyediaan Air Minum (SPAM)", "STSJRN_res": "Eksisting" }, "geometry": { "type": "MultiPoint", "coordinates": [ [ 106.760694401264445, -6.6148638892473, 0.0 ] ] } },
{ "type": "Feature", "properties": { "NAMOBJ": "Unit Air Baku", "REMARK": "Ma. Cijeruk / Cikiara", "ORDE01_res": "Sistem Penyediaan Air Minum (SPAM)", "STSJRN_res": "Eksisting" }, "geometry": { "type": "MultiPoint", "coordinates": [ [ 106.787822001794055, -6.703753000268768, 0.0 ] ] } },
{ "type": "Feature", "properties": { "NAMOBJ": "Unit Air Baku", "REMARK": "Ma. Cikaemasan", "ORDE01_res": "Sistem Penyediaan Air Minum (SPAM)", "STSJRN_res": "Rencana" }, "geometry": { "type": "MultiPoint", "coordinates": [ [ 106.985555558981517, -6.710277778821915, 0.0 ] ] } },
{ "type": "Feature", "properties": { "NAMOBJ": "Unit Air Baku", "REMARK": "Ma. Cikahuripan", "ORDE01_res": "Sistem Penyediaan Air Minum (SPAM)", "STSJRN_res": "Eksisting" }, "geometry": { "type": "MultiPoint", "coordinates": [ [ 106.743586100126649, -6.631872221186581, 0.0 ] ] } },
{ "type": "Feature", "properties": { "NAMOBJ": "Unit Air Baku", "REMARK": "Ma. Cikareo", "ORDE01_res": "Sistem Penyediaan Air Minum (SPAM)", "STSJRN_res": "Rencana" }, "geometry": { "type": "MultiPoint", "coordinates": [ [ 106.716861110662904, -6.645277777749834, 0.0 ] ] } },
{ "type": "Feature", "properties": { "NAMOBJ": "Unit Air Baku", "REMARK": "Ma. Citiis", "ORDE01_res": "Sistem Penyediaan Air Minum (SPAM)", "STSJRN_res": "Eksisting" }, "geometry": { "type": "MultiPoint", "coordinates": [ [ 106.791389000674457, -6.71518300126846, 0.0 ] ] } },
{ "type": "Feature", "properties": { "NAMOBJ": "Unit Air Baku", "REMARK": "Ma. Gsp (Gunung Salak Permai)", "ORDE01_res": "Sistem Penyediaan Air Minum (SPAM)", "STSJRN_res": "Eksisting" }, "geometry": { "type": "MultiPoint", "coordinates": [ [ 106.919186001004135, -6.654266999863827, 0.0 ] ] } },
{ "type": "Feature", "properties": { "NAMOBJ": "Unit Air Baku", "REMARK": "Ma. Sodong", "ORDE01_res": "Sistem Penyediaan Air Minum (SPAM)", "STSJRN_res": "Eksisting" }, "geometry": { "type": "MultiPoint", "coordinates": [ [ 106.98873299980859, -6.484567000312611, 0.0 ] ] } },
{ "type": "Feature", "properties": { "NAMOBJ": "Unit Air Baku", "REMARK": "S Kalibaru", "ORDE01_res": "Sistem Penyediaan Air Minum (SPAM)", "STSJRN_res": "Rencana" }, "geometry": { "type": "MultiPoint", "coordinates": [ [ 106.821583331918532, -6.473638889354918, 0.0 ] ] } },
{ "type": "Feature", "properties": { "NAMOBJ": "Unit Air Baku", "REMARK": "S. Angke", "ORDE01_res": "Sistem Penyediaan Air Minum (SPAM)", "STSJRN_res": "Rencana" }, "geometry": { "type": "MultiPoint", "coordinates": [ [ 106.733888889983746, -6.46361111160964, 0.0 ] ] } },
{ "type": "Feature", "properties": { "NAMOBJ": "Unit Air Baku", "REMARK": "S. Ciaruteun/Ma Cinangneng", "ORDE01_res": "Sistem Penyediaan Air Minum (SPAM)", "STSJRN_res": "Rencana" }, "geometry": { "type": "MultiPoint", "coordinates": [ [ 106.668722221343458, -6.568805558032442, 0.0 ] ] } },
{ "type": "Feature", "properties": { "NAMOBJ": "Unit Air Baku", "REMARK": "S. Cidurian", "ORDE01_res": "Sistem Penyediaan Air Minum (SPAM)", "STSJRN_res": "Rencana" }, "geometry": { "type": "MultiPoint", "coordinates": [ [ 106.428861111713672, -6.349805557331298, 0.0 ] ] } },
{ "type": "Feature", "properties": { "NAMOBJ": "Unit Air Baku", "REMARK": "S. Cileungsi", "ORDE01_res": "Sistem Penyediaan Air Minum (SPAM)", "STSJRN_res": "Rencana" }, "geometry": { "type": "MultiPoint", "coordinates": [ [ 106.907222223479195, -6.457972222614178, 0.0 ] ] } },
{ "type": "Feature", "properties": { "NAMOBJ": "Unit Air Baku", "REMARK": "S. Citeureup (Bendung Cibongas)", "ORDE01_res": "Sistem Penyediaan Air Minum (SPAM)", "STSJRN_res": "Rencana" }, "geometry": { "type": "MultiPoint", "coordinates": [ [ 106.792972220946595, -6.715499999936459, 0.0 ] ] } },
{ "type": "Feature", "properties": { "NAMOBJ": "Unit Air Baku", "REMARK": "S. Sukabirus", "ORDE01_res": "Sistem Penyediaan Air Minum (SPAM)", "STSJRN_res": "Rencana" }, "geometry": { "type": "MultiPoint", "coordinates": [ [ 106.908611109964383, -6.700000000339061, 0.0 ] ] } },
{ "type": "Feature", "properties": { "NAMOBJ": "Unit Air Baku", "REMARK": "Sb. Cileungsi / Agrowisata", "ORDE01_res": "Sistem Penyediaan Air Minum (SPAM)", "STSJRN_res": "Eksisting" }, "geometry": { "type": "MultiPoint", "coordinates": [ [ 106.997939000509419, -6.409303000487895, 0.0 ] ] } },
{ "type": "Feature", "properties": { "NAMOBJ": "Unit Air Baku", "REMARK": "Sb. Kota Wisata Blok P", "ORDE01_res": "Sistem Penyediaan Air Minum (SPAM)", "STSJRN_res": "Eksisting" }, "geometry": { "type": "MultiPoint", "coordinates": [ [ 106.960983299468651, -6.381280601122252, 0.0 ] ] } },
{ "type": "Feature", "properties": { "NAMOBJ": "Unit Air Baku", "REMARK": "Sb. Legenda Wisata", "ORDE01_res": "Sistem Penyediaan Air Minum (SPAM)", "STSJRN_res": "Eksisting" }, "geometry": { "type": "MultiPoint", "coordinates": [ [ 106.940919401584068, -6.396838899914107, 0.0 ] ] } },
{ "type": "Feature", "properties": { "NAMOBJ": "Unit Air Baku", "REMARK": "Sb. Limus Nunggal", "ORDE01_res": "Sistem Penyediaan Air Minum (SPAM)", "STSJRN_res": "Eksisting" }, "geometry": { "type": "MultiPoint", "coordinates": [ [ 106.974473200300039, -6.36475580131519, 0.0 ] ] } },
{ "type": "Feature", "properties": { "NAMOBJ": "Unit Air Baku", "REMARK": "Sb. Vimalla Hills", "ORDE01_res": "Sistem Penyediaan Air Minum (SPAM)", "STSJRN_res": "Eksisting" }, "geometry": { "type": "MultiPoint", "coordinates": [ [ 106.876293999239337, -6.673347000525212, 0.0 ] ] } },
{ "type": "Feature", "properties": { "NAMOBJ": "Unit Air Baku", "REMARK": "Tidak Ada", "ORDE01_res": "Sistem Penyediaan Air Minum (SPAM)", "STSJRN_res": "Eksisting" }, "geometry": { "type": "MultiPoint", "coordinates": [ [ 106.833275000007845, -6.697950001314573, 0.0 ], [ 106.837593999097152, -6.523989000368783, 0.0 ], [ 106.843930731608879, -6.520369762735871, 0.0 ], [ 106.847353001322062, -6.685661001234881, 0.0 ], [ 106.860156000398504, -6.675877999724433, 0.0 ], [ 106.87884700009019, -6.492753000524491, 0.0 ], [ 106.956691700294613, -6.36364440105735, 0.0 ], [ 107.04964299965954, -6.441153999501686, 0.0 ] ] } },
{ "type": "Feature", "properties": { "NAMOBJ": "Unit Air Baku", "REMARK": "Unit Air Baku Persemaian Rumpin", "ORDE01_res": "Sistem Penyediaan Air Minum (SPAM)", "STSJRN_res": "Eksisting" }, "geometry": { "type": "MultiPoint", "coordinates": [ [ 106.634708637079967, -6.435599809775735, 0.0 ] ] } },
{ "type": "Feature", "properties": { "NAMOBJ": "Unit Produksi", "REMARK": "Inst. Ciboboko / Parung Panjang", "ORDE01_res": "Sistem Penyediaan Air Minum (SPAM)", "STSJRN_res": "Eksisting" }, "geometry": { "type": "MultiPoint", "coordinates": [ [ 106.589005600971234, -6.358658300101818, 0.0 ] ] } },
{ "type": "Feature", "properties": { "NAMOBJ": "Unit Produksi", "REMARK": "Inst. Cibungbulang", "ORDE01_res": "Sistem Penyediaan Air Minum (SPAM)", "STSJRN_res": "Eksisting" }, "geometry": { "type": "MultiPoint", "coordinates": [ [ 106.639100001757399, -6.575153000695884, 0.0 ] ] } },
{ "type": "Feature", "properties": { "NAMOBJ": "Unit Produksi", "REMARK": "Inst. Geledug / Leuwiliang", "ORDE01_res": "Sistem Penyediaan Air Minum (SPAM)", "STSJRN_res": "Eksisting" }, "geometry": { "type": "MultiPoint", "coordinates": [ [ 106.641717001876643, -6.600180999668035, 0.0 ] ] } },
{ "type": "Feature", "properties": { "NAMOBJ": "Unit Produksi", "REMARK": "Spam Babakan Madang-Citeureup", "ORDE01_res": "Sistem Penyediaan Air Minum (SPAM)", "STSJRN_res": "Rencana" }, "geometry": { "type": "MultiPoint", "coordinates": [ [ 106.792972220946595, -6.715499999936459, 0.0 ] ] } },
{ "type": "Feature", "properties": { "NAMOBJ": "Unit Produksi", "REMARK": "Spam Babakan Madang-Sukaraja", "ORDE01_res": "Sistem Penyediaan Air Minum (SPAM)", "STSJRN_res": "Rencana" }, "geometry": { "type": "MultiPoint", "coordinates": [ [ 106.87774999978366, -6.623999999945981, 0.0 ] ] } },
{ "type": "Feature", "properties": { "NAMOBJ": "Unit Produksi", "REMARK": "Spam Ciawi", "ORDE01_res": "Sistem Penyediaan Air Minum (SPAM)", "STSJRN_res": "Rencana" }, "geometry": { "type": "MultiPoint", "coordinates": [ [ 106.911083330085461, -6.701055561114176, 0.0 ] ] } },
{ "type": "Feature", "properties": { "NAMOBJ": "Unit Produksi", "REMARK": "Spam Cibinong (Tambahan Supply)", "ORDE01_res": "Sistem Penyediaan Air Minum (SPAM)", "STSJRN_res": "Rencana" }, "geometry": { "type": "MultiPoint", "coordinates": [ [ 106.821583331918532, -6.473638889354918, 0.0 ] ] } },
{ "type": "Feature", "properties": { "NAMOBJ": "Unit Produksi", "REMARK": "Spam Cibungbulang", "ORDE01_res": "Sistem Penyediaan Air Minum (SPAM)", "STSJRN_res": "Rencana" }, "geometry": { "type": "MultiPoint", "coordinates": [ [ 106.668722221343458, -6.568805558032442, 0.0 ] ] } },
{ "type": "Feature", "properties": { "NAMOBJ": "Unit Produksi", "REMARK": "Spam Cigombong", "ORDE01_res": "Sistem Penyediaan Air Minum (SPAM)", "STSJRN_res": "Rencana" }, "geometry": { "type": "MultiPoint", "coordinates": [ [ 106.82866666964739, -6.755472221473717, 0.0 ] ] } },
{ "type": "Feature", "properties": { "NAMOBJ": "Unit Produksi", "REMARK": "Spam Cikahuripan (Tambahan Supply)", "ORDE01_res": "Sistem Penyediaan Air Minum (SPAM)", "STSJRN_res": "Rencana" }, "geometry": { "type": "MultiPoint", "coordinates": [ [ 106.727527781791522, -6.562638890045373, 0.0 ] ] } },
{ "type": "Feature", "properties": { "NAMOBJ": "Unit Produksi", "REMARK": "Spam Cisarua", "ORDE01_res": "Sistem Penyediaan Air Minum (SPAM)", "STSJRN_res": "Rencana" }, "geometry": { "type": "MultiPoint", "coordinates": [ [ 106.973444441814166, -6.701833330702454, 0.0 ] ] } },
{ "type": "Feature", "properties": { "NAMOBJ": "Unit Produksi", "REMARK": "Spam Jonggol-Klapanunggal", "ORDE01_res": "Sistem Penyediaan Air Minum (SPAM)", "STSJRN_res": "Rencana" }, "geometry": { "type": "MultiPoint", "coordinates": [ [ 106.907675001742518, -6.457194440146406, 0.0 ] ] } },
{ "type": "Feature", "properties": { "NAMOBJ": "Unit Produksi", "REMARK": "Spam Rancabungur", "ORDE01_res": "Sistem Penyediaan Air Minum (SPAM)", "STSJRN_res": "Rencana" }, "geometry": { "type": "MultiPoint", "coordinates": [ [ 106.737249999559467, -6.542000000431171, 0.0 ] ] } },
{ "type": "Feature", "properties": { "NAMOBJ": "Unit Produksi", "REMARK": "Spam Tenjo", "ORDE01_res": "Sistem Penyediaan Air Minum (SPAM)", "STSJRN_res": "Rencana" }, "geometry": { "type": "MultiPoint", "coordinates": [ [ 106.428861111713672, -6.349805557331298, 0.0 ] ] } },
{ "type": "Feature", "properties": { "NAMOBJ": "Unit Produksi", "REMARK": "Spam Tenjolaya", "ORDE01_res": "Sistem Penyediaan Air Minum (SPAM)", "STSJRN_res": "Rencana" }, "geometry": { "type": "MultiPoint", "coordinates": [ [ 106.716861110213884, -6.646666670601798, 0.0 ] ] } },
{ "type": "Feature", "properties": { "NAMOBJ": "Unit Produksi", "REMARK": "Tidak Ada", "ORDE01_res": "Sistem Penyediaan Air Minum (SPAM)", "STSJRN_res": "Eksisting" }, "geometry": { "type": "MultiPoint", "coordinates": [ [ 106.734387182717228, -6.463575207541139, 0.0 ], [ 106.816811026168139, -6.483253426571345, 0.0 ], [ 106.8467338123113, -6.636353814638627, 0.0 ] ] } },
{ "type": "Feature", "properties": { "NAMOBJ": "Unit Produksi", "REMARK": "Tidak Ada", "ORDE01_res": "Sistem Penyediaan Air Minum (SPAM)", "STSJRN_res": "Rencana" }, "geometry": { "type": "MultiPoint", "coordinates": [ [ 106.852083331959577, -6.596250000122248, 0.0 ], [ 106.985555558981517, -6.710277778821915, 0.0 ] ] } }
]
}
